sender,receiver,cargo_name,no_wagons,mdn_speed,lat_sender,lon_sender,lat_receiver,lon_receiver
станція АДАБАШ,станція ОДЕСА-ЛІСКИ,ОТСЕВ ГРАНИТНЫЙ ИЛИ КАМЕННЫЙ,520,73,48.3542589,31.4806175,46.522819,30.60268
станція АДАБАШ,станція ОДЕСА-ЛІСКИ,ЩЕБЕНЬ ГРАНИТНЫЙ НЕ ПОИМЕНОВАННЫЙ В АЛФАВИТЕ,284,73,48.3542589,31.4806175,46.522819,30.60268
станція БЕХИ,станція БРОВАРИ,ЩЕБЕНЬ ГРАНИТНЫЙ НЕ ПОИМЕНОВАННЫЙ В АЛФАВИТЕ,238,67,51.072889,28.677556,50.5147282,30.8132567
станція БЕХИ,станція КИЇВ-ДЕМІЇВСЬКИЙ,ЩЕБЕНЬ ГРАНИТНЫЙ НЕ ПОИМЕНОВАННЫЙ В АЛФАВИТЕ,890,97,51.072889,28.677556,50.4047454,30.5370509
станція БЕХИ,станція ПЕРСЕНКІВКА,ЩЕБЕНЬ ГРАНИТНЫЙ НЕ ПОИМЕНОВАННЫЙ В АЛФАВИТЕ,389,74,51.072889,28.677556,49.8098013,24.030408
станція БЕХИ,станція СОКАЛЬ,ЩЕБЕНЬ ГРАНИТНЫЙ НЕ ПОИМЕНОВАННЫЙ В АЛФАВИТЕ,216,122,51.072889,28.677556,50.4649598,24.2574808
станція БЕХИ,станція ЧЕРНІГІВ ПІВНІЧНИЙ,ЩЕБЕНЬ ГРАНИТНЫЙ НЕ ПОИМЕНОВАННЫЙ В АЛФАВИТЕ,1120,128,51.072889,28.677556,51.519809,31.248508
станція БОЛЕСЛАВЧИК,станція АККАРЖА,ЩЕБЕНЬ ГРАНИТНЫЙ НЕ ПОИМЕНОВАННЫЙ В АЛФАВИТЕ,1142,93,48.112439,30.784414,46.3322,30.55886
станція БОЛЕСЛАВЧИК,станція АРЦИЗ,ЩЕБЕНЬ ГРАНИТНЫЙ НЕ ПОИМЕНОВАННЫЙ В АЛФАВИТЕ,550,103,48.112439,30.784414,45.9968241,29.4199425
станція БОЛЕСЛАВЧИК,станція БІЛГОРОД-ДНІСТРОВСЬКИЙ,ОТСЕВ ГРАНИТНЫЙ ИЛИ КАМЕННЫЙ,211,85,48.112439,30.784414,46.1851723,30.3377686
станція БОЛЕСЛАВЧИК,станція БІЛГОРОД-ДНІСТРОВСЬКИЙ,ЩЕБЕНЬ ГРАНИТНЫЙ НЕ ПОИМЕНОВАННЫЙ В АЛФАВИТЕ,664,106,48.112439,30.784414,46.1851723,30.3377686
станція БОЛЕСЛАВЧИК,станція ДАЧНЕ,ОТСЕВ ГРАНИТНЫЙ ИЛИ КАМЕННЫЙ,515,70,48.112439,30.784414,50.8093821,25.4025522
станція БОЛЕСЛАВЧИК,станція ДАЧНЕ,ЩЕБЕНЬ ГРАНИТНЫЙ НЕ ПОИМЕНОВАННЫЙ В АЛФАВИТЕ,737,70,48.112439,30.784414,50.8093821,25.4025522
станція БОЛЕСЛАВЧИК,станція ДЗИНІЛОР,ОТСЕВ ГРАНИТНЫЙ ИЛИ КАМЕННЫЙ,237,103.5,48.112439,30.784414,45.65097,29.11494
станція БОЛЕСЛАВЧИК,станція ДЗИНІЛОР,ЩЕБЕНЬ ГРАНИТНЫЙ НЕ ПОИМЕНОВАННЫЙ В АЛФАВИТЕ,382,81,48.112439,30.784414,45.65097,29.11494
станція БОЛЕСЛАВЧИК,станція ЗАОСКІЛЛЯ,ЩЕБЕНЬ ГРАНИТНЫЙ НЕ ПОИМЕНОВАННЫЙ В АЛФАВИТЕ,207,137,48.112439,30.784414,49.708273,37.63754
станція БОЛЕСЛАВЧИК,станція ІНДУСТРІАЛЬНА,ЩЕБЕНЬ ГРАНИТНЫЙ НЕ ПОИМЕНОВАННЫЙ В АЛФАВИТЕ,843,143,48.112439,30.784414,49.962852,36.391769
станція БОЛЕСЛАВЧИК,станція КОТЛАБУХ,ОТСЕВ ГРАНИТНЫЙ ИЛИ КАМЕННЫЙ,338,83,48.112439,30.784414,45.6264999,28.9768277
станція БОЛЕСЛАВЧИК,станція КОТЛАБУХ,ЩЕБЕНЬ ГРАНИТНЫЙ НЕ ПОИМЕНОВАННЫЙ В АЛФАВИТЕ,888,83,48.112439,30.784414,45.6264999,28.9768277
станція БОЛЕСЛАВЧИК,станція КСЕНІЄВЕ,ЩЕБЕНЬ ГРАНИТНЫЙ НЕ ПОИМЕНОВАННЫЙ В АЛФАВИТЕ,4212,90,48.112439,30.784414,46.36337,30.62144
станція БОЛЕСЛАВЧИК,станція КУЛИНДОРОВЕ,ЩЕБЕНЬ ГРАНИТНЫЙ НЕ ПОИМЕНОВАННЫЙ В АЛФАВИТЕ,201,77,48.112439,30.784414,46.633722,30.793111
станція БОЛЕСЛАВЧИК,станція ОДЕСА-ЗАСТАВА I,ОТСЕВ ГРАНИТНЫЙ ИЛИ КАМЕННЫЙ,368,112,48.112439,30.784414,46.4776308,30.6545697
станція БОЛЕСЛАВЧИК,станція ОДЕСА-ЗАСТАВА I,ЩЕБЕНЬ ГРАНИТНЫЙ НЕ ПОИМЕНОВАННЫЙ В АЛФАВИТЕ,1531,112,48.112439,30.784414,46.4776308,30.6545697
станція БОЛЕСЛАВЧИК,станція ОДЕСА-ЗАХІДНА,ЩЕБЕНЬ ГРАНИТНЫЙ НЕ ПОИМЕНОВАННЫЙ В АЛФАВИТЕ,656,87,48.112439,30.784414,46.43871,30.6534599
станція БОЛЕСЛАВЧИК,станція ОДЕСА-ЛІСКИ,ОТСЕВ ГРАНИТНЫЙ ИЛИ КАМЕННЫЙ,320,85,48.112439,30.784414,46.522819,30.60268
станція БОЛЕСЛАВЧИК,станція ОДЕСА-ЛІСКИ,ЩЕБЕНЬ ГРАНИТНЫЙ НЕ ПОИМЕНОВАННЫЙ В АЛФАВИТЕ,1398,85,48.112439,30.784414,46.522819,30.60268
станція БОЛЕСЛАВЧИК,станція ОДЕСА-СОРТУВАЛЬНА,ОТСЕВ ГРАНИТНЫЙ ИЛИ КАМЕННЫЙ,247,58,48.112439,30.784414,46.55422,30.754395
станція БОЛЕСЛАВЧИК,станція ОДЕСА-СОРТУВАЛЬНА,ЩЕБЕНЬ ГРАНИТНЫЙ НЕ ПОИМЕНОВАННЫЙ В АЛФАВИТЕ,854,79,48.112439,30.784414,46.55422,30.754395
станція БОЛЕСЛАВЧИК,станція ОДЕСА-ТОВАРНА,ОТСЕВ ГРАНИТНЫЙ ИЛИ КАМЕННЫЙ,270,83,48.112439,30.784414,46.45531,30.71124
станція БОЛЕСЛАВЧИК,станція ОДЕСА-ТОВАРНА,ЩЕБЕНЬ ГРАНИТНЫЙ НЕ ПОИМЕНОВАННЫЙ В АЛФАВИТЕ,496,83,48.112439,30.784414,46.45531,30.71124
станція БОЛЕСЛАВЧИК,станція ОСНОВА,ЩЕБЕНЬ ГРАНИТНЫЙ НЕ ПОИМЕНОВАННЫЙ В АЛФАВИТЕ,864,139,48.112439,30.784414,49.9395953,36.2330042
станція БОЛЕСЛАВЧИК,станція САРАТА,ОТСЕВ ГРАНИТНЫЙ ИЛИ КАМЕННЫЙ,205,69,48.112439,30.784414,46.0159204,29.6789749
станція БОЛЕСЛАВЧИК,станція САРАТА,ЩЕБЕНЬ ГРАНИТНЫЙ НЕ ПОИМЕНОВАННЫЙ В АЛФАВИТЕ,398,81,48.112439,30.784414,46.0159204,29.6789749
станція БОЛЕСЛАВЧИК,станція ХАРКІВ-БАЛАШОВСЬКИЙ,ЩЕБЕНЬ ГРАНИТНЫЙ НЕ ПОИМЕНОВАННЫЙ В АЛФАВИТЕ,390,141,48.112439,30.784414,49.9740613,36.2767679
станція БОЛЕСЛАВЧИК,станція ХАРКІВ-ЛІСКИ,ЩЕБЕНЬ ГРАНИТНЫЙ НЕ ПОИМЕНОВАННЫЙ В АЛФАВИТЕ,813,140,48.112439,30.784414,49.959174,36.238248
станція БОЛЕСЛАВЧИК,станція ЧОРНОМОРСЬК-ПОРТ,ЩЕБЕНЬ ГРАНИТНЫЙ НЕ ПОИМЕНОВАННЫЙ В АЛФАВИТЕ,238,96,48.112439,30.784414,46.32227,30.62932
станція БОЛЕСЛАВЧИК,станція ЧОРНОМОРСЬКА (ДЛЯ ТІС),ЩЕБЕНЬ ГРАНИТНЫЙ НЕ ПОИМЕНОВАННЫЙ В АЛФАВИТЕ,576,79,48.112439,30.784414,46.82775,30.76
станція БОРЩІВ,станція ГРУШКИ,"ЩЕБЕНЬ,НЕ ПОИМЕНОВАННЫЙ В АЛФАВИТЕ",220,120,48.803477,26.060664,50.452278,30.410944
станція БРАЇЛІВ,станція АККАРЖА,ЩЕБЕНЬ ГРАНИТНЫЙ НЕ ПОИМЕНОВАННЫЙ В АЛФАВИТЕ,219,105,49.0861866,28.1400596,46.3322,30.55886
станція БРАЇЛІВ,станція БЕРЕЗОВИЦЯ-ОСТРІВ,ЩЕБЕНЬ ГРАНИТНЫЙ НЕ ПОИМЕНОВАННЫЙ В АЛФАВИТЕ,337,97.5,49.0861866,28.1400596,49.490776,25.605512
станція БРАЇЛІВ,станція КОЗОВА,ОТСЕВ ГРАНИТНЫЙ ИЛИ КАМЕННЫЙ,214,89,49.0861866,28.1400596,49.4296637,25.1642181
станція БРАЇЛІВ,станція КОЗОВА,ЩЕБЕНЬ ГРАНИТНЫЙ НЕ ПОИМЕНОВАННЫЙ В АЛФАВИТЕ,1224,89,49.0861866,28.1400596,49.4296637,25.1642181
станція БРАЇЛІВ,станція МАГАЛА (РЗД),ОТСЕВ ГРАНИТНЫЙ ИЛИ КАМЕННЫЙ,224,80.5,49.0861866,28.1400596,48.288608,26.0245891
станція БРАЇЛІВ,станція МАТІЇВЦІ,ЩЕБЕНЬ ГРАНИТНЫЙ НЕ ПОИМЕНОВАННЫЙ В АЛФАВИТЕ,256,91,49.0861866,28.1400596,48.4984887,25.1616737
станція БРАЇЛІВ,станція НАДВІРНА,ЩЕБЕНЬ ГРАНИТНЫЙ НЕ ПОИМЕНОВАННЫЙ В АЛФАВИТЕ,242,108,49.0861866,28.1400596,48.6242545,24.5847443
станція БРАЇЛІВ,станція НОВОСЕЛИЦЯ,ОТСЕВ ГРАНИТНЫЙ ИЛИ КАМЕННЫЙ,418,59,49.0861866,28.1400596,48.2240133,26.2806907
станція БРАЇЛІВ,станція НОВОСЕЛИЦЯ,ЩЕБЕНЬ ГРАНИТНЫЙ НЕ ПОИМЕНОВАННЫЙ В АЛФАВИТЕ,578,59,49.0861866,28.1400596,48.2240133,26.2806907
станція БРАЇЛІВ,станція ОДЕСА-ЛІСКИ,ОТСЕВ ГРАНИТНЫЙ ИЛИ КАМЕННЫЙ,216,125,49.0861866,28.1400596,46.522819,30.60268
станція БРАЇЛІВ,станція ОДЕСА-ЛІСКИ,ЩЕБЕНЬ ГРАНИТНЫЙ НЕ ПОИМЕНОВАННЫЙ В АЛФАВИТЕ,324,94,49.0861866,28.1400596,46.522819,30.60268
станція БРАЇЛІВ,станція РОГАТИН,ЩЕБЕНЬ ГРАНИТНЫЙ НЕ ПОИМЕНОВАННЫЙ В АЛФАВИТЕ,582,80,49.0861866,28.1400596,49.3997817,24.6214515
станція БРАЇЛІВ,станція ЧЕРНІВЦІ-ПІВДЕННА,ОТСЕВ ГРАНИТНЫЙ ИЛИ КАМЕННЫЙ,594,67,49.0861866,28.1400596,48.265337,25.957599
станція БРАЇЛІВ,станція ЧЕРНІВЦІ-ПІВДЕННА,ЩЕБЕНЬ ГРАНИТНЫЙ НЕ ПОИМЕНОВАННЫЙ В АЛФАВИТЕ,519,67,49.0861866,28.1400596,48.265337,25.957599
станція БУРШТИН,станція ГУМЕНЦІ,"ЗОЛА,НЕ ПОИМЕНОВАННАЯ В АЛФАВИТЕ",750,116,49.217461,24.6477491,48.770473,26.606396
станція БУЧАЧ,станція ЧЕРКАСИ,"ЩЕБЕНЬ,НЕ ПОИМЕНОВАННЫЙ В АЛФАВИТЕ",373,98,49.064831,25.3817159,49.425949,32.0498809
станція ВЕЛИКО-АНАДОЛЬ,станція ВОДОЛАГА,"ЩЕБЕНЬ,НЕ ПОИМЕНОВАННЫЙ В АЛФАВИТЕ",409,86,47.698172,37.486528,49.706697,35.8782909
станція ВЕЛИКО-АНАДОЛЬ,станція ДНІПРОРУДНЕ,"ЩЕБЕНЬ,НЕ ПОИМЕНОВАННЫЙ В АЛФАВИТЕ",4644,82,47.698172,37.486528,47.174629,34.962825
станція ВЕЛИКО-АНАДОЛЬ,станція ПРАВДА,ИЗВЕСТЬ НЕГАШЕНАЯ,523,91,47.698172,37.486528,48.517983,34.658394
станція ВІЛЬНОГІРСЬК,станція ДІЇВКА,ПЕСОК СТРОИТЕЛЬНЫЙ,203,40,48.4649743,34.0136594,48.462834,34.9122159
станція ВІЛЬНОГІРСЬК,станція САМАРІВКА,ПЕСОК СТРОИТЕЛЬНЫЙ,215,36,48.4649743,34.0136594,48.540278,35.121667
станція ВІННИЦЯ,станція БЕРЕЗОВИЦЯ-ОСТРІВ,ЩЕБЕНЬ ГРАНИТНЫЙ НЕ ПОИМЕНОВАННЫЙ В АЛФАВИТЕ,274,91,49.239428,28.5106651,49.490776,25.605512
станція ВІННИЦЯ,станція КОЗОВА,ЩЕБЕНЬ ГРАНИТНЫЙ НЕ ПОИМЕНОВАННЫЙ В АЛФАВИТЕ,583,77,49.239428,28.5106651,49.4296637,25.1642181
станція ВІННИЦЯ,станція ОДЕСА-ЛІСКИ,ЩЕБЕНЬ ГРАНИТНЫЙ НЕ ПОИМЕНОВАННЫЙ В АЛФАВИТЕ,227,83,49.239428,28.5106651,46.522819,30.60268
станція ВІННИЦЯ,станція СОКАЛЬ,ЩЕБЕНЬ ГРАНИТНЫЙ НЕ ПОИМЕНОВАННЫЙ В АЛФАВИТЕ,550,127,49.239428,28.5106651,50.4649598,24.2574808
станція ВІННИЦЯ,станція ТЕРНОПІЛЬ,ЩЕБЕНЬ ГРАНИТНЫЙ НЕ ПОИМЕНОВАННЫЙ В АЛФАВИТЕ,208,88,49.239428,28.5106651,49.56629,25.592613
станція ВОЗНЕСЕНСЬК,станція АККАРЖА,ПЕСОК СТРОИТЕЛЬНЫЙ,1478,74,47.573511,31.3238392,46.3322,30.55886
станція ВОЗНЕСЕНСЬК,станція БЕРЕГОВА,ПЕСОК СТРОИТЕЛЬНЫЙ,326,58,47.573511,31.3238392,46.632276,31.044189
станція ВОЗНЕСЕНСЬК,станція БЕСКИД,ПЕСОК СТРОИТЕЛЬНЫЙ,330,164,47.573511,31.3238392,48.7615191,23.3261828
станція ВОЗНЕСЕНСЬК,станція БІЛГОРОД-ДНІСТРОВСЬКИЙ,ПЕСОК СТРОИТЕЛЬНЫЙ,882,92,47.573511,31.3238392,46.1851723,30.3377686
станція ВОЗНЕСЕНСЬК,станція КСЕНІЄВЕ,ПЕСОК СТРОИТЕЛЬНЫЙ,1625,70,47.573511,31.3238392,46.36337,30.62144
станція ВОЗНЕСЕНСЬК,станція КУЛИНДОРОВЕ,ПЕСОК СТРОИТЕЛЬНЫЙ,395,53,47.573511,31.3238392,46.633722,30.793111
станція ВОЗНЕСЕНСЬК,станція ОДЕСА-ЗАСТАВА I,ПЕСОК СТРОИТЕЛЬНЫЙ,7007,93,47.573511,31.3238392,46.4776308,30.6545697
станція ВОЗНЕСЕНСЬК,станція ОДЕСА-ЛІСКИ,ПЕСОК СТРОИТЕЛЬНЫЙ,3970,64,47.573511,31.3238392,46.522819,30.60268
станція ВОЗНЕСЕНСЬК,станція ОДЕСА-ПЕРЕСИП,ПЕСОК СТРОИТЕЛЬНЫЙ,1579,57,47.573511,31.3238392,46.52502,30.726413
станція ВОЗНЕСЕНСЬК,станція ОДЕСА-ТОВАРНА,ПЕСОК СТРОИТЕЛЬНЫЙ,4644,92,47.573511,31.3238392,46.45531,30.71124
станція ВОЗНЕСЕНСЬК,станція ПОРОМНА,ПЕСОК СТРОИТЕЛЬНЫЙ,520,68,47.573511,31.3238392,46.39689,30.656375
станція ВОЗНЕСЕНСЬК,станція ЧОРНОМОРСЬКА (ДЛЯ ТІС),ПЕСОК СТРОИТЕЛЬНЫЙ,1450,83,47.573511,31.3238392,46.82775,30.76
станція ВОЛНОВАХА,станція ДНІПРОРУДНЕ,"ЩЕБЕНЬ,НЕ ПОИМЕНОВАННЫЙ В АЛФАВИТЕ",353,79,47.6016927,37.4901415,47.174629,34.962825
станція ГАЙВОРОН,станція АККАРЖА,ЩЕБЕНЬ ГРАНИТНЫЙ НЕ ПОИМЕНОВАННЫЙ В АЛФАВИТЕ,799,116,48.344795,29.817622,46.3322,30.55886
станція ГАЙВОРОН,станція АРЦИЗ,ЩЕБЕНЬ ГРАНИТНЫЙ НЕ ПОИМЕНОВАННЫЙ В АЛФАВИТЕ,734,101,48.344795,29.817622,45.9968241,29.4199425
станція ГАЙВОРОН,станція БОРЖАВА,ОТСЕВ ГРАНИТНЫЙ ИЛИ КАМЕННЫЙ,239,108,48.344795,29.817622,48.164559,22.719349
станція ГАЙВОРОН,станція БОРЖАВА,ЩЕБЕНЬ ГРАНИТНЫЙ НЕ ПОИМЕНОВАННЫЙ В АЛФАВИТЕ,762,123,48.344795,29.817622,48.164559,22.719349
станція ГАЙВОРОН,станція ДАЧНЕ,ЩЕБЕНЬ ГРАНИТНЫЙ НЕ ПОИМЕНОВАННЫЙ В АЛФАВИТЕ,740,104,48.344795,29.817622,50.8093821,25.4025522
станція ГАЙВОРОН,станція ІЗМАЇЛ,ОТСЕВ ГРАНИТНЫЙ ИЛИ КАМЕННЫЙ,2052,143,48.344795,29.817622,45.3600096,28.812532
станція ГАЙВОРОН,станція ІЗМАЇЛ,ЩЕБЕНЬ ГРАНИТНЫЙ НЕ ПОИМЕНОВАННЫЙ В АЛФАВИТЕ,2389,143,48.344795,29.817622,45.3600096,28.812532
станція ГАЙВОРОН,станція КОТЛАБУХ,ЩЕБЕНЬ ГРАНИТНЫЙ НЕ ПОИМЕНОВАННЫЙ В АЛФАВИТЕ,681,113,48.344795,29.817622,45.6264999,28.9768277
станція ГАЙВОРОН,станція НАДВІРНА,ОТСЕВ ГРАНИТНЫЙ ИЛИ КАМЕННЫЙ,773,108,48.344795,29.817622,48.6242545,24.5847443
станція ГАЙВОРОН,станція НАДВІРНА,ЩЕБЕНЬ ГРАНИТНЫЙ НЕ ПОИМЕНОВАННЫЙ В АЛФАВИТЕ,1917,126,48.344795,29.817622,48.6242545,24.5847443
станція ГАЙВОРОН,станція ОДЕСА-ЗАХІДНА,ЩЕБЕНЬ ГРАНИТНЫЙ НЕ ПОИМЕНОВАННЫЙ В АЛФАВИТЕ,579,111,48.344795,29.817622,46.43871,30.6534599
станція ГАЙВОРОН,станція ОДЕСА-ЛІСКИ,ЩЕБЕНЬ ГРАНИТНЫЙ НЕ ПОИМЕНОВАННЫЙ В АЛФАВИТЕ,252,84,48.344795,29.817622,46.522819,30.60268
станція ГАЙВОРОН,станція ОДЕСА-СОРТУВАЛЬНА,ЩЕБЕНЬ ГРАНИТНЫЙ НЕ ПОИМЕНОВАННЫЙ В АЛФАВИТЕ,247,91,48.344795,29.817622,46.55422,30.754395
станція ГАЙВОРОН,станція РОЗДІЛЬНА I,ЩЕБЕНЬ ГРАНИТНЫЙ НЕ ПОИМЕНОВАННЫЙ В АЛФАВИТЕ,227,73,48.344795,29.817622,46.8502,30.07361
станція ГАЙВОРОН,станція ХАРКІВ-ВАНТАЖНИЙ,ЩЕБЕНЬ ГРАНИТНЫЙ НЕ ПОИМЕНОВАННЫЙ В АЛФАВИТЕ,601,148,48.344795,29.817622,49.847,36.2473
станція ГАЙВОРОН,станція ХРИПЛИН,ЩЕБЕНЬ ГРАНИТНЫЙ НЕ ПОИМЕНОВАННЫЙ В АЛФАВИТЕ,658,145,48.344795,29.817622,48.8851079,24.7468767
станція ГАЙВОРОН,станція ЧЕРНІГІВ ПІВНІЧНИЙ,ЩЕБЕНЬ ГРАНИТНЫЙ НЕ ПОИМЕНОВАННЫЙ В АЛФАВИТЕ,534,141,48.344795,29.817622,51.519809,31.248508
станція ГЕНРІХІВКА,станція ОДЕСА-ЛІСКИ,ЩЕБЕНЬ ГРАНИТНЫЙ НЕ ПОИМЕНОВАННЫЙ В АЛФАВИТЕ,269,99,48.497639,29.6381801,46.522819,30.60268
станція ГЕНРІХІВКА,станція ЦЕНЖІВ,ЩЕБЕНЬ ГРАНИТНЫЙ НЕ ПОИМЕНОВАННЫЙ В АЛФАВИТЕ,217,144,48.497639,29.6381801,48.999803,24.596851
станція ГЛУХІВ,станція КИЇВ-ДЕМІЇВСЬКИЙ,"МЕЛ В КУСКАХ,МОЛОТЫЙ И ТОЛЧЕНЫЙ",994,109,51.679907,33.938458,50.4047454,30.5370509
станція ГНІВАНЬ,станція АККАРЖА,ЩЕБЕНЬ ГРАНИТНЫЙ НЕ ПОИМЕНОВАННЫЙ В АЛФАВИТЕ,952,72,49.1023539,28.3299434,46.3322,30.55886
станція ГНІВАНЬ,станція БЕРЕЗОВИЦЯ-ОСТРІВ,ЩЕБЕНЬ ГРАНИТНЫЙ НЕ ПОИМЕНОВАННЫЙ В АЛФАВИТЕ,1289,83,49.1023539,28.3299434,49.490776,25.605512
станція ГНІВАНЬ,станція ДЕРЕНІВКА,ОТСЕВ ГРАНИТНЫЙ ИЛИ КАМЕННЫЙ,262,95,49.1023539,28.3299434,49.239925,25.770231
станція ГНІВАНЬ,станція ІВАНО-ФРАНКІВСЬК,ЩЕБЕНЬ ГРАНИТНЫЙ НЕ ПОИМЕНОВАННЫЙ В АЛФАВИТЕ,718,105,49.1023539,28.3299434,48.9251948,24.7235268
станція ГНІВАНЬ,станція ІВАНО-ФРАНКІВСЬК,ЩЕБЕНЬ ГРАНИТНЫЙ ФРАКЦИИ 5Х20,302,105,49.1023539,28.3299434,48.9251948,24.7235268
станція ГНІВАНЬ,станція КРАСНЕ,ЩЕБЕНЬ ГРАНИТНЫЙ НЕ ПОИМЕНОВАННЫЙ В АЛФАВИТЕ,229,82,49.1023539,28.3299434,49.9172135,24.6159582
станція ГНІВАНЬ,станція МОГИЛІВ-ПОДІЛЬСЬКИЙ,ОТСЕВ ГРАНИТНЫЙ ИЛИ КАМЕННЫЙ,207,68,49.1023539,28.3299434,48.45788,27.775153
станція ГНІВАНЬ,станція ОДЕСА-ЗАСТАВА I,ЩЕБЕНЬ ГРАНИТНЫЙ НЕ ПОИМЕНОВАННЫЙ В АЛФАВИТЕ,1255,99,49.1023539,28.3299434,46.4776308,30.6545697
станція ГНІВАНЬ,станція ОДЕСА-ЛІСКИ,ОТСЕВ ГРАНИТНЫЙ ИЛИ КАМЕННЫЙ,300,78,49.1023539,28.3299434,46.522819,30.60268
станція ГНІВАНЬ,станція ОДЕСА-ЛІСКИ,ЩЕБЕНЬ ГРАНИТНЫЙ НЕ ПОИМЕНОВАННЫЙ В АЛФАВИТЕ,335,65,49.1023539,28.3299434,46.522819,30.60268
станція ГНІВАНЬ,станція ПОЧАЙНА,ЩЕБЕНЬ ГРАНИТНЫЙ НЕ ПОИМЕНОВАННЫЙ В АЛФАВИТЕ,972,85,49.1023539,28.3299434,50.485104,30.500415
станція ГНІВАНЬ,станція ХМЕЛЬНИЦЬКИЙ,ЩЕБЕНЬ ГРАНИТНЫЙ НЕ ПОИМЕНОВАННЫЙ В АЛФАВИТЕ,2224,60,49.1023539,28.3299434,49.416645,27.0097674
станція ГРАНІТНИЙ,станція ДРОГОБИЧ,ОТСЕВ ГРАНИТНЫЙ ИЛИ КАМЕННЫЙ,326,127,50.749028,29.347611,49.3551448,23.5434562
станція ГУБИНИХА,станція КРИВИЙ РІГ-ГОЛОВНИЙ,ИЗВЕСТЬ НЕГАШЕНАЯ,1875,32,48.809654,35.271562,47.9123,33.451545
станція ГУБИНИХА,станція ПРАВДА,ИЗВЕСТЬ НЕГАШЕНАЯ,233,45,48.809654,35.271562,48.517983,34.658394
станція ДЕКОНСЬКА,станція ГРУШКИ,"ГИПС,НЕ ПОИМЕНОВАННЫЙ В АЛФАВИТЕ",3684,153,48.676131,38.084713,50.452278,30.410944
станція ДЕКОНСЬКА,станція СКНИЛІВ,"ГИПС,НЕ ПОИМЕНОВАННЫЙ В АЛФАВИТЕ",700,235,48.676131,38.084713,49.818992,23.931606
станція ДЕКОНСЬКА,станція ХАРКІВ-СОРТУВАЛЬНИЙ,"ГИПС,НЕ ПОИМЕНОВАННЫЙ В АЛФАВИТЕ",273,88,48.676131,38.084713,50.030735,36.177962
станція ДЕКОНСЬКА,станція ЧЕРНІГІВ,"ГИПС,НЕ ПОИМЕНОВАННЫЙ В АЛФАВИТЕ",215,154,48.676131,38.084713,51.4855,31.2666
станція ДНІПРОБУД II,станція ШПИЧКИНЕ,ОТСЕВ ГРАНИТНЫЙ ИЛИ КАМЕННЫЙ,252,89,47.8101625,35.02558,48.753699,37.5595991
станція ДНІПРОБУД II,станція ШПИЧКИНЕ,ЩЕБЕНЬ ГРАНИТНЫЙ ФРАКЦИИ 20Х40,256,89,47.8101625,35.02558,48.753699,37.5595991
станція ДНІПРОБУД II,станція ШПИЧКИНЕ,ЩЕБЕНЬ ГРАНИТНЫЙ ФРАКЦИИ 5Х20,211,119,47.8101625,35.02558,48.753699,37.5595991
станція ЗАКУПНЕ,станція ЛАДИЖИН,"ИЗВЕСТНЯК МОЛОТЫЙ,НЕ ПОИМЕНОВАННЫЙ В АЛФАВИТЕ",390,63,49.108364,26.317903,48.609462,29.1503679
станція ЗАКУПНЕ,станція МИРОНІВКА,"ИЗВЕСТНЯК МОЛОТЫЙ,НЕ ПОИМЕНОВАННЫЙ В АЛФАВИТЕ",433,124,49.108364,26.317903,49.678092,30.9119329
станція ЗАКУПНЕ,станція ПОЧАЙНА,"ИЗВЕСТНЯК МОЛОТЫЙ,НЕ ПОИМЕНОВАННЫЙ В АЛФАВИТЕ",204,104.5,49.108364,26.317903,50.485104,30.500415
станція ЗАОСКІЛЛЯ,станція БАСИ,ИЗВЕСТЬ НЕГАШЕНАЯ,2045,105,49.708273,37.63754,50.862753,34.886865
станція ЗАОСКІЛЛЯ,станція ГОРЯЇНОВЕ,ИЗВЕСТЬ НЕГАШЕНАЯ,821,108,49.708273,37.63754,48.478592,34.983294
станція ЗАОСКІЛЛЯ,станція КРИВИЙ РІГ-ГОЛОВНИЙ,ИЗВЕСТЬ НЕГАШЕНАЯ,820,84,49.708273,37.63754,47.9123,33.451545
станція ЗАПОРІЖЖЯ-ЛІВЕ,станція ЗАПОВІТНЕ,ШЛАКИ ДОМЕННЫЕ,688,60,47.86944,35.1917334,47.3728633,34.6164763
станція ЗАПОРІЖЖЯ-ЛІВЕ,станція КАЛАНЧАК,ШЛАКИ ДОМЕННЫЕ,280,113,47.86944,35.1917334,46.254876,33.465578
станція ЗАПОРІЖЖЯ-ЛІВЕ,станція КОЧУБЕЇВКА,ШЛАКИ ДОМЕННЫЕ,521,73,47.86944,35.1917334,49.741944,34.969722
станція ЗАПОРІЖЖЯ-ЛІВЕ,станція НОВООЛЕКСІЇВКА,ШЛАКИ ДОМЕННЫЕ,1551,72,47.86944,35.1917334,46.209257,34.6323769
станція ЗАПОРІЖЖЯ-ЛІВЕ,станція СУПРУНІВКА,ШЛАКИ ДОМЕННЫЕ,740,63,47.86944,35.1917334,49.587831,34.476587
станція ЗАПОРІЖЖЯ-ЛІВЕ,станція ХОРОЛ,ШЛАКИ ДОМЕННЫЕ,1101,75,47.86944,35.1917334,49.7844376,33.2073584
станція ЗЕЛЕНЕ ПОЛЕ,станція БЕРЕГОВА  (ЕКСП.),"ШЛАКИ,КРОМЕ ГРАНУЛИРОВАННЫХ И МЕТАЛЛУРГИЧЕСКИХ ДЛЯ ПЕРЕПЛАВКИ,НЕ ПОИМЕНОВАННЫЕ В АЛФАВИТЕ",275,98,48.057999,33.6329791,46.632276,31.044189
станція ЗОЛОТНИШИНЕ,станція ВІЛЬНОГІРСЬК,"ЩЕБЕНЬ,НЕ ПОИМЕНОВАННЫЙ В АЛФАВИТЕ",266,47,49.018889,33.644722,48.4649743,34.0136594
станція ЗОЛОТНИШИНЕ,станція ДВОРІЧНА,"ЩЕБЕНЬ,НЕ ПОИМЕНОВАННЫЙ В АЛФАВИТЕ",253,109,49.018889,33.644722,49.852659,37.7305801
станція ЗОЛОТНИШИНЕ,станція ЖОВТНЕВА,"ЩЕБЕНЬ,НЕ ПОИМЕНОВАННЫЙ В АЛФАВИТЕ",359,125,49.018889,33.644722,46.834899,31.967136
станція ЗОЛОТНИШИНЕ,станція ЗАОСКІЛЛЯ,ЩЕБЕНЬ ГРАНИТНЫЙ ФРАКЦИИ 5Х20,256,104,49.018889,33.644722,49.708273,37.63754
станція ЗОЛОТНИШИНЕ,станція ІНДУСТРІАЛЬНА,ЩЕБЕНЬ ГРАНИТНЫЙ ФРАКЦИИ 10Х20,434,102,49.018889,33.644722,49.962852,36.391769
станція ЗОЛОТНИШИНЕ,станція ІНДУСТРІАЛЬНА,ЩЕБЕНЬ ГРАНИТНЫЙ ФРАКЦИИ 20Х40,218,102,49.018889,33.644722,49.962852,36.391769
станція ЗОЛОТНИШИНЕ,станція ІНДУСТРІАЛЬНА,ЩЕБЕНЬ ГРАНИТНЫЙ ФРАКЦИИ 5Х20,306,102,49.018889,33.644722,49.962852,36.391769
станція ЗОЛОТНИШИНЕ,станція ІНДУСТРІАЛЬНА,"ЩЕБЕНЬ,НЕ ПОИМЕНОВАННЫЙ В АЛФАВИТЕ",371,102,49.018889,33.644722,49.962852,36.391769
станція ЗОЛОТНИШИНЕ,станція КАРЛІВКА,"ЩЕБЕНЬ,НЕ ПОИМЕНОВАННЫЙ В АЛФАВИТЕ",214,81.5,49.018889,33.644722,49.455277,35.127453
станція ЗОЛОТНИШИНЕ,станція МИРГОРОД,"ЩЕБЕНЬ,НЕ ПОИМЕНОВАННЫЙ В АЛФАВИТЕ",350,85,49.018889,33.644722,49.9496173,33.6299724
станція ЗОЛОТНИШИНЕ,станція НОВА БАВАРІЯ,ЩЕБЕНЬ ГРАНИТНЫЙ ФРАКЦИИ 20Х40,251,94,49.018889,33.644722,49.955513,36.1603809
станція ЗОЛОТНИШИНЕ,станція ОДЕСА-ЗАСТАВА I,"ЩЕБЕНЬ,НЕ ПОИМЕНОВАННЫЙ В АЛФАВИТЕ",302,106,49.018889,33.644722,46.4776308,30.6545697
станція ЗОЛОТНИШИНЕ,станція ОДЕСА-СОРТУВАЛЬНА,"ЩЕБЕНЬ,НЕ ПОИМЕНОВАННЫЙ В АЛФАВИТЕ",440,129,49.018889,33.644722,46.55422,30.754395
станція ЗОЛОТНИШИНЕ,станція ПОРОМНА,"ЩЕБЕНЬ,НЕ ПОИМЕНОВАННЫЙ В АЛФАВИТЕ",244,110,49.018889,33.644722,46.39689,30.656375
станція ЗОЛОТНИШИНЕ,станція РОМНИ,ЩЕБЕНЬ ГРАНИТНЫЙ ФРАКЦИИ 5Х20,354,81,49.018889,33.644722,50.7493257,33.4687271
станція ЗОЛОТНИШИНЕ,станція СУЛА,"ЩЕБЕНЬ,НЕ ПОИМЕНОВАННЫЙ В АЛФАВИТЕ",293,81.5,49.018889,33.644722,50.3987138,33.3989524
станція ЗОЛОТНИШИНЕ,станція СУПРУНІВКА,ЩЕБЕНЬ ГРАНИТНЫЙ ФРАКЦИИ 5Х20,549,85,49.018889,33.644722,49.587831,34.476587
станція ЗОЛОТНИШИНЕ,станція СУПРУНІВКА,"ЩЕБЕНЬ,НЕ ПОИМЕНОВАННЫЙ В АЛФАВИТЕ",279,85,49.018889,33.644722,49.587831,34.476587
станція ЗОЛОТНИШИНЕ,станція ХАРКІВ-БАЛАШОВСЬКИЙ,ЩЕБЕНЬ ГРАНИТНЫЙ НЕ ПОИМЕНОВАННЫЙ В АЛФАВИТЕ,255,74,49.018889,33.644722,49.9740613,36.2767679
станція ЗОЛОТНИШИНЕ,станція ХАРКІВ-БАЛАШОВСЬКИЙ,ЩЕБЕНЬ ГРАНИТНЫЙ ФРАКЦИИ 10Х20,397,98,49.018889,33.644722,49.9740613,36.2767679
станція ЗОЛОТНИШИНЕ,станція ХАРКІВ-ВАНТАЖНИЙ,ОТСЕВ ГРАНИТНЫЙ ИЛИ КАМЕННЫЙ,214,97,49.018889,33.644722,49.847,36.2473
станція ЗОЛОТНИШИНЕ,станція ХАРКІВ-ВАНТАЖНИЙ,ЩЕБЕНЬ ГРАНИТНЫЙ НЕ ПОИМЕНОВАННЫЙ В АЛФАВИТЕ,242,73,49.018889,33.644722,49.847,36.2473
станція ЗОЛОТНИШИНЕ,станція ХАРКІВ-ВАНТАЖНИЙ,ЩЕБЕНЬ ГРАНИТНЫЙ ФРАКЦИИ 20Х40,238,97,49.018889,33.644722,49.847,36.2473
станція ЗОЛОТНИШИНЕ,станція ХАРКІВ-ЛІСКИ,"ЩЕБЕНЬ,НЕ ПОИМЕНОВАННЫЙ В АЛФАВИТЕ",1083,98,49.018889,33.644722,49.959174,36.238248
станція ЗОЛОТНИШИНЕ,станція ХАРКІВ-СОРТУВАЛЬНИЙ,ЩЕБЕНЬ ГРАНИТНЫЙ НЕ ПОИМЕНОВАННЫЙ В АЛФАВИТЕ,281,100,49.018889,33.644722,50.030735,36.177962
станція ЗОЛОТНИШИНЕ,станція ХАРКІВ-СОРТУВАЛЬНИЙ,ЩЕБЕНЬ ГРАНИТНЫЙ ФРАКЦИИ 5Х20,871,100,49.018889,33.644722,50.030735,36.177962
станція ЗОЛОТНИШИНЕ,станція ХАРКІВ-СОРТУВАЛЬНИЙ,"ЩЕБЕНЬ,НЕ ПОИМЕНОВАННЫЙ В АЛФАВИТЕ",2100,100,49.018889,33.644722,50.030735,36.177962
станція ЗОЛОТНИШИНЕ,станція ЯРЕСЬКИ,ЩЕБЕНЬ ГРАНИТНЫЙ ФРАКЦИИ 5Х20,316,65,49.018889,33.644722,49.81517,33.88322
станція ІВАНЕ-ПУСТЕ,станція МИКОЛАЇВ-ДНІСТРОВСЬКИЙ,"ЩЕБЕНЬ,НЕ ПОИМЕНОВАННЫЙ В АЛФАВИТЕ",250,79,48.644459,26.1740599,49.5119481,23.9535355
станція ІВАНЕ-ПУСТЕ,станція ЯСНА ЗОРЯ,"ЩЕБЕНЬ,НЕ ПОИМЕНОВАННЫЙ В АЛФАВИТЕ",203,131,48.644459,26.1740599,47.18757,31.71714
станція ІГНАТПІЛЬ,станція БАР,ПЕСОК СТРОИТЕЛЬНЫЙ,248,108,51.144154,28.7288837,49.036101,27.722638
станція ІЗОВ (ЕКСП. ПКП),станція СЛАВУТА I,"ГЛИНА,НЕ ПОИМЕНОВАННАЯ В АЛФАВИТЕ",213,57,50.828474,24.059367,50.32072,26.88511
станція КАЙДАЦЬКА,станція ЧЕРКАСИ,ШЛАКИ ДОМЕННЫЕ,581,92,48.481699,34.986165,49.425949,32.0498809
станція КАМ’ЯНЕЦЬ-ПОДІЛЬСЬКИЙ,станція ВАСИЛЬКІВ I,"ИЗВЕСТНЯК МОЛОТЫЙ,НЕ ПОИМЕНОВАННЫЙ В АЛФАВИТЕ",203,88,48.6880686,26.6015963,50.2255111,30.2255802
станція КАМ’ЯНЕЦЬ-ПОДІЛЬСЬКИЙ,станція ВАСИЛЬКІВ I,КРОШКА ИЗВЕСТКОВАЯ,213,88,48.6880686,26.6015963,50.2255111,30.2255802
станція КАМ’ЯНЕЦЬ-ПОДІЛЬСЬКИЙ,станція КУЛИНДОРОВЕ,"ГИПС,НЕ ПОИМЕНОВАННЫЙ В АЛФАВИТЕ",636,89,48.6880686,26.6015963,46.633722,30.793111
станція КАМ’ЯНЕЦЬ-ПОДІЛЬСЬКИЙ,станція НОВОМОСКОВСЬК-ДНІПРОВСЬКИЙ,"ИЗВЕСТНЯК МОЛОТЫЙ,НЕ ПОИМЕНОВАННЫЙ В АЛФАВИТЕ",229,141,48.6880686,26.6015963,48.643827,35.23381
станція КАМ’ЯНСЬКЕ,станція ВІЛЬНОГІРСЬК,ШЛАКИ ДОМЕННЫЕ,233,26,48.4974778,34.6042228,48.4649743,34.0136594
станція КАПУСТИНЕ,станція ОРІХІВСЬКА,ГРАНИТ,316,83,48.471449,31.551335,47.559444,35.788333
станція КИЇВ-ДНІПРОВСЬКИЙ,станція ВІННИЦЯ,ПЕСОК СТРОИТЕЛЬНЫЙ,253,79,50.4614266,30.5960086,49.239428,28.5106651
станція КЛЕПАРІВ,станція НАДВІРНА,ЩЕБЕНЬ ГРАНИТНЫЙ НЕ ПОИМЕНОВАННЫЙ В АЛФАВИТЕ,304,90,49.854236,23.982583,48.6242545,24.5847443
станція КЛЕПАРІВ,станція ХРИПЛИН,ЩЕБЕНЬ ГРАНИТНЫЙ НЕ ПОИМЕНОВАННЫЙ В АЛФАВИТЕ,232,73,49.854236,23.982583,48.8851079,24.7468767
станція КЛЕСІВ,станція БЕРЕЗОВИЦЯ-ОСТРІВ,ЩЕБЕНЬ ГРАНИТНЫЙ НЕ ПОИМЕНОВАННЫЙ В АЛФАВИТЕ,388,60,51.3118938,26.8919075,49.490776,25.605512
станція КЛЕСІВ,станція ВЕРБКА,ЩЕБЕНЬ ГРАНИТНЫЙ НЕ ПОИМЕНОВАННЫЙ В АЛФАВИТЕ,631,83,51.3118938,26.8919075,51.234036,24.692921
станція КЛЕСІВ,станція ВОЛОВЕЦЬ,ЩЕБЕНЬ ГРАНИТНЫЙ НЕ ПОИМЕНОВАННЫЙ В АЛФАВИТЕ,408,123,51.3118938,26.8919075,48.7137457,23.1846838
станція КЛЕСІВ,станція ВОРОХТА,ЩЕБЕНЬ ГРАНИТНЫЙ НЕ ПОИМЕНОВАННЫЙ В АЛФАВИТЕ,293,110,51.3118938,26.8919075,48.293365,24.5646569
станція КЛЕСІВ,станція ГІРНИК,ЩЕБЕНЬ ГРАНИТНЫЙ НЕ ПОИМЕНОВАННЫЙ В АЛФАВИТЕ,1113,70,51.3118938,26.8919075,50.353333,24.223611
станція КЛЕСІВ,станція ГЛИННА-НАВАРІЯ,ЩЕБЕНЬ ГРАНИТНЫЙ НЕ ПОИМЕНОВАННЫЙ В АЛФАВИТЕ,474,113,51.3118938,26.8919075,49.734195,23.8989759
станція КЛЕСІВ,станція ГЛІБОВИЧІ,ЩЕБЕНЬ ГРАНИТНЫЙ НЕ ПОИМЕНОВАННЫЙ В АЛФАВИТЕ,548,89,51.3118938,26.8919075,49.600774,24.230879
станція КЛЕСІВ,станція ГНІДАВА,ЩЕБЕНЬ ГРАНИТНЫЙ НЕ ПОИМЕНОВАННЫЙ В АЛФАВИТЕ,773,98,51.3118938,26.8919075,50.7135044,25.3198979
станція КЛЕСІВ,станція ДАВИДІВ,ЩЕБЕНЬ ГРАНИТНЫЙ НЕ ПОИМЕНОВАННЫЙ В АЛФАВИТЕ,2403,114,51.3118938,26.8919075,49.7431731,24.1471702
станція КЛЕСІВ,станція ДЕЛЯТИН,ЩЕБЕНЬ ГРАНИТНЫЙ НЕ ПОИМЕНОВАННЫЙ В АЛФАВИТЕ,230,74,51.3118938,26.8919075,48.5085457,24.6167114
станція КЛЕСІВ,станція ДУБЛЯНИ-ЛЬВІВСЬКІ,ЩЕБЕНЬ ГРАНИТНЫЙ НЕ ПОИМЕНОВАННЫЙ В АЛФАВИТЕ,838,105,51.3118938,26.8919075,49.882756,24.0938039
станція КЛЕСІВ,станція ЖИДАЧІВ,ЩЕБЕНЬ ГРАНИТНЫЙ НЕ ПОИМЕНОВАННЫЙ В АЛФАВИТЕ,291,133,51.3118938,26.8919075,49.377195,24.159124
станція КЛЕСІВ,станція ЖОВКВА,ОТСЕВ ГРАНИТНЫЙ ИЛИ КАМЕННЫЙ,258,117,51.3118938,26.8919075,50.005451,24.0122791
станція КЛЕСІВ,станція ЖОВКВА,ЩЕБЕНЬ ГРАНИТНЫЙ НЕ ПОИМЕНОВАННЫЙ В АЛФАВИТЕ,1217,117,51.3118938,26.8919075,50.005451,24.0122791
станція КЛЕСІВ,станція ЗАБОЛОТІВ,ЩЕБЕНЬ ГРАНИТНЫЙ НЕ ПОИМЕНОВАННЫЙ В АЛФАВИТЕ,349,89,51.3118938,26.8919075,48.4723378,25.2792457
станція КЛЕСІВ,станція ЗАПИТІВ,ЩЕБЕНЬ ГРАНИТНЫЙ НЕ ПОИМЕНОВАННЫЙ В АЛФАВИТЕ,1452,81,51.3118938,26.8919075,49.920035,24.2236161
станція КЛЕСІВ,станція ЗЛОЧІВ,ЩЕБЕНЬ ГРАНИТНЫЙ НЕ ПОИМЕНОВАННЫЙ В АЛФАВИТЕ,858,97,51.3118938,26.8919075,50.277582,35.9894641
станція КЛЕСІВ,станція ІВАНО-ФРАНКІВСЬК,ЩЕБЕНЬ ГРАНИТНЫЙ НЕ ПОИМЕНОВАННЫЙ В АЛФАВИТЕ,558,116,51.3118938,26.8919075,48.9251948,24.7235268
станція КЛЕСІВ,станція ІЗОВ (ЕКСП. ПКП),ОТСЕВ ГРАНИТНЫЙ ИЛИ КАМЕННЫЙ,665,83,51.3118938,26.8919075,50.828474,24.059367
станція КЛЕСІВ,станція ІЗОВ (ЕКСП. ПКП),ЩЕБЕНЬ ГРАНИТНЫЙ НЕ ПОИМЕНОВАННЫЙ В АЛФАВИТЕ,3640,83,51.3118938,26.8919075,50.828474,24.059367
станція КЛЕСІВ,станція КАЛУШ,ЩЕБЕНЬ ГРАНИТНЫЙ НЕ ПОИМЕНОВАННЫЙ В АЛФАВИТЕ,359,92,51.3118938,26.8919075,49.0128135,24.3491688
станція КЛЕСІВ,станція КОЗОВА,ЩЕБЕНЬ ГРАНИТНЫЙ НЕ ПОИМЕНОВАННЫЙ В АЛФАВИТЕ,263,133,51.3118938,26.8919075,49.4296637,25.1642181
станція КЛЕСІВ,станція КОЛОМИЯ,ЩЕБЕНЬ ГРАНИТНЫЙ НЕ ПОИМЕНОВАННЫЙ В АЛФАВИТЕ,214,103,51.3118938,26.8919075,48.53443,25.0600831
станція КЛЕСІВ,станція ЛЬВІВ,ЩЕБЕНЬ ГРАНИТНЫЙ НЕ ПОИМЕНОВАННЫЙ В АЛФАВИТЕ,301,107,51.3118938,26.8919075,49.8397205,23.994382
станція КЛЕСІВ,станція ЛЮБОМЛЬ,ЩЕБЕНЬ ГРАНИТНЫЙ НЕ ПОИМЕНОВАННЫЙ В АЛФАВИТЕ,409,71,51.3118938,26.8919075,51.215031,24.043023
станція КЛЕСІВ,станція МАГАЛА (РЗД),ЩЕБЕНЬ ГРАНИТНЫЙ НЕ ПОИМЕНОВАННЫЙ В АЛФАВИТЕ,264,149,51.3118938,26.8919075,48.288608,26.0245891
станція КЛЕСІВ,станція МАТІЇВЦІ,ЩЕБЕНЬ ГРАНИТНЫЙ НЕ ПОИМЕНОВАННЫЙ В АЛФАВИТЕ,476,105,51.3118938,26.8919075,48.4984887,25.1616737
станція КЛЕСІВ,станція МИКОЛАЇВ-ДНІСТРОВСЬКИЙ,ЩЕБЕНЬ ГРАНИТНЫЙ НЕ ПОИМЕНОВАННЫЙ В АЛФАВИТЕ,877,122,51.3118938,26.8919075,49.5119481,23.9535355
станція КЛЕСІВ,станція МОСТИСЬКА I,ЩЕБЕНЬ ГРАНИТНЫЙ НЕ ПОИМЕНОВАННЫЙ В АЛФАВИТЕ,388,131,51.3118938,26.8919075,49.818396,23.129309
станція КЛЕСІВ,станція МОСТИСЬКА II (ЕКСП. ПКП),ЩЕБЕНЬ ГРАНИТНЫЙ НЕ ПОИМЕНОВАННЫЙ В АЛФАВИТЕ,497,91,51.3118938,26.8919075,49.8166178,23.0325224
станція КЛЕСІВ,станція МУКАЧЕВО,ЩЕБЕНЬ ГРАНИТНЫЙ НЕ ПОИМЕНОВАННЫЙ В АЛФАВИТЕ,369,137,51.3118938,26.8919075,48.4295174,22.7116533
станція КЛЕСІВ,станція НАДВІРНА,ОТСЕВ ГРАНИТНЫЙ ИЛИ КАМЕННЫЙ,869,100,51.3118938,26.8919075,48.6242545,24.5847443
станція КЛЕСІВ,станція НАДВІРНА,ЩЕБЕНЬ ГРАНИТНЫЙ НЕ ПОИМЕНОВАННЫЙ В АЛФАВИТЕ,3461,125,51.3118938,26.8919075,48.6242545,24.5847443
станція КЛЕСІВ,станція ПЕРСЕНКІВКА,ЩЕБЕНЬ ГРАНИТНЫЙ НЕ ПОИМЕНОВАННЫЙ В АЛФАВИТЕ,6393,110,51.3118938,26.8919075,49.8098013,24.030408
станція КЛЕСІВ,станція ПІДЗАМЧЕ,ЩЕБЕНЬ ГРАНИТНЫЙ НЕ ПОИМЕНОВАННЫЙ В АЛФАВИТЕ,2864,103,51.3118938,26.8919075,49.8513992,24.0337885
станція КЛЕСІВ,станція РАВА-РУСЬКА,ЩЕБЕНЬ ГРАНИТНЫЙ НЕ ПОИМЕНОВАННЫЙ В АЛФАВИТЕ,328,128,51.3118938,26.8919075,50.2327199,23.6367591
станція КЛЕСІВ,станція РАДЕХІВ,ЩЕБЕНЬ ГРАНИТНЫЙ НЕ ПОИМЕНОВАННЫЙ В АЛФАВИТЕ,219,94,51.3118938,26.8919075,50.2841256,24.6256588
станція КЛЕСІВ,станція САДГОРА,ЩЕБЕНЬ ГРАНИТНЫЙ НЕ ПОИМЕНОВАННЫЙ В АЛФАВИТЕ,242,98,51.3118938,26.8919075,48.332069,25.949382
станція КЛЕСІВ,станція САПІЖАНКА,ЩЕБЕНЬ ГРАНИТНЫЙ НЕ ПОИМЕНОВАННЫЙ В АЛФАВИТЕ,250,87,51.3118938,26.8919075,50.082013,24.337519
станція КЛЕСІВ,станція СИХІВ,ЩЕБЕНЬ ГРАНИТНЫЙ НЕ ПОИМЕНОВАННЫЙ В АЛФАВИТЕ,246,111,51.3118938,26.8919075,49.787217,24.07466
станція КЛЕСІВ,станція СОКАЛЬ,ОТСЕВ ГРАНИТНЫЙ ИЛИ КАМЕННЫЙ,853,66,51.3118938,26.8919075,50.4649598,24.2574808
станція КЛЕСІВ,станція СОКАЛЬ,ЩЕБЕНЬ ГРАНИТНЫЙ НЕ ПОИМЕНОВАННЫЙ В АЛФАВИТЕ,4610,89,51.3118938,26.8919075,50.4649598,24.2574808
станція КЛЕСІВ,станція СТРИЙ,ЩЕБЕНЬ ГРАНИТНЫЙ НЕ ПОИМЕНОВАННЫЙ В АЛФАВИТЕ,513,132,51.3118938,26.8919075,49.2594767,23.8417718
станція КЛЕСІВ,станція СУДОВА ВИШНЯ,ЩЕБЕНЬ ГРАНИТНЫЙ НЕ ПОИМЕНОВАННЫЙ В АЛФАВИТЕ,1154,124,51.3118938,26.8919075,49.799282,23.384659
станція КЛЕСІВ,станція ТЕРНОПІЛЬ,ЩЕБЕНЬ ГРАНИТНЫЙ НЕ ПОИМЕНОВАННЫЙ В АЛФАВИТЕ,799,118,51.3118938,26.8919075,49.56629,25.592613
станція КЛЕСІВ,станція ХРИПЛИН,ОТСЕВ ГРАНИТНЫЙ ИЛИ КАМЕННЫЙ,389,117,51.3118938,26.8919075,48.8851079,24.7468767
станція КЛЕСІВ,станція ХРИПЛИН,ЩЕБЕНЬ ГРАНИТНЫЙ НЕ ПОИМЕНОВАННЫЙ В АЛФАВИТЕ,1779,117,51.3118938,26.8919075,48.8851079,24.7468767
станція КЛЕСІВ,станція ХУСТ,ЩЕБЕНЬ ГРАНИТНЫЙ НЕ ПОИМЕНОВАННЫЙ В АЛФАВИТЕ,582,131,51.3118938,26.8919075,48.16053,23.29862
станція КЛЕСІВ,станція ЦЕНЖІВ,ЩЕБЕНЬ ГРАНИТНЫЙ НЕ ПОИМЕНОВАННЫЙ В АЛФАВИТЕ,223,122,51.3118938,26.8919075,48.999803,24.596851
станція КЛЕСІВ,станція ЧЕРНІВЦІ-ПІВДЕННА,ОТСЕВ ГРАНИТНЫЙ ИЛИ КАМЕННЫЙ,857,98,51.3118938,26.8919075,48.265337,25.957599
станція КЛЕСІВ,станція ЧЕРНІВЦІ-ПІВДЕННА,ЩЕБЕНЬ ГРАНИТНЫЙ НЕ ПОИМЕНОВАННЫЙ В АЛФАВИТЕ,4523,98,51.3118938,26.8919075,48.265337,25.957599
станція КЛЕСІВ,станція ШКЛО-СТАРЖИСЬКА,ЩЕБЕНЬ ГРАНИТНЫЙ НЕ ПОИМЕНОВАННЫЙ В АЛФАВИТЕ,1757,122,51.3118938,26.8919075,49.970053,23.5551111
станція КЛЕСІВ,станція ЯВОРІВ,ЩЕБЕНЬ ГРАНИТНЫЙ НЕ ПОИМЕНОВАННЫЙ В АЛФАВИТЕ,1402,126,51.3118938,26.8919075,49.961643,23.405085
станція КЛЕСІВ,станція ЯМНИЦЯ,ЩЕБЕНЬ ГРАНИТНЫЙ НЕ ПОИМЕНОВАННЫЙ В АЛФАВИТЕ,443,114,51.3118938,26.8919075,48.9855201,24.7113369
станція КОРОЛЕВО,станція РЯСНА II,"ЩЕБЕНЬ,НЕ ПОИМЕНОВАННЫЙ В АЛФАВИТЕ",200,107,48.15354,23.1409201,49.8636374,23.9381062
станція КОРОСТЕНЬ- ЖИТОМИРСЬКИЙ,станція РЯСНА II,ЩЕБЕНЬ ГРАНИТНЫЙ НЕ ПОИМЕНОВАННЫЙ В АЛФАВИТЕ,204,107,50.960908,28.5927599,49.8636374,23.9381062
станція КОСТОПІЛЬ,станція ЖИТОМИР,"ЩЕБЕНЬ,НЕ ПОИМЕНОВАННЫЙ В АЛФАВИТЕ",364,63,50.8709903,26.4438927,50.2687998,28.6975264
станція КОСТОПІЛЬ,станція ЧЕРКАСИ,"ЩЕБЕНЬ,НЕ ПОИМЕНОВАННЫЙ В АЛФАВИТЕ",530,86,50.8709903,26.4438927,49.425949,32.0498809
станція КРЕМЕНЧУК,станція АККАРЖА,ПЕСОК СТРОИТЕЛЬНЫЙ,300,90,49.0678972,33.4277227,46.3322,30.55886
станція КРЕМЕНЧУК,станція АРЦИЗ,ОТСЕВ ГРАНИТНЫЙ ИЛИ КАМЕННЫЙ,304,68,49.0678972,33.4277227,45.9968241,29.4199425
станція КРЕМЕНЧУК,станція БАЛАКЛІЯ,ОТСЕВ ГРАНИТНЫЙ ИЛИ КАМЕННЫЙ,206,112,49.0678972,33.4277227,49.4669698,36.8628261
станція КРЕМЕНЧУК,станція БАТУРИНСЬКА,ПЕСОК СТРОИТЕЛЬНЫЙ,1288,55,49.0678972,33.4277227,47.872783,33.48381
станція КРЕМЕНЧУК,станція БУДИ,ОТСЕВ ГРАНИТНЫЙ ИЛИ КАМЕННЫЙ,544,81,49.0678972,33.4277227,49.889228,36.022586
станція КРЕМЕНЧУК,станція БУДИ,ЩЕБЕНЬ ГРАНИТНЫЙ НЕ ПОИМЕНОВАННЫЙ В АЛФАВИТЕ,552,81,49.0678972,33.4277227,49.889228,36.022586
станція КРЕМЕНЧУК,станція ГРАКОВЕ,ЩЕБЕНЬ ГРАНИТНЫЙ НЕ ПОИМЕНОВАННЫЙ В АЛФАВИТЕ,493,106,49.0678972,33.4277227,49.7292217,36.8648588
станція КРЕМЕНЧУК,станція ГУБАРІВКА,ЩЕБЕНЬ ГРАНИТНЫЙ НЕ ПОИМЕНОВАННЫЙ В АЛФАВИТЕ,567,99,49.0678972,33.4277227,50.14025,35.366708
станція КРЕМЕНЧУК,станція ДАЧНЕ,ОТСЕВ ГРАНИТНЫЙ ИЛИ КАМЕННЫЙ,752,103,49.0678972,33.4277227,50.8093821,25.4025522
станція КРЕМЕНЧУК,станція ДАЧНЕ,ЩЕБЕНЬ ГРАНИТНЫЙ НЕ ПОИМЕНОВАННЫЙ В АЛФАВИТЕ,601,86,49.0678972,33.4277227,50.8093821,25.4025522
станція КРЕМЕНЧУК,станція ДВОРІЧНА,"ЩЕБЕНЬ,НЕ ПОИМЕНОВАННЫЙ В АЛФАВИТЕ",756,101,49.0678972,33.4277227,49.852659,37.7305801
станція КРЕМЕНЧУК,станція ДЕВЛАДОВЕ,ОТСЕВ ГРАНИТНЫЙ ИЛИ КАМЕННЫЙ,289,70,49.0678972,33.4277227,48.10411,33.754161
станція КРЕМЕНЧУК,станція ДЕВЛАДОВЕ,ЩЕБЕНЬ ГРАНИТНЫЙ НЕ ПОИМЕНОВАННЫЙ В АЛФАВИТЕ,431,70,49.0678972,33.4277227,48.10411,33.754161
станція КРЕМЕНЧУК,станція ДЕРГАЧІ,ЩЕБЕНЬ ГРАНИТНЫЙ НЕ ПОИМЕНОВАННЫЙ В АЛФАВИТЕ,1468,93,49.0678972,33.4277227,50.099319,36.135486
станція КРЕМЕНЧУК,станція ЗАЛЮТИНЕ,ЩЕБЕНЬ ГРАНИТНЫЙ НЕ ПОИМЕНОВАННЫЙ В АЛФАВИТЕ,269,89,49.0678972,33.4277227,49.967323,36.161449
станція КРЕМЕНЧУК,станція ЗАОСКІЛЛЯ,ОТСЕВ ГРАНИТНЫЙ ИЛИ КАМЕННЫЙ,764,129,49.0678972,33.4277227,49.708273,37.63754
станція КРЕМЕНЧУК,станція ЗАОСКІЛЛЯ,ЩЕБЕНЬ ГРАНИТНЫЙ НЕ ПОИМЕНОВАННЫЙ В АЛФАВИТЕ,388,97,49.0678972,33.4277227,49.708273,37.63754
станція КРЕМЕНЧУК,станція ЗОЛОЧІВ,ЩЕБЕНЬ ГРАНИТНЫЙ НЕ ПОИМЕНОВАННЫЙ В АЛФАВИТЕ,881,104,49.0678972,33.4277227,49.7897214,24.8904427
станція КРЕМЕНЧУК,станція ІЗМАЇЛ,ОТСЕВ ГРАНИТНЫЙ ИЛИ КАМЕННЫЙ,326,131,49.0678972,33.4277227,45.3600096,28.812532
станція КРЕМЕНЧУК,станція ІЗМАЇЛ,ПЕСОК СТРОИТЕЛЬНЫЙ,232,131,49.0678972,33.4277227,45.3600096,28.812532
станція КРЕМЕНЧУК,станція ІЗЮМ,ОТСЕВ ГРАНИТНЫЙ ИЛИ КАМЕННЫЙ,335,129,49.0678972,33.4277227,49.216,37.3011
станція КРЕМЕНЧУК,станція ІЗЮМ,ЩЕБЕНЬ ГРАНИТНЫЙ НЕ ПОИМЕНОВАННЫЙ В АЛФАВИТЕ,320,129,49.0678972,33.4277227,49.216,37.3011
станція КРЕМЕНЧУК,станція КОНОТОП,ПЕСОК СТРОИТЕЛЬНЫЙ,520,106,49.0678972,33.4277227,51.2240541,33.1877035
станція КРЕМЕНЧУК,станція КОТЛАБУХ,ОТСЕВ ГРАНИТНЫЙ ИЛИ КАМЕННЫЙ,673,107,49.0678972,33.4277227,45.6264999,28.9768277
станція КРЕМЕНЧУК,станція КОТЛАБУХ,ЩЕБЕНЬ ГРАНИТНЫЙ НЕ ПОИМЕНОВАННЫЙ В АЛФАВИТЕ,670,83,49.0678972,33.4277227,45.6264999,28.9768277
станція КРЕМЕНЧУК,станція КОЧУБЕЇВКА,ОТСЕВ ГРАНИТНЫЙ ИЛИ КАМЕННЫЙ,2452,38,49.0678972,33.4277227,49.741944,34.969722
станція КРЕМЕНЧУК,станція КРЕМІННЕ,ОТСЕВ ГРАНИТНЫЙ ИЛИ КАМЕННЫЙ,320,97,49.0678972,33.4277227,49.05346,38.23712
станція КРЕМЕНЧУК,станція КРЕМІННЕ,ЩЕБЕНЬ ГРАНИТНЫЙ НЕ ПОИМЕНОВАННЫЙ В АЛФАВИТЕ,449,97,49.0678972,33.4277227,49.05346,38.23712
станція КРЕМЕНЧУК,станція КРИВИЙ РІГ,ПЕСОК СТРОИТЕЛЬНЫЙ,222,54,49.0678972,33.4277227,47.880874,33.384342
станція КРЕМЕНЧУК,станція КРОПИВНИЦЬКИЙ,ПЕСОК СТРОИТЕЛЬНЫЙ,923,74,49.0678972,33.4277227,48.5239679,32.258731
станція КРЕМЕНЧУК,станція ЛАДИЖИН,ПЕСОК СТРОИТЕЛЬНЫЙ,911,74,49.0678972,33.4277227,48.609462,29.1503679
станція КРЕМЕНЧУК,станція ЛУБНИ,ЩЕБЕНЬ ГРАНИТНЫЙ НЕ ПОИМЕНОВАННЫЙ В АЛФАВИТЕ,224,72,49.0678972,33.4277227,50.02035,32.97525
станція КРЕМЕНЧУК,станція МИРГОРОД,ОТСЕВ ГРАНИТНЫЙ ИЛИ КАМЕННЫЙ,351,70,49.0678972,33.4277227,49.9496173,33.6299724
станція КРЕМЕНЧУК,станція МИРГОРОД,ПЕСОК СТРОИТЕЛЬНЫЙ,202,70,49.0678972,33.4277227,49.9496173,33.6299724
станція КРЕМЕНЧУК,станція МИРГОРОД,ЩЕБЕНЬ ГРАНИТНЫЙ НЕ ПОИМЕНОВАННЫЙ В АЛФАВИТЕ,314,70,49.0678972,33.4277227,49.9496173,33.6299724
станція КРЕМЕНЧУК,станція ОДЕСА-ЗАСТАВА I,ПЕСОК СТРОИТЕЛЬНЫЙ,379,126,49.0678972,33.4277227,46.4776308,30.6545697
станція КРЕМЕНЧУК,станція ОДЕСА-ЛІСКИ,ОТСЕВ ГРАНИТНЫЙ ИЛИ КАМЕННЫЙ,435,102,49.0678972,33.4277227,46.522819,30.60268
станція КРЕМЕНЧУК,станція ОХТИРКА,ЩЕБЕНЬ ГРАНИТНЫЙ НЕ ПОИМЕНОВАННЫЙ В АЛФАВИТЕ,222,114,49.0678972,33.4277227,50.31695,34.9177559
станція КРЕМЕНЧУК,станція ПОЛТАВА-КИЇВСЬКА,ЩЕБЕНЬ ГРАНИТНЫЙ НЕ ПОИМЕНОВАННЫЙ В АЛФАВИТЕ,589,68,49.0678972,33.4277227,49.6033718,34.5257605
станція КРЕМЕНЧУК,станція ПРИДОНЕЦЬКА,ЩЕБЕНЬ ГРАНИТНЫЙ НЕ ПОИМЕНОВАННЫЙ В АЛФАВИТЕ,246,112,49.0678972,33.4277227,48.896298,37.704072
станція КРЕМЕНЧУК,станція РОКУВАТА,ПЕСОК СТРОИТЕЛЬНЫЙ,395,47,49.0678972,33.4277227,48.04391,33.478736
станція КРЕМЕНЧУК,станція РУБІЖНЕ,ОТСЕВ ГРАНИТНЫЙ ИЛИ КАМЕННЫЙ,348,99,49.0678972,33.4277227,49.0241813,38.3538418
станція КРЕМЕНЧУК,станція РУБІЖНЕ,ЩЕБЕНЬ ГРАНИТНЫЙ НЕ ПОИМЕНОВАННЫЙ В АЛФАВИТЕ,659,99,49.0678972,33.4277227,49.0241813,38.3538418
станція КРЕМЕНЧУК,станція СЛОВ’ЯНКА,ЩЕБЕНЬ ГРАНИТНЫЙ НЕ ПОИМЕНОВАННЫЙ В АЛФАВИТЕ,884,102,49.0678972,33.4277227,48.387022,36.707146
станція КРЕМЕНЧУК,станція СОЛОНИЦЬКА,ОТСЕВ ГРАНИТНЫЙ ИЛИ КАМЕННЫЙ,728,67,49.0678972,33.4277227,49.981438,33.039353
станція КРЕМЕНЧУК,станція СУПРУНІВКА,ОТСЕВ ГРАНИТНЫЙ ИЛИ КАМЕННЫЙ,1307,70,49.0678972,33.4277227,49.587831,34.476587
станція КРЕМЕНЧУК,станція СУПРУНІВКА,ПЕСОК СТРОИТЕЛЬНЫЙ,229,70,49.0678972,33.4277227,49.587831,34.476587
станція КРЕМЕНЧУК,станція СУПРУНІВКА,ЩЕБЕНЬ ГРАНИТНЫЙ НЕ ПОИМЕНОВАННЫЙ В АЛФАВИТЕ,765,70,49.0678972,33.4277227,49.587831,34.476587
станція КРИВИЙ РІГ-ГОЛОВНИЙ,станція ЖИТОМИР,ШЛАКИ ДОМЕННЫЕ,741,81,47.9123,33.451545,50.2687998,28.6975264
станція КРИВИЙ РІГ-ГОЛОВНИЙ,станція ЧЕРКАСИ,ШЛАКИ ДОМЕННЫЕ,338,71,47.9123,33.451545,49.425949,32.0498809
станція КРИВИН,станція ГРЕЧАНИ,ПЕСОК СТРОИТЕЛЬНЫЙ,259,78,50.361524,26.7001832,49.4417946,26.930526
станція КРИВИН,станція ДАВИДІВ,ПЕСОК СТРОИТЕЛЬНЫЙ,2182,86,50.361524,26.7001832,49.7431731,24.1471702
станція КРИВИН,станція РІВНЕ,ПЕСОК СТРОИТЕЛЬНЫЙ,208,25,50.361524,26.7001832,50.6277112,26.239901
станція КРИВИН,станція ЧЕРНІВЦІ-ПІВДЕННА,ПЕСОК СТРОИТЕЛЬНЫЙ,200,102,50.361524,26.7001832,48.265337,25.957599
станція КРЮКІВ-НА-ДНІПРІ,станція БУДИ,ОТСЕВ ГРАНИТНЫЙ ИЛИ КАМЕННЫЙ,360,82,49.034444,33.435556,49.889228,36.022586
станція КРЮКІВ-НА-ДНІПРІ,станція ЗАЛЮТИНЕ,ОТСЕВ ГРАНИТНЫЙ ИЛИ КАМЕННЫЙ,340,90,49.034444,33.435556,49.967323,36.161449
станція КРЮКІВ-НА-ДНІПРІ,станція П’ЯТИХАТКИ,ЩЕБЕНЬ ДЛЯ БАЛЛАСТИРОВКИ ЖЕЛЕЗНОДОРОЖНОГО ПУТИ,205,68,49.034444,33.435556,48.4150192,33.7040629
станція КРЮКІВ-НА-ДНІПРІ,станція СУПРУНІВКА,ОТСЕВ ГРАНИТНЫЙ ИЛИ КАМЕННЫЙ,434,72,49.034444,33.435556,49.587831,34.476587
станція КРЮКІВ-НА-ДНІПРІ,станція СУПРУНІВКА,ЩЕБЕНЬ ГРАНИТНЫЙ НЕ ПОИМЕНОВАННЫЙ В АЛФАВИТЕ,440,72,49.034444,33.435556,49.587831,34.476587
станція КРЮКІВ-НА-ДНІПРІ,станція СУПРУНІВКА,ЩЕБЕНЬ ДЛЯ БАЛЛАСТИРОВКИ ЖЕЛЕЗНОДОРОЖНОГО ПУТИ,211,72,49.034444,33.435556,49.587831,34.476587
станція КУЦІВКА,станція ДЕВЛАДОВЕ,ЩЕБЕНЬ ГРАНИТНЫЙ НЕ ПОИМЕНОВАННЫЙ В АЛФАВИТЕ,271,59,48.3133346,32.7920153,48.10411,33.754161
станція КУЦІВКА,станція КОБЕЛЯКИ,ЩЕБЕНЬ ГРАНИТНЫЙ НЕ ПОИМЕНОВАННЫЙ В АЛФАВИТЕ,205,52,48.3133346,32.7920153,49.2308362,34.103493
станція КУЦІВКА,станція ОДЕСА-ЗАХІДНА,ЩЕБЕНЬ ГРАНИТНЫЙ НЕ ПОИМЕНОВАННЫЙ В АЛФАВИТЕ,208,95,48.3133346,32.7920153,46.43871,30.6534599
станція ЛАДИЖИН,станція БОГДАНІВЦІ,ЗОЛА КАМЕННОУГОЛЬНАЯ,328,53,48.609462,29.1503679,49.3754473,27.1448741
станція ЛАДИЖИН,станція БОРИСПІЛЬ,ЗОЛА КАМЕННОУГОЛЬНАЯ,438,110,48.609462,29.1503679,50.3766975,30.9448324
станція ЛАДИЖИН,станція КСЕНІЄВЕ,ЗОЛА КАМЕННОУГОЛЬНАЯ,205,91,48.609462,29.1503679,46.36337,30.62144
станція ЛАДИЖИН,станція ОДЕСА-ЗАСТАВА I,ЗОЛА КАМЕННОУГОЛЬНАЯ,416,113,48.609462,29.1503679,46.4776308,30.6545697
станція ЛАДИЖИН,станція ПЕТРО КРИВОНІС,ЗОЛА КАМЕННОУГОЛЬНАЯ,319,107,48.609462,29.1503679,50.354151,30.544861
станція ЛАДИЖИН,станція ПОЧАЙНА,ЗОЛА КАМЕННОУГОЛЬНАЯ,2002,100,48.609462,29.1503679,50.485104,30.500415
станція ЛАДИЖИН,станція ХЕРСОН,ЗОЛА КАМЕННОУГОЛЬНАЯ,288,125,48.609462,29.1503679,46.6562558,32.6048735
станція ЛЕЛЕКІВКА,станція КОБЕЛЯКИ,ЩЕБЕНЬ ГРАНИТНЫЙ НЕ ПОИМЕНОВАННЫЙ В АЛФАВИТЕ,248,71,48.5185204,32.1242249,49.2308362,34.103493
станція ЛЕЛЕКІВКА,станція ОДЕСА-ЗАСТАВА I,ЩЕБЕНЬ ГРАНИТНЫЙ НЕ ПОИМЕНОВАННЫЙ В АЛФАВИТЕ,1115,115,48.5185204,32.1242249,46.4776308,30.6545697
станція ЛЕЛЕКІВКА,станція ОДЕСА-ЗАХІДНА,ЩЕБЕНЬ ГРАНИТНЫЙ НЕ ПОИМЕНОВАННЫЙ В АЛФАВИТЕ,1070,90,48.5185204,32.1242249,46.43871,30.6534599
станція ЛЕЛЕКІВКА,станція ОДЕСА-ЛІСКИ,ЩЕБЕНЬ ГРАНИТНЫЙ НЕ ПОИМЕНОВАННЫЙ В АЛФАВИТЕ,364,88,48.5185204,32.1242249,46.522819,30.60268
станція ЛЕЛЕКІВКА,станція ОДЕСА-ПЕРЕСИП,ЩЕБЕНЬ ГРАНИТНЫЙ НЕ ПОИМЕНОВАННЫЙ В АЛФАВИТЕ,268,66,48.5185204,32.1242249,46.52502,30.726413
станція ЛИМАН,станція КУРЯЖ,ПЕСОК СТРОИТЕЛЬНЫЙ,1036,95,48.9644789,37.8275288,49.976055,36.079242
станція ЛІВОБЕРЕЖНА,станція КОЧУБЕЇВКА,ЩЕБЕНЬ ГРАНИТНЫЙ НЕ ПОИМЕНОВАННЫЙ В АЛФАВИТЕ,294,22,50.451864,30.5981571,49.741944,34.969722
станція МИРОПІЛЬ,станція ВОРОХТА,ЩЕБЕНЬ ГРАНИТНЫЙ НЕ ПОИМЕНОВАННЫЙ В АЛФАВИТЕ,233,108,50.09977,27.66868,48.293365,24.5646569
станція МИРОПІЛЬ,станція ЗАПИТІВ,ОТСЕВ ГРАНИТНЫЙ ИЛИ КАМЕННЫЙ,387,81,50.09977,27.66868,49.920035,24.2236161
станція МИРОПІЛЬ,станція ЗАПИТІВ,ЩЕБЕНЬ ГРАНИТНЫЙ НЕ ПОИМЕНОВАННЫЙ В АЛФАВИТЕ,581,81,50.09977,27.66868,49.920035,24.2236161
станція МИРОПІЛЬ,станція МАТІЇВЦІ,ЩЕБЕНЬ ГРАНИТНЫЙ НЕ ПОИМЕНОВАННЫЙ В АЛФАВИТЕ,207,131,50.09977,27.66868,48.4984887,25.1616737
станція МИРОПІЛЬ,станція ПЕРСЕНКІВКА,ЩЕБЕНЬ ГРАНИТНЫЙ НЕ ПОИМЕНОВАННЫЙ В АЛФАВИТЕ,1047,109,50.09977,27.66868,49.8098013,24.030408
станція МИРОПІЛЬ,станція ПІДЗАМЧЕ,ЩЕБЕНЬ ГРАНИТНЫЙ НЕ ПОИМЕНОВАННЫЙ В АЛФАВИТЕ,270,102,50.09977,27.66868,49.8513992,24.0337885
станція МИРОПІЛЬ,станція ХМЕЛЬНИЦЬКИЙ,ЩЕБЕНЬ ГРАНИТНЫЙ НЕ ПОИМЕНОВАННЫЙ В АЛФАВИТЕ,206,87,50.09977,27.66868,49.416645,27.0097674
станція НЕПОЛОКІВЦІ,станція ГОРОДОК-ЛЬВІВСЬКИЙ,ГРАВИЙ,253,92,48.398945,25.656758,49.789677,23.629894
станція НЕПОЛОКІВЦІ,станція ДАВИДІВ,ГРАВИЙ,211,74,48.398945,25.656758,49.7431731,24.1471702
станція НЕПОЛОКІВЦІ,станція ПЕРСЕНКІВКА,ЩЕБЕНЬ ИЗ ГРАВИЯ,325,78,48.398945,25.656758,49.8098013,24.030408
станція НЕПОЛОКІВЦІ,станція РЯСНА II,ГРАВИЙ,226,49,48.398945,25.656758,49.8636374,23.9381062
станція НЕПОЛОКІВЦІ,станція ШКЛО-СТАРЖИСЬКА,ЩЕБЕНЬ ИЗ ГРАВИЯ,399,95,48.398945,25.656758,49.970053,23.5551111
станція НІКЕЛЬ-ПОБУЗЬКИЙ,станція ЖОВТНЕВА,"ЩЕБЕНЬ,НЕ ПОИМЕНОВАННЫЙ В АЛФАВИТЕ",257,87,48.173252,30.615134,46.834899,31.967136
станція НІКОПОЛЬ,станція БАХМУТ,ШЛАКИ ЭЛЕКТРОПЕЧНЫЕ,533,111,47.5853703,34.3913662,48.5913459,37.9864483
станція НІКОПОЛЬ,станція ДВОРІЧНА,ШЛАКИ ЭЛЕКТРОПЕЧНЫЕ,825,138,47.5853703,34.3913662,49.852659,37.7305801
станція НІКОПОЛЬ,станція ДЕРГАЧІ,ШЛАКИ ЭЛЕКТРОПЕЧНЫЕ,558,106,47.5853703,34.3913662,50.099319,36.135486
станція НІКОПОЛЬ,станція ДОБРОПІЛЛЯ,ШЛАКИ ЭЛЕКТРОПЕЧНЫЕ,209,83,47.5853703,34.3913662,48.4481566,37.0757679
станція НІКОПОЛЬ,станція КАХОВКА,ШЛАКИ ЭЛЕКТРОПЕЧНЫЕ,373,46,47.5853703,34.3913662,46.753355,33.4315209
станція НІКОПОЛЬ,станція КАХОВКА,ЩЕБЕНЬ ГРАНИТНЫЙ НЕ ПОИМЕНОВАННЫЙ В АЛФАВИТЕ,804,58,47.5853703,34.3913662,46.753355,33.4315209
станція НІКОПОЛЬ,станція КРАМАТОРСЬК,ШЛАКИ ЭЛЕКТРОПЕЧНЫЕ,414,135,47.5853703,34.3913662,48.7259313,37.54314
станція НІКОПОЛЬ,станція КРИВИЙ РІГ,ЩЕБЕНЬ ГРАНИТНЫЙ НЕ ПОИМЕНОВАННЫЙ В АЛФАВИТЕ,597,40,47.5853703,34.3913662,47.880874,33.384342
станція НІКОПОЛЬ,станція КРИВИЙ РІГ-ГОЛОВНИЙ,ШЛАКИ ЭЛЕКТРОПЕЧНЫЕ,245,38,47.5853703,34.3913662,47.9123,33.451545
станція НІКОПОЛЬ,станція ЛИХАЧОВЕ,ШЛАКИ ЭЛЕКТРОПЕЧНЫЕ,205,98,47.5853703,34.3913662,49.3823544,36.2086193
станція НІКОПОЛЬ,станція МЕРЕФА,ЩЕБЕНЬ ГРАНИТНЫЙ НЕ ПОИМЕНОВАННЫЙ В АЛФАВИТЕ,226,94,47.5853703,34.3913662,49.8234843,36.048013
станція НІКОПОЛЬ,станція ПОКРОВСЬК,ШЛАКИ ЭЛЕКТРОПЕЧНЫЕ,219,96,47.5853703,34.3913662,48.285102,37.1816185
станція НІКОПОЛЬ,станція РОЯ,ШЛАКИ ЭЛЕКТРОПЕЧНЫЕ,597,85,47.5853703,34.3913662,47.989332,37.306483
станція НІКОПОЛЬ,станція РУБІЖНЕ,ЩЕБЕНЬ ГРАНИТНЫЙ НЕ ПОИМЕНОВАННЫЙ В АЛФАВИТЕ,311,107,47.5853703,34.3913662,49.0241813,38.3538418
станція НІКОПОЛЬ,станція ХАРКІВ-ЛІСКИ,ЩЕБЕНЬ ГРАНИТНЫЙ НЕ ПОИМЕНОВАННЫЙ В АЛФАВИТЕ,227,105,47.5853703,34.3913662,49.959174,36.238248
станція НІКОПОЛЬ,станція ХЕРСОН,ШЛАКИ ЭЛЕКТРОПЕЧНЫЕ,556,71,47.5853703,34.3913662,46.6562558,32.6048735
станція НІКОПОЛЬ,станція ХЕРСОН,ЩЕБЕНЬ ГРАНИТНЫЙ НЕ ПОИМЕНОВАННЫЙ В АЛФАВИТЕ,696,71,47.5853703,34.3913662,46.6562558,32.6048735
станція НІКОПОЛЬ,станція ЧЕРКАСИ,ШЛАКИ ЭЛЕКТРОПЕЧНЫЕ,1581,76,47.5853703,34.3913662,49.425949,32.0498809
станція НОВОГРАД-ВОЛИНСЬКИЙ I,станція РЯСНА II,ЩЕБЕНЬ ГРАНИТНЫЙ НЕ ПОИМЕНОВАННЫЙ В АЛФАВИТЕ,316,112,50.597831,27.5931013,49.8636374,23.9381062
станція НОВОУКРАЇНКА,станція АККАРЖА,ЩЕБЕНЬ ГРАНИТНЫЙ НЕ ПОИМЕНОВАННЫЙ В АЛФАВИТЕ,446,81,48.3321208,31.5167007,46.3322,30.55886
станція НОВОУКРАЇНКА,станція АРЦИЗ,ОТСЕВ ГРАНИТНЫЙ ИЛИ КАМЕННЫЙ,349,78,48.3321208,31.5167007,45.9968241,29.4199425
станція НОВОУКРАЇНКА,станція АРЦИЗ,ЩЕБЕНЬ ГРАНИТНЫЙ НЕ ПОИМЕНОВАННЫЙ В АЛФАВИТЕ,1097,93,48.3321208,31.5167007,45.9968241,29.4199425
станція НОВОУКРАЇНКА,станція БЕРЕГОВА,ОТСЕВ ГРАНИТНЫЙ ИЛИ КАМЕННЫЙ,541,55,48.3321208,31.5167007,46.632276,31.044189
станція НОВОУКРАЇНКА,станція БЕРЕГОВА,ЩЕБЕНЬ ГРАНИТНЫЙ НЕ ПОИМЕНОВАННЫЙ В АЛФАВИТЕ,871,69,48.3321208,31.5167007,46.632276,31.044189
станція НОВОУКРАЇНКА,станція БІЛГОРОД-ДНІСТРОВСЬКИЙ,ОТСЕВ ГРАНИТНЫЙ ИЛИ КАМЕННЫЙ,464,94,48.3321208,31.5167007,46.1851723,30.3377686
станція НОВОУКРАЇНКА,станція БІЛГОРОД-ДНІСТРОВСЬКИЙ,ЩЕБЕНЬ ГРАНИТНЫЙ НЕ ПОИМЕНОВАННЫЙ В АЛФАВИТЕ,1754,94,48.3321208,31.5167007,46.1851723,30.3377686
станція НОВОУКРАЇНКА,станція ВЕСЕЛИЙ КУТ,ЩЕБЕНЬ ГРАНИТНЫЙ НЕ ПОИМЕНОВАННЫЙ В АЛФАВИТЕ,256,43,48.3321208,31.5167007,47.1060754,29.9920901
станція НОВОУКРАЇНКА,станція ДАЧНЕ,ЩЕБЕНЬ ГРАНИТНЫЙ НЕ ПОИМЕНОВАННЫЙ В АЛФАВИТЕ,678,60,48.3321208,31.5167007,50.8093821,25.4025522
станція НОВОУКРАЇНКА,станція ІЗМАЇЛ,ОТСЕВ ГРАНИТНЫЙ ИЛИ КАМЕННЫЙ,901,144,48.3321208,31.5167007,45.3600096,28.812532
станція НОВОУКРАЇНКА,станція ІЗМАЇЛ,ЩЕБЕНЬ ГРАНИТНЫЙ НЕ ПОИМЕНОВАННЫЙ В АЛФАВИТЕ,2818,144,48.3321208,31.5167007,45.3600096,28.812532
станція НОВОУКРАЇНКА,станція КОТЛАБУХ,ЩЕБЕНЬ ГРАНИТНЫЙ НЕ ПОИМЕНОВАННЫЙ В АЛФАВИТЕ,532,67,48.3321208,31.5167007,45.6264999,28.9768277
станція НОВОУКРАЇНКА,станція КРИВИЙ РІГ-ГОЛОВНИЙ,ЩЕБЕНЬ ГРАНИТНЫЙ НЕ ПОИМЕНОВАННЫЙ В АЛФАВИТЕ,242,40,48.3321208,31.5167007,47.9123,33.451545
станція НОВОУКРАЇНКА,станція КСЕНІЄВЕ,ЩЕБЕНЬ ГРАНИТНЫЙ НЕ ПОИМЕНОВАННЫЙ В АЛФАВИТЕ,1284,78,48.3321208,31.5167007,46.36337,30.62144
станція НОВОУКРАЇНКА,станція ОДЕСА-ЗАСТАВА II,ОТСЕВ ГРАНИТНЫЙ ИЛИ КАМЕННЫЙ,660,71,48.3321208,31.5167007,46.463065,30.684796
станція НОВОУКРАЇНКА,станція ОДЕСА-ЗАСТАВА II,ЩЕБЕНЬ ГРАНИТНЫЙ НЕ ПОИМЕНОВАННЫЙ В АЛФАВИТЕ,346,56,48.3321208,31.5167007,46.463065,30.684796
станція НОВОУКРАЇНКА,станція ОДЕСА-ЗАХІДНА,ЩЕБЕНЬ ГРАНИТНЫЙ НЕ ПОИМЕНОВАННЫЙ В АЛФАВИТЕ,459,76,48.3321208,31.5167007,46.43871,30.6534599
станція НОВОУКРАЇНКА,станція ОДЕСА-ЛІСКИ,ОТСЕВ ГРАНИТНЫЙ ИЛИ КАМЕННЫЙ,3871,98,48.3321208,31.5167007,46.522819,30.60268
станція НОВОУКРАЇНКА,станція ОДЕСА-ЛІСКИ,ЩЕБЕНЬ ГРАНИТНЫЙ НЕ ПОИМЕНОВАННЫЙ В АЛФАВИТЕ,11204,74,48.3321208,31.5167007,46.522819,30.60268
станція НОВОУКРАЇНКА,станція ОДЕСА-СОРТУВАЛЬНА,ЩЕБЕНЬ ГРАНИТНЫЙ НЕ ПОИМЕНОВАННЫЙ В АЛФАВИТЕ,1406,90,48.3321208,31.5167007,46.55422,30.754395
станція НОВОУКРАЇНКА,станція ОДЕСА-ТОВАРНА,ОТСЕВ ГРАНИТНЫЙ ИЛИ КАМЕННЫЙ,1925,95,48.3321208,31.5167007,46.45531,30.71124
станція НОВОУКРАЇНКА,станція ОДЕСА-ТОВАРНА,ЩЕБЕНЬ ГРАНИТНЫЙ НЕ ПОИМЕНОВАННЫЙ В АЛФАВИТЕ,1621,95,48.3321208,31.5167007,46.45531,30.71124
станція НОВОУКРАЇНКА,станція ПОРОМНА,ОТСЕВ ГРАНИТНЫЙ ИЛИ КАМЕННЫЙ,369,77,48.3321208,31.5167007,46.39689,30.656375
станція НОВОУКРАЇНКА,станція ПОРОМНА,ЩЕБЕНЬ ГРАНИТНЫЙ НЕ ПОИМЕНОВАННЫЙ В АЛФАВИТЕ,610,77,48.3321208,31.5167007,46.39689,30.656375
станція НОВОУКРАЇНКА,станція РАДЕНСЬКЕ,ЩЕБЕНЬ ГРАНИТНЫЙ НЕ ПОИМЕНОВАННЫЙ В АЛФАВИТЕ,222,89,48.3321208,31.5167007,46.563818,32.943943
станція НОВОУКРАЇНКА,станція САРАТА,ОТСЕВ ГРАНИТНЫЙ ИЛИ КАМЕННЫЙ,360,88,48.3321208,31.5167007,46.0159204,29.6789749
станція НОВОУКРАЇНКА,станція САРАТА,ЩЕБЕНЬ ГРАНИТНЫЙ НЕ ПОИМЕНОВАННЫЙ В АЛФАВИТЕ,1049,88,48.3321208,31.5167007,46.0159204,29.6789749
станція НОВОУКРАЇНКА,станція ХАРКІВ-ВАНТАЖНИЙ,ЩЕБЕНЬ ГРАНИТНЫЙ НЕ ПОИМЕНОВАННЫЙ В АЛФАВИТЕ,516,119,48.3321208,31.5167007,49.847,36.2473
станція НОВОУКРАЇНКА,станція ЧОРНОМОРСЬК-ПОРТ,ОТСЕВ ГРАНИТНЫЙ ИЛИ КАМЕННЫЙ,1109,112,48.3321208,31.5167007,46.32227,30.62932
станція НОВОУКРАЇНКА,станція ЧОРНОМОРСЬК-ПОРТ,ЩЕБЕНЬ ГРАНИТНЫЙ НЕ ПОИМЕНОВАННЫЙ В АЛФАВИТЕ,1138,112,48.3321208,31.5167007,46.32227,30.62932
станція НОВОУКРАЇНКА,станція ЧОРНОМОРСЬКА (ДЛЯ ТІС),ОТСЕВ ГРАНИТНЫЙ ИЛИ КАМЕННЫЙ,563,89,48.3321208,31.5167007,46.82775,30.76
станція НОВОУКРАЇНКА,станція ЧОРНОМОРСЬКА (ДЛЯ ТІС),ЩЕБЕНЬ ГРАНИТНЫЙ НЕ ПОИМЕНОВАННЫЙ В АЛФАВИТЕ,4607,89,48.3321208,31.5167007,46.82775,30.76
станція НОВОУКРАЇНКА,станція ШАБО,ЩЕБЕНЬ ГРАНИТНЫЙ НЕ ПОИМЕНОВАННЫЙ В АЛФАВИТЕ,210,74,48.3321208,31.5167007,46.1407021,30.3537098
станція ОЛЕКСАНДРІВКА,станція АККАРЖА,ПЕСОК СТРОИТЕЛЬНЫЙ,2453,76,47.641152,31.300802,46.3322,30.55886
станція ОЛЕКСАНДРІВКА,станція АККАРЖА,ЩЕБЕНЬ ГРАНИТНЫЙ НЕ ПОИМЕНОВАННЫЙ В АЛФАВИТЕ,502,76,47.641152,31.300802,46.3322,30.55886
станція ОЛЕКСАНДРІВКА,станція АРЦИЗ,ПЕСОК СТРОИТЕЛЬНЫЙ,392,93,47.641152,31.300802,45.9968241,29.4199425
станція ОЛЕКСАНДРІВКА,станція БЕРЕГОВА,ЩЕБЕНЬ ГРАНИТНЫЙ НЕ ПОИМЕНОВАННЫЙ В АЛФАВИТЕ,606,91,47.641152,31.300802,46.632276,31.044189
станція ОЛЕКСАНДРІВКА,станція БІЛГОРОД-ДНІСТРОВСЬКИЙ,ПЕСОК СТРОИТЕЛЬНЫЙ,1721,94,47.641152,31.300802,46.1851723,30.3377686
станція ОЛЕКСАНДРІВКА,станція БІЛГОРОД-ДНІСТРОВСЬКИЙ,ЩЕБЕНЬ ГРАНИТНЫЙ НЕ ПОИМЕНОВАННЫЙ В АЛФАВИТЕ,272,94,47.641152,31.300802,46.1851723,30.3377686
станція ОЛЕКСАНДРІВКА,станція ДАЧНЕ,ЩЕБЕНЬ ГРАНИТНЫЙ НЕ ПОИМЕНОВАННЫЙ В АЛФАВИТЕ,982,69,47.641152,31.300802,50.8093821,25.4025522
станція ОЛЕКСАНДРІВКА,станція ІЗМАЇЛ,ПЕСОК СТРОИТЕЛЬНЫЙ,2150,120,47.641152,31.300802,45.3600096,28.812532
станція ОЛЕКСАНДРІВКА,станція КОТЛАБУХ,ОТСЕВ ГРАНИТНЫЙ ИЛИ КАМЕННЫЙ,240,74,47.641152,31.300802,45.6264999,28.9768277
станція ОЛЕКСАНДРІВКА,станція КОТЛАБУХ,ЩЕБЕНЬ ГРАНИТНЫЙ НЕ ПОИМЕНОВАННЫЙ В АЛФАВИТЕ,870,74,47.641152,31.300802,45.6264999,28.9768277
станція ОЛЕКСАНДРІВКА,станція КСЕНІЄВЕ,ПЕСОК СТРОИТЕЛЬНЫЙ,1470,73,47.641152,31.300802,46.36337,30.62144
станція ОЛЕКСАНДРІВКА,станція КУЛИНДОРОВЕ,ПЕСОК СТРОИТЕЛЬНЫЙ,594,55,47.641152,31.300802,46.633722,30.793111
станція ОЛЕКСАНДРІВКА,станція КУЛИНДОРОВЕ,ЩЕБЕНЬ ГРАНИТНЫЙ НЕ ПОИМЕНОВАННЫЙ В АЛФАВИТЕ,1005,55,47.641152,31.300802,46.633722,30.793111
станція ОЛЕКСАНДРІВКА,станція ОДЕСА-ЗАСТАВА I,ПЕСОК СТРОИТЕЛЬНЫЙ,12474,97,47.641152,31.300802,46.4776308,30.6545697
станція ОЛЕКСАНДРІВКА,станція ОДЕСА-ЗАСТАВА II,ПЕСОК СТРОИТЕЛЬНЫЙ,260,63,47.641152,31.300802,46.463065,30.684796
станція ОЛЕКСАНДРІВКА,станція ОДЕСА-ЗАСТАВА II,ЩЕБЕНЬ ГРАНИТНЫЙ НЕ ПОИМЕНОВАННЫЙ В АЛФАВИТЕ,543,94,47.641152,31.300802,46.463065,30.684796
станція ОЛЕКСАНДРІВКА,станція ОДЕСА-ЗАХІДНА,ЩЕБЕНЬ ГРАНИТНЫЙ НЕ ПОИМЕНОВАННЫЙ В АЛФАВИТЕ,234,86.5,47.641152,31.300802,46.43871,30.6534599
станція ОЛЕКСАНДРІВКА,станція ОДЕСА-ЛІСКИ,ПЕСОК СТРОИТЕЛЬНЫЙ,5022,67,47.641152,31.300802,46.522819,30.60268
станція ОЛЕКСАНДРІВКА,станція ОДЕСА-ЛІСКИ,ЩЕБЕНЬ ГРАНИТНЫЙ НЕ ПОИМЕНОВАННЫЙ В АЛФАВИТЕ,1541,67,47.641152,31.300802,46.522819,30.60268
станція ОЛЕКСАНДРІВКА,станція ОДЕСА-ПЕРЕСИП,ПЕСОК СТРОИТЕЛЬНЫЙ,227,60,47.641152,31.300802,46.52502,30.726413
станція ОЛЕКСАНДРІВКА,станція ОДЕСА-ПЕРЕСИП,ЩЕБЕНЬ ГРАНИТНЫЙ НЕ ПОИМЕНОВАННЫЙ В АЛФАВИТЕ,372,90,47.641152,31.300802,46.52502,30.726413
станція ОЛЕКСАНДРІВКА,станція ОДЕСА-ТОВАРНА,ПЕСОК СТРОИТЕЛЬНЫЙ,2690,64,47.641152,31.300802,46.45531,30.71124
станція ОЛЕКСАНДРІВКА,станція ОДЕСА-ТОВАРНА,ЩЕБЕНЬ ГРАНИТНЫЙ НЕ ПОИМЕНОВАННЫЙ В АЛФАВИТЕ,1137,96,47.641152,31.300802,46.45531,30.71124
станція ОЛЕКСАНДРІВКА,станція САРАТА,ЩЕБЕНЬ ГРАНИТНЫЙ НЕ ПОИМЕНОВАННЫЙ В АЛФАВИТЕ,408,115,47.641152,31.300802,46.0159204,29.6789749
станція ОЛЕКСАНДРІВКА,станція ЧОРНОМОРСЬК-ПОРТ,ПЕСОК СТРОИТЕЛЬНЫЙ,1038,80,47.641152,31.300802,46.32227,30.62932
станція ОЛЕКСАНДРІВКА,станція ЧОРНОМОРСЬКА (ДЛЯ ТІС),ПЕСОК СТРОИТЕЛЬНЫЙ,1089,87,47.641152,31.300802,46.82775,30.76
станція ОЛЕКСАНДРІВКА,станція ЧОРНОМОРСЬКА (ДЛЯ ТІС),ЩЕБЕНЬ ГРАНИТНЫЙ НЕ ПОИМЕНОВАННЫЙ В АЛФАВИТЕ,679,87,47.641152,31.300802,46.82775,30.76
станція ОЛЕКСАНДРІВКА,станція ШАБО,ПЕСОК СТРОИТЕЛЬНЫЙ,234,92,47.641152,31.300802,46.1407021,30.3537098
станція ПЕНИЗЕВИЧІ,станція АНТОНІНИ,ОТСЕВ ГРАНИТНЫЙ ИЛИ КАМЕННЫЙ,262,59.5,50.735632,29.371731,49.790807,26.988522
станція ПЕНИЗЕВИЧІ,станція БРАЇЛІВ,ОТСЕВ ГРАНИТНЫЙ ИЛИ КАМЕННЫЙ,501,114,50.735632,29.371731,49.0861866,28.1400596
станція ПЕНИЗЕВИЧІ,станція ГЛУХІВ,ЩЕБЕНЬ ГРАНИТНЫЙ НЕ ПОИМЕНОВАННЫЙ В АЛФАВИТЕ,1173,438,50.735632,29.371731,51.679907,33.938458
станція ПЕНИЗЕВИЧІ,станція ДАВИДІВ,ПЕСОК СТРОИТЕЛЬНЫЙ,267,126,50.735632,29.371731,49.7431731,24.1471702
станція ПЕНИЗЕВИЧІ,станція ДЕРГАЧІ,ЩЕБЕНЬ ГРАНИТНЫЙ НЕ ПОИМЕНОВАННЫЙ В АЛФАВИТЕ,486,309,50.735632,29.371731,50.099319,36.135486
станція ПЕНИЗЕВИЧІ,станція ПЕРЕЯСЛАВСЬКА,ЩЕБЕНЬ ГРАНИТНЫЙ НЕ ПОИМЕНОВАННЫЙ В АЛФАВИТЕ,458,98,50.735632,29.371731,50.2639559,31.6561389
станція ПЕНИЗЕВИЧІ,станція СТАРОКОСТЯНТИНІВ II,ЩЕБЕНЬ ГРАНИТНЫЙ НЕ ПОИМЕНОВАННЫЙ В АЛФАВИТЕ,688,72,50.735632,29.371731,49.733726,27.2788967
станція ПЕНИЗЕВИЧІ,станція ХМЕЛЬНИЦЬКИЙ,ОТСЕВ ГРАНИТНЫЙ ИЛИ КАМЕННЫЙ,293,113,50.735632,29.371731,49.416645,27.0097674
станція ПЕНИЗЕВИЧІ,станція ШЕВЧЕНКОВЕ-ПІВДЕННЕ,ПЕСОК СТРОИТЕЛЬНЫЙ,375,339,50.735632,29.371731,49.6945751,37.1755033
станція ПЕНИЗЕВИЧІ,станція ШЕВЧЕНКОВЕ-ПІВДЕННЕ,ЩЕБЕНЬ ГРАНИТНЫЙ НЕ ПОИМЕНОВАННЫЙ В АЛФАВИТЕ,699,339,50.735632,29.371731,49.6945751,37.1755033
станція ПЕРВОМАЙСЬК-НА-БУЗІ,станція ГЕНІЧЕСЬК,ЩЕБЕНЬ ГРАНИТНЫЙ НЕ ПОИМЕНОВАННЫЙ В АЛФАВИТЕ,251,85,48.04113,30.85088,46.1736548,34.7741415
станція ПЕРВОМАЙСЬК-НА-БУЗІ,станція ГОРОХІВКА,ЩЕБЕНЬ ГРАНИТНЫЙ НЕ ПОИМЕНОВАННЫЙ В АЛФАВИТЕ,278,65,48.04113,30.85088,46.994876,32.153076
станція ПЕРВОМАЙСЬК-НА-БУЗІ,станція ДЗИНІЛОР,ОТСЕВ ГРАНИТНЫЙ ИЛИ КАМЕННЫЙ,1208,91,48.04113,30.85088,45.65097,29.11494
станція ПЕРВОМАЙСЬК-НА-БУЗІ,станція ДЗИНІЛОР,ЩЕБЕНЬ ГРАНИТНЫЙ НЕ ПОИМЕНОВАННЫЙ В АЛФАВИТЕ,1499,91,48.04113,30.85088,45.65097,29.11494
станція ПЕРВОМАЙСЬК-НА-БУЗІ,станція ОДЕСА-ЛІСКИ,ОТСЕВ ГРАНИТНЫЙ ИЛИ КАМЕННЫЙ,235,51,48.04113,30.85088,46.522819,30.60268
станція ПЕРВОМАЙСЬК-НА-БУЗІ,станція ОДЕСА-ЛІСКИ,ЩЕБЕНЬ ГРАНИТНЫЙ НЕ ПОИМЕНОВАННЫЙ В АЛФАВИТЕ,254,77,48.04113,30.85088,46.522819,30.60268
станція ПЕРВОМАЙСЬК-НА-БУЗІ,станція РАДЕНСЬКЕ,ЩЕБЕНЬ ГРАНИТНЫЙ НЕ ПОИМЕНОВАННЫЙ В АЛФАВИТЕ,265,67,48.04113,30.85088,46.563818,32.943943
станція ПЕРВОМАЙСЬК-НА-БУЗІ,станція САРАТА,ЩЕБЕНЬ ГРАНИТНЫЙ НЕ ПОИМЕНОВАННЫЙ В АЛФАВИТЕ,232,117,48.04113,30.85088,46.0159204,29.6789749
станція ПЕРЕДАТНА,станція ВОДОЛАГА,ЩЕБЕНЬ ГРАНИТНЫЙ ФРАКЦИИ 5Х20,1229,81,47.819152,35.219715,49.706697,35.8782909
станція ПЕРЕДАТНА,станція ДНІПРОРУДНЕ,ОТСЕВ ГРАНИТНЫЙ ИЛИ КАМЕННЫЙ,351,46,47.819152,35.219715,47.174629,34.962825
станція ПЕРЕДАТНА,станція ДНІПРОРУДНЕ,ЩЕБЕНЬ ГРАНИТНЫЙ ФРАКЦИИ 5Х10,287,46,47.819152,35.219715,47.174629,34.962825
станція ПЕРЕДАТНА,станція ІНДУСТРІАЛЬНА,ЩЕБЕНЬ ГРАНИТНЫЙ ФРАКЦИИ 5Х20,974,121,47.819152,35.219715,49.962852,36.391769
станція ПЕРЕДАТНА,станція ЛИМАН,ЩЕБЕНЬ ГРАНИТНЫЙ ФРАКЦИИ 5Х20,229,105,47.819152,35.219715,48.9644789,37.8275288
станція ПЕРЕДАТНА,станція РОТИ,ЩЕБЕНЬ ГРАНИТНЫЙ ФРАКЦИИ 10Х20,208,72,47.819152,35.219715,48.517778,38.221389
станція ПЕРЕДАТНА,станція ХАРКІВ-БАЛАШОВСЬКИЙ,ЩЕБЕНЬ ГРАНИТНЫЙ ФРАКЦИИ 5Х20,241,88,47.819152,35.219715,49.9740613,36.2767679
станція ПЕРЕДАТНА,станція ХАРКІВ-СОРТУВАЛЬНИЙ,ЩЕБЕНЬ ГРАНИТНЫЙ НЕ ПОИМЕНОВАННЫЙ В АЛФАВИТЕ,573,86,47.819152,35.219715,50.030735,36.177962
станція ПЕРЕДАТНА,станція ХАРКІВ-СОРТУВАЛЬНИЙ,ЩЕБЕНЬ ГРАНИТНЫЙ ФРАКЦИИ 5Х20,1564,115,47.819152,35.219715,50.030735,36.177962
станція ПЕРЕЇЗНА,станція ЗАПОРІЖЖЯ-КАМ’ЯНСЬКЕ,ИЗВЕСТЬ НЕГАШЕНАЯ,207,95,48.897354,38.4776521,48.4808925,34.6462622
станція ПОМІЧНА,станція АККАРЖА,ЩЕБЕНЬ ГРАНИТНЫЙ НЕ ПОИМЕНОВАННЫЙ В АЛФАВИТЕ,628,89,48.2412797,31.4081962,46.3322,30.55886
станція ПОМІЧНА,станція БІЛГОРОД-ДНІСТРОВСЬКИЙ,ЩЕБЕНЬ ГРАНИТНЫЙ НЕ ПОИМЕНОВАННЫЙ В АЛФАВИТЕ,222,81,48.2412797,31.4081962,46.1851723,30.3377686
станція ПОМІЧНА,станція ІЗМАЇЛ,ЩЕБЕНЬ ГРАНИТНЫЙ НЕ ПОИМЕНОВАННЫЙ В АЛФАВИТЕ,815,139,48.2412797,31.4081962,45.3600096,28.812532
станція ПОМІЧНА,станція КУЛИНДОРОВЕ,ЩЕБЕНЬ ГРАНИТНЫЙ НЕ ПОИМЕНОВАННЫЙ В АЛФАВИТЕ,431,81,48.2412797,31.4081962,46.633722,30.793111
станція ПОМІЧНА,станція ОДЕСА-ЗАХІДНА,ОТСЕВ ГРАНИТНЫЙ ИЛИ КАМЕННЫЙ,536,95,48.2412797,31.4081962,46.43871,30.6534599
станція ПОМІЧНА,станція ОДЕСА-ЛІСКИ,ОТСЕВ ГРАНИТНЫЙ ИЛИ КАМЕННЫЙ,285,92,48.2412797,31.4081962,46.522819,30.60268
станція ПОМІЧНА,станція ОДЕСА-ЛІСКИ,ЩЕБЕНЬ ГРАНИТНЫЙ НЕ ПОИМЕНОВАННЫЙ В АЛФАВИТЕ,2793,92,48.2412797,31.4081962,46.522819,30.60268
станція ПОМІЧНА,станція ОДЕСА-ПЕРЕСИП,ЩЕБЕНЬ ГРАНИТНЫЙ НЕ ПОИМЕНОВАННЫЙ В АЛФАВИТЕ,963,86,48.2412797,31.4081962,46.52502,30.726413
станція ПОМІЧНА,станція ОДЕСА-ТОВАРНА,ЩЕБЕНЬ ГРАНИТНЫЙ НЕ ПОИМЕНОВАННЫЙ В АЛФАВИТЕ,478,89,48.2412797,31.4081962,46.45531,30.71124
станція ПОНІНКА,станція РОГАТИН,ЩЕБЕНЬ ГРАНИТНЫЙ НЕ ПОИМЕНОВАННЫЙ В АЛФАВИТЕ,290,116.5,50.1379601,27.5244363,49.3997817,24.6214515
станція ПОПАСНА,станція ПОКРОВСЬК,ЩЕБЕНЬ ДЛЯ БАЛЛАСТИРОВКИ ЖЕЛЕЗНОДОРОЖНОГО ПУТИ,345,457,48.629978,38.380115,48.285102,37.1816185
станція ПОРТ-ВЕЛИКЕ ЗАПОРІЖЖЯ,станція БЕРДА,ПЕСОК СТРОИТЕЛЬНЫЙ,245,46,47.873826,35.1094284,46.7942115,36.7703024
станція ПОРТ-ВЕЛИКЕ ЗАПОРІЖЖЯ,станція БЕРДЯНСЬК,ПЕСОК СТРОИТЕЛЬНЫЙ,267,47,47.873826,35.1094284,46.7510056,36.8036004
станція ПОРТ-ВЕЛИКЕ ЗАПОРІЖЖЯ,станція ДНІПРОРУДНЕ,ПЕСОК СТРОИТЕЛЬНЫЙ,270,48,47.873826,35.1094284,47.174629,34.962825
станція ПОЧАЙНА,станція ГНІВАНЬ,ПЕСОК СТРОИТЕЛЬНЫЙ,457,63,50.485104,30.500415,49.1023539,28.3299434
станція ПОЧАЙНА,станція ЛАДИЖИН,ПЕСОК СТРОИТЕЛЬНЫЙ,435,57,50.485104,30.500415,48.609462,29.1503679
станція РАФАЛІВКА,станція ГОРОДОК-ЛЬВІВСЬКИЙ,"ЩЕБЕНЬ,НЕ ПОИМЕНОВАННЫЙ В АЛФАВИТЕ",991,95,51.3091667,25.9961111,49.789677,23.629894
станція РАФАЛІВКА,станція ЖИТОМИР,"ЩЕБЕНЬ,НЕ ПОИМЕНОВАННЫЙ В АЛФАВИТЕ",1515,77,51.3091667,25.9961111,50.2687998,28.6975264
станція РАФАЛІВКА,станція ОСНОВА,"ЩЕБЕНЬ,НЕ ПОИМЕНОВАННЫЙ В АЛФАВИТЕ",206,113.5,51.3091667,25.9961111,49.9395953,36.2330042
станція РАФАЛІВКА,станція ЧЕРКАСИ,"ЩЕБЕНЬ,НЕ ПОИМЕНОВАННЫЙ В АЛФАВИТЕ",1735,117,51.3091667,25.9961111,49.425949,32.0498809
станція РАФАЛІВКА,станція ЯГОДИН (ЕКСП. ПКП),"ЩЕБЕНЬ,НЕ ПОИМЕНОВАННЫЙ В АЛФАВИТЕ",243,53,51.3091667,25.9961111,51.198201,23.895884
станція РЕДУТИ,станція БУДИ,ОТСЕВ ГРАНИТНЫЙ ИЛИ КАМЕННЫЙ,243,91,49.016034,33.56665,49.889228,36.022586
станція РЕДУТИ,станція ГРАКОВЕ,ОТСЕВ ГРАНИТНЫЙ ИЛИ КАМЕННЫЙ,215,116,49.016034,33.56665,49.7292217,36.8648588
станція РЕДУТИ,станція ГРАКОВЕ,ЩЕБЕНЬ ГРАНИТНЫЙ НЕ ПОИМЕНОВАННЫЙ В АЛФАВИТЕ,555,116,49.016034,33.56665,49.7292217,36.8648588
станція РЕДУТИ,станція ДАЧНЕ,ЩЕБЕНЬ ГРАНИТНЫЙ НЕ ПОИМЕНОВАННЫЙ В АЛФАВИТЕ,356,91,49.016034,33.56665,50.8093821,25.4025522
станція РЕДУТИ,станція ДЕРГАЧІ,ОТСЕВ ГРАНИТНЫЙ ИЛИ КАМЕННЫЙ,397,103,49.016034,33.56665,50.099319,36.135486
станція РЕДУТИ,станція ДЕРГАЧІ,ЩЕБЕНЬ ГРАНИТНЫЙ НЕ ПОИМЕНОВАННЫЙ В АЛФАВИТЕ,234,103,49.016034,33.56665,50.099319,36.135486
станція РЕДУТИ,станція ЗАПОРІЖЖЯ-ЛІВЕ,ЩЕБЕНЬ ДЛЯ БАЛЛАСТИРОВКИ ЖЕЛЕЗНОДОРОЖНОГО ПУТИ,522,131,49.016034,33.56665,47.86944,35.1917334
станція РЕДУТИ,станція ЗОЛОЧІВ,ЩЕБЕНЬ ГРАНИТНЫЙ НЕ ПОИМЕНОВАННЫЙ В АЛФАВИТЕ,296,85,49.016034,33.56665,49.7897214,24.8904427
станція РЕДУТИ,станція ІЛАРІОНОВЕ,ЩЕБЕНЬ ДЛЯ БАЛЛАСТИРОВКИ ЖЕЛЕЗНОДОРОЖНОГО ПУТИ,770,101,49.016034,33.56665,48.4052689,35.2802166
станція РЕДУТИ,станція ІНДУСТРІАЛЬНА,ЩЕБЕНЬ ГРАНИТНЫЙ НЕ ПОИМЕНОВАННЫЙ В АЛФАВИТЕ,776,102,49.016034,33.56665,49.962852,36.391769
станція РЕДУТИ,станція КОЧУБЕЇВКА,ЩЕБЕНЬ ГРАНИТНЫЙ НЕ ПОИМЕНОВАННЫЙ В АЛФАВИТЕ,587,26,49.016034,33.56665,49.741944,34.969722
станція РЕДУТИ,станція ЛИХАЧОВЕ,ЩЕБЕНЬ ГРАНИТНЫЙ НЕ ПОИМЕНОВАННЫЙ В АЛФАВИТЕ,680,131,49.016034,33.56665,49.3823544,36.2086193
станція РЕДУТИ,станція НОВА БАВАРІЯ,ЩЕБЕНЬ ГРАНИТНЫЙ НЕ ПОИМЕНОВАННЫЙ В АЛФАВИТЕ,236,94,49.016034,33.56665,49.955513,36.1603809
станція РЕДУТИ,станція П’ЯТИХАТКИ,ЩЕБЕНЬ ДЛЯ БАЛЛАСТИРОВКИ ЖЕЛЕЗНОДОРОЖНОГО ПУТИ,870,67.5,49.016034,33.56665,48.4150192,33.7040629
станція РЕДУТИ,станція ПОЛТАВА-КИЇВСЬКА,ОТСЕВ ГРАНИТНЫЙ ИЛИ КАМЕННЫЙ,208,83,49.016034,33.56665,49.6033718,34.5257605
станція РЕДУТИ,станція ПОЛТАВА-КИЇВСЬКА,ЩЕБЕНЬ ГРАНИТНЫЙ НЕ ПОИМЕНОВАННЫЙ В АЛФАВИТЕ,229,83,49.016034,33.56665,49.6033718,34.5257605
станція РЕДУТИ,станція РОМОДАН,ЩЕБЕНЬ ДЛЯ БАЛЛАСТИРОВКИ ЖЕЛЕЗНОДОРОЖНОГО ПУТИ,254,72,49.016034,33.56665,49.9922707,33.3207696
станція РЕДУТИ,станція СЛОВ’ЯНКА,ЩЕБЕНЬ ГРАНИТНЫЙ НЕ ПОИМЕНОВАННЫЙ В АЛФАВИТЕ,375,55,49.016034,33.56665,48.387022,36.707146
станція РЕДУТИ,станція СУПРУНІВКА,ОТСЕВ ГРАНИТНЫЙ ИЛИ КАМЕННЫЙ,544,85,49.016034,33.56665,49.587831,34.476587
станція РЕДУТИ,станція СУПРУНІВКА,ЩЕБЕНЬ ГРАНИТНЫЙ НЕ ПОИМЕНОВАННЫЙ В АЛФАВИТЕ,642,85,49.016034,33.56665,49.587831,34.476587
станція РЕДУТИ,станція СУПРУНІВКА,ЩЕБЕНЬ ДЛЯ БАЛЛАСТИРОВКИ ЖЕЛЕЗНОДОРОЖНОГО ПУТИ,215,85,49.016034,33.56665,49.587831,34.476587
станція РЕДУТИ,станція ФЕДОРІВКА,ЩЕБЕНЬ ДЛЯ БАЛЛАСТИРОВКИ ЖЕЛЕЗНОДОРОЖНОГО ПУТИ,496,123,49.016034,33.56665,47.0810234,35.3139927
станція РЕДУТИ,станція ХАРКІВ-БАЛАШОВСЬКИЙ,ОТСЕВ ГРАНИТНЫЙ ИЛИ КАМЕННЫЙ,252,98,49.016034,33.56665,49.9740613,36.2767679
станція РЕДУТИ,станція ХАРКІВ-ЛІСКИ,ЩЕБЕНЬ ГРАНИТНЫЙ НЕ ПОИМЕНОВАННЫЙ В АЛФАВИТЕ,211,98,49.016034,33.56665,49.959174,36.238248
станція РЕДУТИ,станція ХАРКІВ-ПАСАЖИРСЬКИЙ,ЩЕБЕНЬ ДЛЯ БАЛЛАСТИРОВКИ ЖЕЛЕЗНОДОРОЖНОГО ПУТИ,240,99,49.016034,33.56665,49.989577,36.2043375
станція РОКИТНЕ,станція БОРИСПІЛЬ,ЩЕБЕНЬ ГРАНИТНЫЙ НЕ ПОИМЕНОВАННЫЙ В АЛФАВИТЕ,299,89,49.6956,30.5090999,50.3766975,30.9448324
станція РОКИТНЕ,станція ПЕТРО КРИВОНІС,ЩЕБЕНЬ ГРАНИТНЫЙ НЕ ПОИМЕНОВАННЫЙ В АЛФАВИТЕ,222,65,49.6956,30.5090999,50.354151,30.544861
станція РОКИТНЕ,станція ПОЧАЙНА,ЩЕБЕНЬ ГРАНИТНЫЙ НЕ ПОИМЕНОВАННЫЙ В АЛФАВИТЕ,1701,70,49.6956,30.5090999,50.485104,30.500415
станція РОКИТНЕ,станція ПРИЛУКИ,ЩЕБЕНЬ ГРАНИТНЫЙ НЕ ПОИМЕНОВАННЫЙ В АЛФАВИТЕ,439,110,49.6956,30.5090999,50.5820914,32.3843273
станція РОКИТНЕ-ВОЛИНСЬКЕ,станція БУШТИНА,ОТСЕВ ГРАНИТНЫЙ ИЛИ КАМЕННЫЙ,379,140,51.2710706,27.220723,48.05618,23.49449
станція РОКИТНЕ-ВОЛИНСЬКЕ,станція ВЕРБКА,ЩЕБЕНЬ ГРАНИТНЫЙ НЕ ПОИМЕНОВАННЫЙ В АЛФАВИТЕ,246,95,51.2710706,27.220723,51.234036,24.692921
станція РОКИТНЕ-ВОЛИНСЬКЕ,станція ГІРНИК,ЩЕБЕНЬ ГРАНИТНЫЙ НЕ ПОИМЕНОВАННЫЙ В АЛФАВИТЕ,343,76,51.2710706,27.220723,50.353333,24.223611
станція РОКИТНЕ-ВОЛИНСЬКЕ,станція ГЛИННА-НАВАРІЯ,ЩЕБЕНЬ ГРАНИТНЫЙ НЕ ПОИМЕНОВАННЫЙ В АЛФАВИТЕ,372,90,51.2710706,27.220723,49.734195,23.8989759
станція РОКИТНЕ-ВОЛИНСЬКЕ,станція ГОРОДЕНКА-ЗАВОД,ОТСЕВ ГРАНИТНЫЙ ИЛИ КАМЕННЫЙ,314,74,51.2710706,27.220723,48.6823182,25.476688
станція РОКИТНЕ-ВОЛИНСЬКЕ,станція ДРОГОБИЧ,ЩЕБЕНЬ ГРАНИТНЫЙ НЕ ПОИМЕНОВАННЫЙ В АЛФАВИТЕ,671,112,51.2710706,27.220723,49.3551448,23.5434562
станція РОКИТНЕ-ВОЛИНСЬКЕ,станція ЖОВКВА,ЩЕБЕНЬ ГРАНИТНЫЙ НЕ ПОИМЕНОВАННЫЙ В АЛФАВИТЕ,295,125,51.2710706,27.220723,50.005451,24.0122791
станція РОКИТНЕ-ВОЛИНСЬКЕ,станція ПЕРСЕНКІВКА,ЩЕБЕНЬ ГРАНИТНЫЙ НЕ ПОИМЕНОВАННЫЙ В АЛФАВИТЕ,2900,118,51.2710706,27.220723,49.8098013,24.030408
станція РОКИТНЕ-ВОЛИНСЬКЕ,станція ПІДЗАМЧЕ,ЩЕБЕНЬ ГРАНИТНЫЙ НЕ ПОИМЕНОВАННЫЙ В АЛФАВИТЕ,591,97,51.2710706,27.220723,49.8513992,24.0337885
станція РОКИТНЕ-ВОЛИНСЬКЕ,станція РЯСНА II,ЩЕБЕНЬ ГРАНИТНЫЙ НЕ ПОИМЕНОВАННЫЙ В АЛФАВИТЕ,293,115,51.2710706,27.220723,49.8636374,23.9381062
станція РОКИТНЕ-ВОЛИНСЬКЕ,станція СКНИЛІВ,ЩЕБЕНЬ ГРАНИТНЫЙ НЕ ПОИМЕНОВАННЫЙ В АЛФАВИТЕ,425,117,51.2710706,27.220723,49.818992,23.931606
станція РОКИТНЕ-ВОЛИНСЬКЕ,станція СОКАЛЬ,ОТСЕВ ГРАНИТНЫЙ ИЛИ КАМЕННЫЙ,237,97,51.2710706,27.220723,50.4649598,24.2574808
станція РОКИТНЕ-ВОЛИНСЬКЕ,станція СОКАЛЬ,ЩЕБЕНЬ ГРАНИТНЫЙ НЕ ПОИМЕНОВАННЫЙ В АЛФАВИТЕ,429,72,51.2710706,27.220723,50.4649598,24.2574808
станція РОКИТНЕ-ВОЛИНСЬКЕ,станція ТЕРНОПІЛЬ,ЩЕБЕНЬ ГРАНИТНЫЙ НЕ ПОИМЕНОВАННЫЙ В АЛФАВИТЕ,276,75,51.2710706,27.220723,49.56629,25.592613
станція РОКИТНЕ-ВОЛИНСЬКЕ,станція ХРИПЛИН,ЩЕБЕНЬ ГРАНИТНЫЙ НЕ ПОИМЕНОВАННЫЙ В АЛФАВИТЕ,203,98,51.2710706,27.220723,48.8851079,24.7468767
станція РОКИТНЕ-ВОЛИНСЬКЕ,станція ЯМНИЦЯ,ЩЕБЕНЬ ГРАНИТНЫЙ НЕ ПОИМЕНОВАННЫЙ В АЛФАВИТЕ,213,120,51.2710706,27.220723,48.9855201,24.7113369
станція РОСТУЩА,станція БАХМУТ,ЩЕБЕНЬ ГРАНИТНЫЙ ФРАКЦИИ 5Х20,208,95,47.8088516,35.2845533,48.5913459,37.9864483
станція РОСТУЩА,станція ДВОРІЧНА,ЩЕБЕНЬ ГРАНИТНЫЙ НЕ ПОИМЕНОВАННЫЙ В АЛФАВИТЕ,669,121,47.8088516,35.2845533,49.852659,37.7305801
станція РОСТУЩА,станція КРЕМІННЕ,ОТСЕВ ГРАНИТНЫЙ ИЛИ КАМЕННЫЙ,541,96,47.8088516,35.2845533,49.05346,38.23712
станція РОСТУЩА,станція КРЕМІННЕ,ЩЕБЕНЬ ГРАНИТНЫЙ ФРАКЦИИ 5Х20,233,96,47.8088516,35.2845533,49.05346,38.23712
станція РОСТУЩА,станція НОВА БАВАРІЯ,ЩЕБЕНЬ ГРАНИТНЫЙ ФРАКЦИИ 5Х20,220,89,47.8088516,35.2845533,49.955513,36.1603809
станція РОСТУЩА,станція ПРИДОНЕЦЬКА,ОТСЕВ ГРАНИТНЫЙ ИЛИ КАМЕННЫЙ,420,66,47.8088516,35.2845533,48.896298,37.704072
станція РОСТУЩА,станція РУБІЖНЕ,ОТСЕВ ГРАНИТНЫЙ ИЛИ КАМЕННЫЙ,546,118,47.8088516,35.2845533,49.0241813,38.3538418
станція РОСТУЩА,станція ШПИЧКИНЕ,ОТСЕВ ГРАНИТНЫЙ ИЛИ КАМЕННЫЙ,498,118,47.8088516,35.2845533,48.753699,37.5595991
станція РОСТУЩА,станція ШПИЧКИНЕ,ЩЕБЕНЬ ГРАНИТНЫЙ ФРАКЦИИ 5Х20,581,119,47.8088516,35.2845533,48.753699,37.5595991
станція САМАРІВКА,станція БАСИ,ИЗВЕСТЬ НЕГАШЕНАЯ,211,83,48.540278,35.121667,50.862753,34.886865
станція САМАРІВКА,станція ЖОВТІ ВОДИ II,ИЗВЕСТЬ НЕГАШЕНАЯ,446,39,48.540278,35.121667,48.3620401,33.49499
станція САМАРІВКА,станція ЗАПОРІЖЖЯ-ЛІВЕ,ИЗВЕСТЬ НЕГАШЕНАЯ,265,58,48.540278,35.121667,47.86944,35.1917334
станція САМАРІВКА,станція ПРАВДА,ИЗВЕСТЬ НЕГАШЕНАЯ,1109,27,48.540278,35.121667,48.517983,34.658394
станція САМЧИНЦІ,станція БЕРЕЗОВИЦЯ-ОСТРІВ,ЩЕБЕНЬ ГРАНИТНЫЙ НЕ ПОИМЕНОВАННЫЙ В АЛФАВИТЕ,224,57,48.873107,29.0810389,49.490776,25.605512
станція САРНИ,станція ІЗОВ (ЕКСП. ПКП),ЩЕБЕНЬ ГРАНИТНЫЙ НЕ ПОИМЕНОВАННЫЙ В АЛФАВИТЕ,296,76,51.3409612,26.6008994,50.828474,24.059367
станція САРНИ,станція ПЕРСЕНКІВКА,ЩЕБЕНЬ ГРАНИТНЫЙ НЕ ПОИМЕНОВАННЫЙ В АЛФАВИТЕ,262,102,51.3409612,26.6008994,49.8098013,24.030408
станція САРНИ,станція РЯСНА II,ЩЕБЕНЬ ГРАНИТНЫЙ НЕ ПОИМЕНОВАННЫЙ В АЛФАВИТЕ,422,100,51.3409612,26.6008994,49.8636374,23.9381062
станція САРНИ,станція СОКАЛЬ,ЩЕБЕНЬ ГРАНИТНЫЙ НЕ ПОИМЕНОВАННЫЙ В АЛФАВИТЕ,225,81,51.3409612,26.6008994,50.4649598,24.2574808
станція САРНИ,станція ЯГОДИН (ЕКСП. ПКП),ЩЕБЕНЬ ГРАНИТНЫЙ НЕ ПОИМЕНОВАННЫЙ В АЛФАВИТЕ,353,86,51.3409612,26.6008994,51.198201,23.895884
станція САХАРНА,станція АККАРЖА,ЩЕБЕНЬ ДЛЯ БАЛЛАСТИРОВКИ ЖЕЛЕЗНОДОРОЖНОГО ПУТИ,251,113,48.642709,32.625862,46.3322,30.55886
станція САХАРНА,станція АРЦИЗ,ЩЕБЕНЬ ДЛЯ БАЛЛАСТИРОВКИ ЖЕЛЕЗНОДОРОЖНОГО ПУТИ,470,149,48.642709,32.625862,45.9968241,29.4199425
станція САХАРНА,станція БІЛГОРОД-ДНІСТРОВСЬКИЙ,ЩЕБЕНЬ ДЛЯ БАЛЛАСТИРОВКИ ЖЕЛЕЗНОДОРОЖНОГО ПУТИ,316,102,48.642709,32.625862,46.1851723,30.3377686
станція САХАРНА,станція ЗАТИШШЯ,ЩЕБЕНЬ ДЛЯ БАЛЛАСТИРОВКИ ЖЕЛЕЗНОДОРОЖНОГО ПУТИ,333,101,48.642709,32.625862,47.335864,29.878657
станція САХАРНА,станція ІЗМАЇЛ,ЩЕБЕНЬ ГРАНИТНЫЙ НЕ ПОИМЕНОВАННЫЙ В АЛФАВИТЕ,247,117,48.642709,32.625862,45.3600096,28.812532
станція САХАРНА,станція ІНДУСТРІАЛЬНА,ЩЕБЕНЬ ГРАНИТНЫЙ НЕ ПОИМЕНОВАННЫЙ В АЛФАВИТЕ,235,96,48.642709,32.625862,49.962852,36.391769
станція САХАРНА,станція КОТЛАБУХ,"ЩЕБЕНЬ,НЕ ПОИМЕНОВАННЫЙ В АЛФАВИТЕ",245,66,48.642709,32.625862,45.6264999,28.9768277
станція САХАРНА,станція ОДЕСА-ЗАСТАВА I,ЩЕБЕНЬ ГРАНИТНЫЙ НЕ ПОИМЕНОВАННЫЙ В АЛФАВИТЕ,486,104,48.642709,32.625862,46.4776308,30.6545697
станція САХАРНА,станція ОДЕСА-ЛІСКИ,ЩЕБЕНЬ ГРАНИТНЫЙ НЕ ПОИМЕНОВАННЫЙ В АЛФАВИТЕ,240,85,48.642709,32.625862,46.522819,30.60268
станція САХАРНА,станція ОДЕСА-ЛІСКИ,ЩЕБЕНЬ ДЛЯ БАЛЛАСТИРОВКИ ЖЕЛЕЗНОДОРОЖНОГО ПУТИ,1196,106,48.642709,32.625862,46.522819,30.60268
станція САХАРНА,станція ПОЛТАВА-ПІВДЕННА,ЩЕБЕНЬ ГРАНИТНЫЙ НЕ ПОИМЕНОВАННЫЙ В АЛФАВИТЕ,244,75,48.642709,32.625862,49.5821613,34.5948456
станція САХАРНА,станція РОЗДІЛЬНА I,ЩЕБЕНЬ ДЛЯ БАЛЛАСТИРОВКИ ЖЕЛЕЗНОДОРОЖНОГО ПУТИ,363,116,48.642709,32.625862,46.8502,30.07361
станція САХАРНА,станція ХАРКІВ-БАЛАШОВСЬКИЙ,ЩЕБЕНЬ ГРАНИТНЫЙ НЕ ПОИМЕНОВАННЫЙ В АЛФАВИТЕ,765,93,48.642709,32.625862,49.9740613,36.2767679
станція САХАРНА,станція ХАРКІВ-СОРТУВАЛЬНИЙ,ЩЕБЕНЬ ГРАНИТНЫЙ НЕ ПОИМЕНОВАННЫЙ В АЛФАВИТЕ,361,110.5,48.642709,32.625862,50.030735,36.177962
станція САХАРНА,станція ХРИСТИНІВКА,ЩЕБЕНЬ ДЛЯ БАЛЛАСТИРОВКИ ЖЕЛЕЗНОДОРОЖНОГО ПУТИ,240,70,48.642709,32.625862,48.8152048,29.9726289
станція САХАРНА,станція ЧОРНОМОРСЬКА (ДЛЯ ТІС),ЩЕБЕНЬ ГРАНИТНЫЙ НЕ ПОИМЕНОВАННЫЙ В АЛФАВИТЕ,359,132,48.642709,32.625862,46.82775,30.76
станція СИНЯ ГОРА,станція ДНІПРОРУДНЕ,ЩЕБЕНЬ ГРАНИТНЫЙ ФРАКЦИИ 5Х10,245,29,47.275,36.315278,47.174629,34.962825
станція СИНЯ ГОРА,станція КРАМАТОРСЬК,ЩЕБЕНЬ ГРАНИТНЫЙ ФРАКЦИИ 5Х20,204,73.5,47.275,36.315278,48.7259313,37.54314
станція СИНЯ ГОРА,станція КРЕМІННЕ,ОТСЕВ ГРАНИТНЫЙ ИЛИ КАМЕННЫЙ,245,82,47.275,36.315278,49.05346,38.23712
станція СИНЯ ГОРА,станція ШПИЧКИНЕ,ОТСЕВ ГРАНИТНЫЙ ИЛИ КАМЕННЫЙ,380,96,47.275,36.315278,48.753699,37.5595991
станція СИНЯ ГОРА,станція ШПИЧКИНЕ,ЩЕБЕНЬ ГРАНИТНЫЙ ФРАКЦИИ 5Х20,332,96,47.275,36.315278,48.753699,37.5595991
станція СІВЕРСЬК,станція БАСИ,"ГЛИНА,НЕ ПОИМЕНОВАННАЯ В АЛФАВИТЕ",300,129,48.8696525,38.0928184,50.862753,34.886865
станція СІОНІТНИЙ,станція ШПИЧКИНЕ,ОТСЕВ ГРАНИТНЫЙ ИЛИ КАМЕННЫЙ,960,128,47.328032,37.565515,48.753699,37.5595991
станція СІОНІТНИЙ,станція ШПИЧКИНЕ,ЩЕБЕНЬ ГРАНИТНЫЙ НЕ ПОИМЕНОВАННЫЙ В АЛФАВИТЕ,962,128,47.328032,37.565515,48.753699,37.5595991
станція СКАЛА-ПОДІЛЬСЬКА,станція ВИШНЕВЕ,ПОРОШОК МИНЕРАЛЬНЫЙ,297,75,48.842887,26.203063,50.384178,30.37057
станція СЛАВУТА I,станція ГРЕЧАНИ,ПЕСОК СТРОИТЕЛЬНЫЙ,1487,77,50.32072,26.88511,49.4417946,26.930526
станція СЛАВУТА I,станція ДАВИДІВ,ПЕСОК СТРОИТЕЛЬНЫЙ,336,91,50.32072,26.88511,49.7431731,24.1471702
станція СЛАВУТА I,станція ЗАБОЛОТІВ,ПЕСОК СТРОИТЕЛЬНЫЙ,317,94,50.32072,26.88511,48.4723378,25.2792457
станція СЛАВУТА I,станція ЗАКУПНЕ,ПЕСОК СТРОИТЕЛЬНЫЙ,428,75,50.32072,26.88511,49.108364,26.317903
станція СЛАВУТА I,станція САДГОРА,ПЕСОК СТРОИТЕЛЬНЫЙ,228,104,50.32072,26.88511,48.332069,25.949382
станція СЛАВУТА I,станція СНЯТИН,ПЕСОК СТРОИТЕЛЬНЫЙ,228,97,50.32072,26.88511,48.42933,25.50516
станція СЛАВУТА I,станція ХМЕЛЬНИЦЬКИЙ,ПЕСОК СТРОИТЕЛЬНЫЙ,2444,126,50.32072,26.88511,49.416645,27.0097674
станція СЛАВУТА I,станція ЦЕНЖІВ,ПЕСОК СТРОИТЕЛЬНЫЙ,447,105,50.32072,26.88511,48.999803,24.596851
станція СЛАВУТА I,станція ЧЕРНІВЦІ-ПІВДЕННА,ПЕСОК СТРОИТЕЛЬНЫЙ,322,105,50.32072,26.88511,48.265337,25.957599
станція СЛАВУТА II,станція ДЕРАЖНЯ,ПЕСОК СТРОИТЕЛЬНЫЙ,337,99,50.296927,26.801901,49.26728,27.4305996
станція СЛАВУТА II,станція КАМ’ЯНЕЦЬ-ПОДІЛЬСЬКИЙ,ПЕСОК СТРОИТЕЛЬНЫЙ,1273,87,50.296927,26.801901,48.6880686,26.6015963
станція СЛАВУТА II,станція РІВНЕ,ПЕСОК СТРОИТЕЛЬНЫЙ,393,34,50.296927,26.801901,50.6277112,26.239901
станція СЛАВУТА II,станція ХМЕЛЬНИЦЬКИЙ,ПЕСОК СТРОИТЕЛЬНЫЙ,395,81,50.296927,26.801901,49.416645,27.0097674
станція СМОЛКА,станція АККАРЖА,ЩЕБЕНЬ ГРАНИТНЫЙ НЕ ПОИМЕНОВАННЫЙ В АЛФАВИТЕ,268,114,50.5478,27.66,46.3322,30.55886
станція СМОЛКА,станція БЕРЕЗОВИЦЯ-ОСТРІВ,ЩЕБЕНЬ ГРАНИТНЫЙ НЕ ПОИМЕНОВАННЫЙ В АЛФАВИТЕ,786,97,50.5478,27.66,49.490776,25.605512
станція СМОЛКА,станція ВОЛОВЕЦЬ,ЩЕБЕНЬ ГРАНИТНЫЙ НЕ ПОИМЕНОВАННЫЙ В АЛФАВИТЕ,255,103,50.5478,27.66,48.7137457,23.1846838
станція СМОЛКА,станція ДАВИДІВ,ЩЕБЕНЬ ГРАНИТНЫЙ НЕ ПОИМЕНОВАННЫЙ В АЛФАВИТЕ,240,122,50.5478,27.66,49.7431731,24.1471702
станція СМОЛКА,станція ДУБЛЯНИ-ЛЬВІВСЬКІ,ЩЕБЕНЬ ГРАНИТНЫЙ НЕ ПОИМЕНОВАННЫЙ В АЛФАВИТЕ,485,85,50.5478,27.66,49.882756,24.0938039
станція СМОЛКА,станція ЖОВКВА,ЩЕБЕНЬ ГРАНИТНЫЙ НЕ ПОИМЕНОВАННЫЙ В АЛФАВИТЕ,240,125,50.5478,27.66,50.005451,24.0122791
станція СМОЛКА,станція ЗБАРАЖ,ЩЕБЕНЬ ГРАНИТНЫЙ НЕ ПОИМЕНОВАННЫЙ В АЛФАВИТЕ,481,41,50.5478,27.66,49.677809,25.7629487
станція СМОЛКА,станція КАЛУШ,ЩЕБЕНЬ ГРАНИТНЫЙ НЕ ПОИМЕНОВАННЫЙ В АЛФАВИТЕ,294,122,50.5478,27.66,49.0128135,24.3491688
станція СМОЛКА,станція КОЗОВА,ЩЕБЕНЬ ГРАНИТНЫЙ НЕ ПОИМЕНОВАННЫЙ В АЛФАВИТЕ,742,105,50.5478,27.66,49.4296637,25.1642181
станція СМОЛКА,станція КРАСНЕ,ЩЕБЕНЬ ГРАНИТНЫЙ НЕ ПОИМЕНОВАННЫЙ В АЛФАВИТЕ,531,96,50.5478,27.66,49.9172135,24.6159582
станція СМОЛКА,станція МОСТИСЬКА II (ЕКСП. ПКП),ЩЕБЕНЬ ГРАНИТНЫЙ НЕ ПОИМЕНОВАННЫЙ В АЛФАВИТЕ,253,107,50.5478,27.66,49.8166178,23.0325224
станція СМОЛКА,станція МУКАЧЕВО,ЩЕБЕНЬ ГРАНИТНЫЙ НЕ ПОИМЕНОВАННЫЙ В АЛФАВИТЕ,320,143,50.5478,27.66,48.4295174,22.7116533
станція СМОЛКА,станція НАДВІРНА,ЩЕБЕНЬ ГРАНИТНЫЙ НЕ ПОИМЕНОВАННЫЙ В АЛФАВИТЕ,544,131,50.5478,27.66,48.6242545,24.5847443
станція СМОЛКА,станція ОДЕСА-ЛІСКИ,ЩЕБЕНЬ ГРАНИТНЫЙ НЕ ПОИМЕНОВАННЫЙ В АЛФАВИТЕ,233,128,50.5478,27.66,46.522819,30.60268
станція СМОЛКА,станція ПЕРСЕНКІВКА,ЩЕБЕНЬ ГРАНИТНЫЙ НЕ ПОИМЕНОВАННЫЙ В АЛФАВИТЕ,3286,118,50.5478,27.66,49.8098013,24.030408
станція СМОЛКА,станція ПІДЗАМЧЕ,ЩЕБЕНЬ ГРАНИТНЫЙ НЕ ПОИМЕНОВАННЫЙ В АЛФАВИТЕ,352,111,50.5478,27.66,49.8513992,24.0337885
станція СМОЛКА,станція РІВНЕ,ЩЕБЕНЬ ГРАНИТНЫЙ НЕ ПОИМЕНОВАННЫЙ В АЛФАВИТЕ,952,78,50.5478,27.66,50.6277112,26.239901
станція СМОЛКА,станція РЯСНА II,ЩЕБЕНЬ ГРАНИТНЫЙ НЕ ПОИМЕНОВАННЫЙ В АЛФАВИТЕ,3548,115,50.5478,27.66,49.8636374,23.9381062
станція СМОЛКА,станція СОКАЛЬ,ОТСЕВ ГРАНИТНЫЙ ИЛИ КАМЕННЫЙ,265,132,50.5478,27.66,50.4649598,24.2574808
станція СМОЛКА,станція ТОРОПИЛІВКА,ЩЕБЕНЬ ГРАНИТНЫЙ НЕ ПОИМЕНОВАННЫЙ В АЛФАВИТЕ,275,118,50.5478,27.66,50.942266,34.670085
станція СМОЛКА,станція ХРИПЛИН,ЩЕБЕНЬ ГРАНИТНЫЙ НЕ ПОИМЕНОВАННЫЙ В АЛФАВИТЕ,1088,123,50.5478,27.66,48.8851079,24.7468767
станція СМОЛКА,станція ЧЕРНІГІВ ПІВНІЧНИЙ,ЩЕБЕНЬ ГРАНИТНЫЙ НЕ ПОИМЕНОВАННЫЙ В АЛФАВИТЕ,535,116,50.5478,27.66,51.519809,31.248508
станція СМОЛКА,станція ЩИРЕЦЬ II,ЩЕБЕНЬ ГРАНИТНЫЙ НЕ ПОИМЕНОВАННЫЙ В АЛФАВИТЕ,937,124,50.5478,27.66,49.6560451,23.8696466
станція СМОЛКА,станція ЯГОДИН (ЕКСП. ПКП),ЩЕБЕНЬ ГРАНИТНЫЙ НЕ ПОИМЕНОВАННЫЙ В АЛФАВИТЕ,276,65,50.5478,27.66,51.198201,23.895884
станція СОКИРЯНИ,станція ВАСИЛЬКІВ I,ОТСЕВ ГРАНИТНЫЙ ИЛИ КАМЕННЫЙ,467,83.5,48.443508,27.373713,50.2255111,30.2255802
станція СОКОРИКИ,станція БРОВАРИ,ЩЕБЕНЬ ГРАНИТНЫЙ НЕ ПОИМЕНОВАННЫЙ В АЛФАВИТЕ,801,98,51.019655,28.64205,50.5147282,30.8132567
станція СОКОРИКИ,станція ДАВИДІВ,ЩЕБЕНЬ ГРАНИТНЫЙ НЕ ПОИМЕНОВАННЫЙ В АЛФАВИТЕ,437,113,51.019655,28.64205,49.7431731,24.1471702
станція СОКОРИКИ,станція ІВАНО-ФРАНКІВСЬК,ЩЕБЕНЬ ГРАНИТНЫЙ НЕ ПОИМЕНОВАННЫЙ В АЛФАВИТЕ,202,96,51.019655,28.64205,48.9251948,24.7235268
станція СОКОРИКИ,станція МАТІЇВЦІ,ОТСЕВ ГРАНИТНЫЙ ИЛИ КАМЕННЫЙ,875,106,51.019655,28.64205,48.4984887,25.1616737
станція СОКОРИКИ,станція МАТІЇВЦІ,ЩЕБЕНЬ ГРАНИТНЫЙ НЕ ПОИМЕНОВАННЫЙ В АЛФАВИТЕ,592,106,51.019655,28.64205,48.4984887,25.1616737
станція СОКОРИКИ,станція НАДВІРНА,ОТСЕВ ГРАНИТНЫЙ ИЛИ КАМЕННЫЙ,492,122,51.019655,28.64205,48.6242545,24.5847443
станція СОКОРИКИ,станція НАДВІРНА,ЩЕБЕНЬ ГРАНИТНЫЙ НЕ ПОИМЕНОВАННЫЙ В АЛФАВИТЕ,391,122,51.019655,28.64205,48.6242545,24.5847443
станція СОКОРИКИ,станція ПЕРСЕНКІВКА,ЩЕБЕНЬ ГРАНИТНЫЙ НЕ ПОИМЕНОВАННЫЙ В АЛФАВИТЕ,757,110,51.019655,28.64205,49.8098013,24.030408
станція СОКОРИКИ,станція СОЛОНИЦЬКА,ЩЕБЕНЬ ГРАНИТНЫЙ НЕ ПОИМЕНОВАННЫЙ В АЛФАВИТЕ,265,92,51.019655,28.64205,49.981438,33.039353
станція СОКОРИКИ,станція ЧЕРНІГІВ ПІВНІЧНИЙ,ЩЕБЕНЬ ГРАНИТНЫЙ НЕ ПОИМЕНОВАННЫЙ В АЛФАВИТЕ,302,126,51.019655,28.64205,51.519809,31.248508
станція СОКОРИКИ,станція ЯМНИЦЯ,ЩЕБЕНЬ ГРАНИТНЫЙ НЕ ПОИМЕНОВАННЫЙ В АЛФАВИТЕ,378,142,51.019655,28.64205,48.9855201,24.7113369
станція СТАРОКОСТЯНТИНІВ II,станція МАТІЇВЦІ,ЩЕБЕНЬ ГРАНИТНЫЙ НЕ ПОИМЕНОВАННЫЙ В АЛФАВИТЕ,266,80,49.733726,27.2788967,48.4984887,25.1616737
станція СТАРОКОСТЯНТИНІВ II,станція НОВОСЕЛИЦЯ,ЩЕБЕНЬ ГРАНИТНЫЙ НЕ ПОИМЕНОВАННЫЙ В АЛФАВИТЕ,243,68.5,49.733726,27.2788967,48.2240133,26.2806907
станція СТАРОКОСТЯНТИНІВ II,станція РОГАТИН,ЩЕБЕНЬ ГРАНИТНЫЙ НЕ ПОИМЕНОВАННЫЙ В АЛФАВИТЕ,893,90,49.733726,27.2788967,49.3997817,24.6214515
станція СТАРОКОСТЯНТИНІВ II,станція ХРИПЛИН,ЩЕБЕНЬ ГРАНИТНЫЙ НЕ ПОИМЕНОВАННЫЙ В АЛФАВИТЕ,202,116,49.733726,27.2788967,48.8851079,24.7468767
станція СТАРОКОСТЯНТИНІВ II,станція ЯГОДИН (ЕКСП. ПКП),ЩЕБЕНЬ ГРАНИТНЫЙ НЕ ПОИМЕНОВАННЫЙ В АЛФАВИТЕ,284,73,49.733726,27.2788967,51.198201,23.895884
станція СТУЛЬНЕВЕ,станція ГЕНІЧЕСЬК,ЩЕБЕНЬ ГРАНИТНЫЙ НЕ ПОИМЕНОВАННЫЙ В АЛФАВИТЕ,377,64,47.212741,36.017974,46.1736548,34.7741415
станція СТУЛЬНЕВЕ,станція КАХОВКА,ЩЕБЕНЬ ГРАНИТНЫЙ НЕ ПОИМЕНОВАННЫЙ В АЛФАВИТЕ,362,36,47.212741,36.017974,46.753355,33.4315209
станція СТУЛЬНЕВЕ,станція НОВООЛЕКСІЇВКА,ЩЕБЕНЬ ГРАНИТНЫЙ НЕ ПОИМЕНОВАННЫЙ В АЛФАВИТЕ,457,60,47.212741,36.017974,46.209257,34.6323769
станція СТУЛЬНЕВЕ,станція ПОКРОВСЬК,ЩЕБЕНЬ ГРАНИТНЫЙ НЕ ПОИМЕНОВАННЫЙ В АЛФАВИТЕ,218,43,47.212741,36.017974,48.285102,37.1816185
станція ТОМАШГОРОД,станція БЕРЕЗОВИЦЯ-ОСТРІВ,ЩЕБЕНЬ ГРАНИТНЫЙ НЕ ПОИМЕНОВАННЫЙ В АЛФАВИТЕ,237,84.5,51.3017,27.0707001,49.490776,25.605512
станція ТОМАШГОРОД,станція БЕСКИД,ЩЕБЕНЬ ГРАНИТНЫЙ НЕ ПОИМЕНОВАННЫЙ В АЛФАВИТЕ,375,122,51.3017,27.0707001,48.7615191,23.3261828
станція ТОМАШГОРОД,станція ВОРОХТА,ОТСЕВ ГРАНИТНЫЙ ИЛИ КАМЕННЫЙ,233,113,51.3017,27.0707001,48.293365,24.5646569
станція ТОМАШГОРОД,станція ГІРНИК,ЩЕБЕНЬ ГРАНИТНЫЙ НЕ ПОИМЕНОВАННЫЙ В АЛФАВИТЕ,324,58,51.3017,27.0707001,50.353333,24.223611
станція ТОМАШГОРОД,станція ГЛИННА-НАВАРІЯ,ЩЕБЕНЬ ГРАНИТНЫЙ НЕ ПОИМЕНОВАННЫЙ В АЛФАВИТЕ,894,70,51.3017,27.0707001,49.734195,23.8989759
станція ТОМАШГОРОД,станція ГЛІБОВИЧІ,ЩЕБЕНЬ ГРАНИТНЫЙ НЕ ПОИМЕНОВАННЫЙ В АЛФАВИТЕ,546,74,51.3017,27.0707001,49.600774,24.230879
станція ТОМАШГОРОД,станція ГОРОДОК-ЛЬВІВСЬКИЙ,ОТСЕВ ГРАНИТНЫЙ ИЛИ КАМЕННЫЙ,425,92,51.3017,27.0707001,49.789677,23.629894
станція ТОМАШГОРОД,станція ГОРОДОК-ЛЬВІВСЬКИЙ,ЩЕБЕНЬ ГРАНИТНЫЙ НЕ ПОИМЕНОВАННЫЙ В АЛФАВИТЕ,1996,123,51.3017,27.0707001,49.789677,23.629894
станція ТОМАШГОРОД,станція ДАВИДІВ,ЩЕБЕНЬ ГРАНИТНЫЙ НЕ ПОИМЕНОВАННЫЙ В АЛФАВИТЕ,221,103,51.3017,27.0707001,49.7431731,24.1471702
станція ТОМАШГОРОД,станція ДРОГОБИЧ,ЩЕБЕНЬ ГРАНИТНЫЙ НЕ ПОИМЕНОВАННЫЙ В АЛФАВИТЕ,429,87,51.3017,27.0707001,49.3551448,23.5434562
станція ТОМАШГОРОД,станція ДУБЛЯНИ-ЛЬВІВСЬКІ,ЩЕБЕНЬ ГРАНИТНЫЙ НЕ ПОИМЕНОВАННЫЙ В АЛФАВИТЕ,401,82,51.3017,27.0707001,49.882756,24.0938039
станція ТОМАШГОРОД,станція ДУБЛЯНИ-ЛЬВІВСЬКІ,ЩЕБЕНЬ ГРАНИТНЫЙ ФРАКЦИИ 10Х20,269,82,51.3017,27.0707001,49.882756,24.0938039
станція ТОМАШГОРОД,станція ДУБНО,ЩЕБЕНЬ ГРАНИТНЫЙ НЕ ПОИМЕНОВАННЫЙ В АЛФАВИТЕ,335,88,51.3017,27.0707001,50.3867622,25.7527362
станція ТОМАШГОРОД,станція ЖОВКВА,ЩЕБЕНЬ ГРАНИТНЫЙ НЕ ПОИМЕНОВАННЫЙ В АЛФАВИТЕ,377,91,51.3017,27.0707001,50.005451,24.0122791
станція ТОМАШГОРОД,станція ЗЛОЧІВ,ЩЕБЕНЬ ГРАНИТНЫЙ НЕ ПОИМЕНОВАННЫЙ В АЛФАВИТЕ,345,101,51.3017,27.0707001,50.277582,35.9894641
станція ТОМАШГОРОД,станція ІЗОВ (ЕКСП. ПКП),ЩЕБЕНЬ ГРАНИТНЫЙ НЕ ПОИМЕНОВАННЫЙ В АЛФАВИТЕ,904,88,51.3017,27.0707001,50.828474,24.059367
станція ТОМАШГОРОД,станція КАЛУШ,ОТСЕВ ГРАНИТНЫЙ ИЛИ КАМЕННЫЙ,236,95,51.3017,27.0707001,49.0128135,24.3491688
станція ТОМАШГОРОД,станція КЛЕПАРІВ,ЩЕБЕНЬ ГРАНИТНЫЙ НЕ ПОИМЕНОВАННЫЙ В АЛФАВИТЕ,985,111,51.3017,27.0707001,49.854236,23.982583
станція ТОМАШГОРОД,станція КРАСНЕ,ЩЕБЕНЬ ГРАНИТНЫЙ НЕ ПОИМЕНОВАННЫЙ В АЛФАВИТЕ,510,96,51.3017,27.0707001,49.9172135,24.6159582
станція ТОМАШГОРОД,станція ЛЬВІВ,ЩЕБЕНЬ ГРАНИТНЫЙ НЕ ПОИМЕНОВАННЫЙ В АЛФАВИТЕ,306,112,51.3017,27.0707001,49.8397205,23.994382
станція ТОМАШГОРОД,станція МИКОЛАЇВ-ДНІСТРОВСЬКИЙ,ЩЕБЕНЬ ГРАНИТНЫЙ НЕ ПОИМЕНОВАННЫЙ В АЛФАВИТЕ,251,95,51.3017,27.0707001,49.5119481,23.9535355
станція ТОМАШГОРОД,станція НАДВІРНА,ОТСЕВ ГРАНИТНЫЙ ИЛИ КАМЕННЫЙ,293,73,51.3017,27.0707001,48.6242545,24.5847443
станція ТОМАШГОРОД,станція НАДВІРНА,ЩЕБЕНЬ ГРАНИТНЫЙ НЕ ПОИМЕНОВАННЫЙ В АЛФАВИТЕ,205,85,51.3017,27.0707001,48.6242545,24.5847443
станція ТОМАШГОРОД,станція ПЕРСЕНКІВКА,ОТСЕВ ГРАНИТНЫЙ ИЛИ КАМЕННЫЙ,432,114,51.3017,27.0707001,49.8098013,24.030408
станція ТОМАШГОРОД,станція ПЕРСЕНКІВКА,ЩЕБЕНЬ ГРАНИТНЫЙ НЕ ПОИМЕНОВАННЫЙ В АЛФАВИТЕ,2066,114,51.3017,27.0707001,49.8098013,24.030408
станція ТОМАШГОРОД,станція ПІДЗАМЧЕ,ОТСЕВ ГРАНИТНЫЙ ИЛИ КАМЕННЫЙ,252,107,51.3017,27.0707001,49.8513992,24.0337885
станція ТОМАШГОРОД,станція ПІДЗАМЧЕ,ЩЕБЕНЬ ГРАНИТНЫЙ НЕ ПОИМЕНОВАННЫЙ В АЛФАВИТЕ,1514,93.5,51.3017,27.0707001,49.8513992,24.0337885
станція ТОМАШГОРОД,станція РЯСНА II,ЩЕБЕНЬ ГРАНИТНЫЙ НЕ ПОИМЕНОВАННЫЙ В АЛФАВИТЕ,646,112,51.3017,27.0707001,49.8636374,23.9381062
станція ТОМАШГОРОД,станція СКНИЛІВ,ЩЕБЕНЬ ГРАНИТНЫЙ НЕ ПОИМЕНОВАННЫЙ В АЛФАВИТЕ,1388,113,51.3017,27.0707001,49.818992,23.931606
станція ТОМАШГОРОД,станція СОКАЛЬ,ЩЕБЕНЬ ГРАНИТНЫЙ НЕ ПОИМЕНОВАННЫЙ В АЛФАВИТЕ,506,56,51.3017,27.0707001,50.4649598,24.2574808
станція ТОМАШГОРОД,станція ТЕРНОПІЛЬ,ЩЕБЕНЬ ГРАНИТНЫЙ НЕ ПОИМЕНОВАННЫЙ В АЛФАВИТЕ,446,107,51.3017,27.0707001,49.56629,25.592613
станція ТОМАШГОРОД,станція ХРИПЛИН,ОТСЕВ ГРАНИТНЫЙ ИЛИ КАМЕННЫЙ,202,120,51.3017,27.0707001,48.8851079,24.7468767
станція ТОМАШГОРОД,станція ХРИПЛИН,ЩЕБЕНЬ ГРАНИТНЫЙ НЕ ПОИМЕНОВАННЫЙ В АЛФАВИТЕ,484,96,51.3017,27.0707001,48.8851079,24.7468767
станція ТОМАШГОРОД,станція ШКЛО-СТАРЖИСЬКА,ЩЕБЕНЬ ГРАНИТНЫЙ НЕ ПОИМЕНОВАННЫЙ В АЛФАВИТЕ,356,95,51.3017,27.0707001,49.970053,23.5551111
станція ТОМАШГОРОД,станція ЩИРЕЦЬ II,ЩЕБЕНЬ ГРАНИТНЫЙ НЕ ПОИМЕНОВАННЫЙ В АЛФАВИТЕ,517,90,51.3017,27.0707001,49.6560451,23.8696466
станція ТОМАШГОРОД,станція ЯВОРІВ,ЩЕБЕНЬ ГРАНИТНЫЙ НЕ ПОИМЕНОВАННЫЙ В АЛФАВИТЕ,396,65,51.3017,27.0707001,49.961643,23.405085
станція ТОМАШГОРОД,станція ЯГОДИН (ЕКСП. ПКП),ЩЕБЕНЬ ГРАНИТНЫЙ НЕ ПОИМЕНОВАННЫЙ В АЛФАВИТЕ,1709,80,51.3017,27.0707001,51.198201,23.895884
станція ТОПОРИЩЕ,станція БАСИ,ЩЕБЕНЬ ГРАНИТНЫЙ НЕ ПОИМЕНОВАННЫЙ В АЛФАВИТЕ,300,112,50.5374181,28.6673157,50.862753,34.886865
станція ТОПОРИЩЕ,станція БРОВАРИ,ЩЕБЕНЬ ГРАНИТНЫЙ НЕ ПОИМЕНОВАННЫЙ В АЛФАВИТЕ,274,46,50.5374181,28.6673157,50.5147282,30.8132567
станція ТОПОРИЩЕ,станція ДАРНИЦЯ,ЩЕБЕНЬ ГРАНИТНЫЙ НЕ ПОИМЕНОВАННЫЙ В АЛФАВИТЕ,251,72,50.5374181,28.6673157,50.430674,30.643448
станція ТОПОРИЩЕ,станція ОДЕСА-ЗАСТАВА I,ЩЕБЕНЬ ГРАНИТНЫЙ НЕ ПОИМЕНОВАННЫЙ В АЛФАВИТЕ,248,119,50.5374181,28.6673157,46.4776308,30.6545697
станція ТОПОРИЩЕ,станція ОДЕСА-ЛІСКИ,ЩЕБЕНЬ ГРАНИТНЫЙ НЕ ПОИМЕНОВАННЫЙ В АЛФАВИТЕ,696,84,50.5374181,28.6673157,46.522819,30.60268
станція ТОПОРИЩЕ,станція ПЕРСЕНКІВКА,ЩЕБЕНЬ ГРАНИТНЫЙ НЕ ПОИМЕНОВАННЫЙ В АЛФАВИТЕ,439,81,50.5374181,28.6673157,49.8098013,24.030408
станція ТОПОРИЩЕ,станція СУМИ,ЩЕБЕНЬ ГРАНИТНЫЙ НЕ ПОИМЕНОВАННЫЙ В АЛФАВИТЕ,966,110,50.5374181,28.6673157,50.926937,34.8087574
станція ТОПОРИЩЕ,станція ТОРОПИЛІВКА,ЩЕБЕНЬ ГРАНИТНЫЙ НЕ ПОИМЕНОВАННЫЙ В АЛФАВИТЕ,214,135,50.5374181,28.6673157,50.942266,34.670085
станція ТРИКРАТНЕ,станція БЕРЕГОВА,ОТСЕВ ГРАНИТНЫЙ ИЛИ КАМЕННЫЙ,349,63,47.7053,31.30533,46.632276,31.044189
станція ТРИКРАТНЕ,станція БЕРЕГОВА,ЩЕБЕНЬ ГРАНИТНЫЙ НЕ ПОИМЕНОВАННЫЙ В АЛФАВИТЕ,297,63,47.7053,31.30533,46.632276,31.044189
станція ТРИКРАТНЕ,станція ДАЧНЕ,ЩЕБЕНЬ ГРАНИТНЫЙ НЕ ПОИМЕНОВАННЫЙ В АЛФАВИТЕ,372,71,47.7053,31.30533,50.8093821,25.4025522
станція ТРИКРАТНЕ,станція ДЗИНІЛОР,ОТСЕВ ГРАНИТНЫЙ ИЛИ КАМЕННЫЙ,460,62,47.7053,31.30533,45.65097,29.11494
станція ТРИКРАТНЕ,станція ІЗМАЇЛ,ЩЕБЕНЬ ГРАНИТНЫЙ НЕ ПОИМЕНОВАННЫЙ В АЛФАВИТЕ,1131,122,47.7053,31.30533,45.3600096,28.812532
станція ТРИКРАТНЕ,станція КОТЛАБУХ,ЩЕБЕНЬ ГРАНИТНЫЙ НЕ ПОИМЕНОВАННЫЙ В АЛФАВИТЕ,534,113,47.7053,31.30533,45.6264999,28.9768277
станція ТРИКРАТНЕ,станція ОДЕСА-ЗАСТАВА II,ЩЕБЕНЬ ГРАНИТНЫЙ НЕ ПОИМЕНОВАННЫЙ В АЛФАВИТЕ,205,66,47.7053,31.30533,46.463065,30.684796
станція ТРИКРАТНЕ,станція ОДЕСА-ЛІСКИ,ОТСЕВ ГРАНИТНЫЙ ИЛИ КАМЕННЫЙ,236,69,47.7053,31.30533,46.522819,30.60268
станція ТРИКРАТНЕ,станція ОДЕСА-ЛІСКИ,ЩЕБЕНЬ ГРАНИТНЫЙ НЕ ПОИМЕНОВАННЫЙ В АЛФАВИТЕ,1017,69,47.7053,31.30533,46.522819,30.60268
станція ТРИКРАТНЕ,станція ОДЕСА-СОРТУВАЛЬНА,ОТСЕВ ГРАНИТНЫЙ ИЛИ КАМЕННЫЙ,326,92,47.7053,31.30533,46.55422,30.754395
станція ТРИКРАТНЕ,станція ОДЕСА-ТОВАРНА,ОТСЕВ ГРАНИТНЫЙ ИЛИ КАМЕННЫЙ,228,66,47.7053,31.30533,46.45531,30.71124
станція ТРИКРАТНЕ,станція ОДЕСА-ТОВАРНА,ЩЕБЕНЬ ГРАНИТНЫЙ НЕ ПОИМЕНОВАННЫЙ В АЛФАВИТЕ,872,66,47.7053,31.30533,46.45531,30.71124
станція ТРИКРАТНЕ,станція САРАТА,ОТСЕВ ГРАНИТНЫЙ ИЛИ КАМЕННЫЙ,264,88,47.7053,31.30533,46.0159204,29.6789749
станція ТРИКРАТНЕ,станція ЧОРНОМОРСЬК-ПОРТ,ЩЕБЕНЬ ГРАНИТНЫЙ НЕ ПОИМЕНОВАННЫЙ В АЛФАВИТЕ,224,83,47.7053,31.30533,46.32227,30.62932
станція ТРИКРАТНЕ,станція ЧОРНОМОРСЬКА (ДЛЯ ТІС),ЩЕБЕНЬ ГРАНИТНЫЙ НЕ ПОИМЕНОВАННЫЙ В АЛФАВИТЕ,2476,90,47.7053,31.30533,46.82775,30.76
станція УШИЦЯ,станція БЕРЕЗОВИЦЯ-ОСТРІВ,ЩЕБЕНЬ ГРАНИТНЫЙ НЕ ПОИМЕНОВАННЫЙ В АЛФАВИТЕ,484,108,50.8063616,28.0648776,49.490776,25.605512
станція УШИЦЯ,станція ВИШНЕВЕ,ЩЕБЕНЬ ГРАНИТНЫЙ НЕ ПОИМЕНОВАННЫЙ В АЛФАВИТЕ,751,94,50.8063616,28.0648776,50.384178,30.37057
станція УШИЦЯ,станція ВОЛОВЕЦЬ,ЩЕБЕНЬ ГРАНИТНЫЙ НЕ ПОИМЕНОВАННЫЙ В АЛФАВИТЕ,266,140,50.8063616,28.0648776,48.7137457,23.1846838
станція УШИЦЯ,станція ГЛУХІВ,ЩЕБЕНЬ ГРАНИТНЫЙ НЕ ПОИМЕНОВАННЫЙ В АЛФАВИТЕ,231,131,50.8063616,28.0648776,51.679907,33.938458
станція УШИЦЯ,станція ГОРОДОК-ЛЬВІВСЬКИЙ,ЩЕБЕНЬ ГРАНИТНЫЙ НЕ ПОИМЕНОВАННЫЙ В АЛФАВИТЕ,236,85,50.8063616,28.0648776,49.789677,23.629894
станція УШИЦЯ,станція ЖОВКВА,ЩЕБЕНЬ ГРАНИТНЫЙ НЕ ПОИМЕНОВАННЫЙ В АЛФАВИТЕ,313,105,50.8063616,28.0648776,50.005451,24.0122791
станція УШИЦЯ,станція ЗАКУПНЕ,ЩЕБЕНЬ ГРАНИТНЫЙ НЕ ПОИМЕНОВАННЫЙ В АЛФАВИТЕ,222,64,50.8063616,28.0648776,49.108364,26.317903
станція УШИЦЯ,станція ЗАПИТІВ,ЩЕБЕНЬ ГРАНИТНЫЙ НЕ ПОИМЕНОВАННЫЙ В АЛФАВИТЕ,324,66,50.8063616,28.0648776,49.920035,24.2236161
станція УШИЦЯ,станція ІВАНО-ФРАНКІВСЬК,ЩЕБЕНЬ ГРАНИТНЫЙ НЕ ПОИМЕНОВАННЫЙ В АЛФАВИТЕ,309,106,50.8063616,28.0648776,48.9251948,24.7235268
станція УШИЦЯ,станція КИЇВ-ВОЛИНСЬКИЙ,ЩЕБЕНЬ ГРАНИТНЫЙ НЕ ПОИМЕНОВАННЫЙ В АЛФАВИТЕ,205,91,50.8063616,28.0648776,50.4121955,30.4301124
станція УШИЦЯ,станція КОЗОВА,ОТСЕВ ГРАНИТНЫЙ ИЛИ КАМЕННЫЙ,688,117,50.8063616,28.0648776,49.4296637,25.1642181
станція УШИЦЯ,станція КОЗОВА,ЩЕБЕНЬ ГРАНИТНЫЙ НЕ ПОИМЕНОВАННЫЙ В АЛФАВИТЕ,535,136.5,50.8063616,28.0648776,49.4296637,25.1642181
станція УШИЦЯ,станція КОЧУБЕЇВКА,ЩЕБЕНЬ ГРАНИТНЫЙ НЕ ПОИМЕНОВАННЫЙ В АЛФАВИТЕ,330,82,50.8063616,28.0648776,49.741944,34.969722
станція УШИЦЯ,станція КРАСНЕ,ЩЕБЕНЬ ГРАНИТНЫЙ НЕ ПОИМЕНОВАННЫЙ В АЛФАВИТЕ,282,111,50.8063616,28.0648776,49.9172135,24.6159582
станція УШИЦЯ,станція МАГАЛА (РЗД),ЩЕБЕНЬ ГРАНИТНЫЙ НЕ ПОИМЕНОВАННЫЙ В АЛФАВИТЕ,284,134,50.8063616,28.0648776,48.288608,26.0245891
станція УШИЦЯ,станція МАТІЇВЦІ,ЩЕБЕНЬ ГРАНИТНЫЙ НЕ ПОИМЕНОВАННЫЙ В АЛФАВИТЕ,243,149,50.8063616,28.0648776,48.4984887,25.1616737
станція УШИЦЯ,станція НАДВІРНА,ЩЕБЕНЬ ГРАНИТНЫЙ НЕ ПОИМЕНОВАННЫЙ В АЛФАВИТЕ,320,114,50.8063616,28.0648776,48.6242545,24.5847443
станція УШИЦЯ,станція ПЕРСЕНКІВКА,ЩЕБЕНЬ ГРАНИТНЫЙ НЕ ПОИМЕНОВАННЫЙ В АЛФАВИТЕ,310,133,50.8063616,28.0648776,49.8098013,24.030408
станція УШИЦЯ,станція ПІДЗАМЧЕ,ЩЕБЕНЬ ГРАНИТНЫЙ НЕ ПОИМЕНОВАННЫЙ В АЛФАВИТЕ,238,126,50.8063616,28.0648776,49.8513992,24.0337885
станція УШИЦЯ,станція ПОЧАЙНА,ЩЕБЕНЬ ГРАНИТНЫЙ НЕ ПОИМЕНОВАННЫЙ В АЛФАВИТЕ,1891,99,50.8063616,28.0648776,50.485104,30.500415
станція УШИЦЯ,станція РАДИВИЛІВ,ОТСЕВ ГРАНИТНЫЙ ИЛИ КАМЕННЫЙ,369,94,50.8063616,28.0648776,50.1284748,25.2516423
станція УШИЦЯ,станція РЯСНА II,ЩЕБЕНЬ ГРАНИТНЫЙ НЕ ПОИМЕНОВАННЫЙ В АЛФАВИТЕ,1411,130,50.8063616,28.0648776,49.8636374,23.9381062
станція УШИЦЯ,станція СКНИЛІВ,ЩЕБЕНЬ ГРАНИТНЫЙ НЕ ПОИМЕНОВАННЫЙ В АЛФАВИТЕ,2247,132,50.8063616,28.0648776,49.818992,23.931606
станція УШИЦЯ,станція СУПРУНІВКА,ЩЕБЕНЬ ГРАНИТНЫЙ НЕ ПОИМЕНОВАННЫЙ В АЛФАВИТЕ,624,130,50.8063616,28.0648776,49.587831,34.476587
станція УШИЦЯ,станція ХМЕЛЬНИЦЬКИЙ,ОТСЕВ ГРАНИТНЫЙ ИЛИ КАМЕННЫЙ,287,82,50.8063616,28.0648776,49.416645,27.0097674
станція УШИЦЯ,станція ХРИПЛИН,ОТСЕВ ГРАНИТНЫЙ ИЛИ КАМЕННЫЙ,391,134,50.8063616,28.0648776,48.8851079,24.7468767
станція УШИЦЯ,станція ХРИПЛИН,ЩЕБЕНЬ ГРАНИТНЫЙ НЕ ПОИМЕНОВАННЫЙ В АЛФАВИТЕ,920,107,50.8063616,28.0648776,48.8851079,24.7468767
станція УШИЦЯ,станція ЧЕРНІВЦІ-ПІВДЕННА,ОТСЕВ ГРАНИТНЫЙ ИЛИ КАМЕННЫЙ,280,111,50.8063616,28.0648776,48.265337,25.957599
станція УШИЦЯ,станція ШЕВЧЕНКОВЕ-ПІВДЕННЕ,ЩЕБЕНЬ ГРАНИТНЫЙ НЕ ПОИМЕНОВАННЫЙ В АЛФАВИТЕ,315,283,50.8063616,28.0648776,49.6945751,37.1755033
станція УШИЦЯ,станція ЯМНИЦЯ,ЩЕБЕНЬ ГРАНИТНЫЙ НЕ ПОИМЕНОВАННЫЙ В АЛФАВИТЕ,382,131,50.8063616,28.0648776,48.9855201,24.7113369
станція ХАЙЧНОРИН,станція ГОРОДОК-ЛЬВІВСЬКИЙ,ОТСЕВ ГРАНИТНЫЙ ИЛИ КАМЕННЫЙ,235,104,51.2893931,28.5856781,49.789677,23.629894
станція ХАЙЧНОРИН,станція ГОРОДОК-ЛЬВІВСЬКИЙ,ЩЕБЕНЬ ГРАНИТНЫЙ НЕ ПОИМЕНОВАННЫЙ В АЛФАВИТЕ,702,95,51.2893931,28.5856781,49.789677,23.629894
станція ХАЙЧНОРИН,станція СУМИ,ЩЕБЕНЬ ГРАНИТНЫЙ НЕ ПОИМЕНОВАННЫЙ В АЛФАВИТЕ,573,81,51.2893931,28.5856781,50.926937,34.8087574
станція ХАЩУВАТЕ,станція ДЗИНІЛОР,ОТСЕВ ГРАНИТНЫЙ ИЛИ КАМЕННЫЙ,647,84,48.317237,29.94949,45.65097,29.11494
станція ХАЩУВАТЕ,станція ДЗИНІЛОР,ЩЕБЕНЬ ГРАНИТНЫЙ НЕ ПОИМЕНОВАННЫЙ В АЛФАВИТЕ,302,96,48.317237,29.94949,45.65097,29.11494
станція ХАЩУВАТЕ,станція ДЗИНІЛОР,ЩЕБЕНЬ ГРАНИТНЫЙ ФРАКЦИИ 20Х40,232,84,48.317237,29.94949,45.65097,29.11494
станція ХАЩУВАТЕ,станція ІЗМАЇЛ,ОТСЕВ ГРАНИТНЫЙ ИЛИ КАМЕННЫЙ,256,133,48.317237,29.94949,45.3600096,28.812532
станція ХАЩУВАТЕ,станція ІЗМАЇЛ,ЩЕБЕНЬ ГРАНИТНЫЙ ФРАКЦИИ 5Х20,215,145,48.317237,29.94949,45.3600096,28.812532
станція ХАЩУВАТЕ,станція ОДЕСА-ЛІСКИ,ОТСЕВ ГРАНИТНЫЙ ИЛИ КАМЕННЫЙ,362,108,48.317237,29.94949,46.522819,30.60268
станція ХАЩУВАТЕ,станція ОДЕСА-ЛІСКИ,ЩЕБЕНЬ ГРАНИТНЫЙ ФРАКЦИИ 20Х40,302,86,48.317237,29.94949,46.522819,30.60268
станція ХАЩУВАТЕ,станція ОДЕСА-ЛІСКИ,ЩЕБЕНЬ ГРАНИТНЫЙ ФРАКЦИИ 5Х20,446,108,48.317237,29.94949,46.522819,30.60268
станція ХЕРСОН,станція БАТУРИНСЬКА,ОТСЕВ ГРАНИТНЫЙ ИЛИ КАМЕННЫЙ,961,92,46.6562558,32.6048735,47.872783,33.48381
станція ХЕРСОН,станція ВІЛЬНОГІРСЬК,АНГИДРИТ (ШПАТ ПОЛЕВОЙ И ШПАТ ЛЕГКИЙ) В КУСКАХ И МОЛОТЫЙ,799,86.5,46.6562558,32.6048735,48.4649743,34.0136594
станція ХЕРСОН,станція ДНІПРОРУДНЕ,ОТСЕВ ГРАНИТНЫЙ ИЛИ КАМЕННЫЙ,508,111,46.6562558,32.6048735,47.174629,34.962825
станція ХЕРСОН,станція ЗАПОРІЖЖЯ-ЛІВЕ,"ИЗВЕСТЬ,НЕ ПОИМЕНОВАННАЯ В АЛФАВИТЕ",502,121,46.6562558,32.6048735,47.86944,35.1917334
станція ХЕРСОН-ПОРТ,станція ОДЕСА-СОРТУВАЛЬНА,ПЕСОК СТРОИТЕЛЬНЫЙ,865,55,46.630041,32.568526,46.55422,30.754395
станція ХЛИСТУНІВКА,станція ВАПНЯРКА,ЩЕБЕНЬ ДЛЯ БАЛЛАСТИРОВКИ ЖЕЛЕЗНОДОРОЖНОГО ПУТИ,225,114,49.20026,31.463592,48.5337039,28.7452533
станція ХЛИСТУНІВКА,станція ДЕВЛАДОВЕ,ОТСЕВ ГРАНИТНЫЙ ИЛИ КАМЕННЫЙ,289,62,49.20026,31.463592,48.10411,33.754161
станція ХЛИСТУНІВКА,станція ДЕРГАЧІ,ОТСЕВ ГРАНИТНЫЙ ИЛИ КАМЕННЫЙ,247,126,49.20026,31.463592,50.099319,36.135486
станція ХЛИСТУНІВКА,станція ДЕРГАЧІ,ЩЕБЕНЬ ГРАНИТНЫЙ НЕ ПОИМЕНОВАННЫЙ В АЛФАВИТЕ,334,126,49.20026,31.463592,50.099319,36.135486
станція ХЛИСТУНІВКА,станція КОЧУБЕЇВКА,ЩЕБЕНЬ ГРАНИТНЫЙ НЕ ПОИМЕНОВАННЫЙ В АЛФАВИТЕ,416,42,49.20026,31.463592,49.741944,34.969722
станція ХЛИСТУНІВКА,станція ОДЕСА-ЗАСТАВА I,ОТСЕВ ГРАНИТНЫЙ ИЛИ КАМЕННЫЙ,617,107,49.20026,31.463592,46.4776308,30.6545697
станція ХЛИСТУНІВКА,станція ОДЕСА-ЛІСКИ,ОТСЕВ ГРАНИТНЫЙ ИЛИ КАМЕННЫЙ,447,121.5,49.20026,31.463592,46.522819,30.60268
станція ХЛИСТУНІВКА,станція ОДЕСА-ЛІСКИ,ЩЕБЕНЬ ГРАНИТНЫЙ НЕ ПОИМЕНОВАННЫЙ В АЛФАВИТЕ,283,135,49.20026,31.463592,46.522819,30.60268
станція ХЛИСТУНІВКА,станція ПЕРЕЯСЛАВСЬКА,ЩЕБЕНЬ ГРАНИТНЫЙ НЕ ПОИМЕНОВАННЫЙ В АЛФАВИТЕ,278,73,49.20026,31.463592,50.2639559,31.6561389
станція ХЛИСТУНІВКА,станція СЛОВ’ЯНКА,ОТСЕВ ГРАНИТНЫЙ ИЛИ КАМЕННЫЙ,210,128,49.20026,31.463592,48.387022,36.707146
станція ХЛИСТУНІВКА,станція СУМИ-ТОВАРНА,ЩЕБЕНЬ ГРАНИТНЫЙ НЕ ПОИМЕНОВАННЫЙ В АЛФАВИТЕ,291,149,49.20026,31.463592,50.898883,34.851877
станція ХЛИСТУНІВКА,станція СУПРУНІВКА,ЩЕБЕНЬ ГРАНИТНЫЙ НЕ ПОИМЕНОВАННЫЙ В АЛФАВИТЕ,393,114,49.20026,31.463592,49.587831,34.476587
станція ХЛИСТУНІВКА,станція ХАРКІВ-БАЛАШОВСЬКИЙ,ЩЕБЕНЬ ГРАНИТНЫЙ НЕ ПОИМЕНОВАННЫЙ В АЛФАВИТЕ,474,123,49.20026,31.463592,49.9740613,36.2767679
станція ХЛІБОДАРІВКА,станція ПОПАСНА,ЩЕБЕНЬ ДЛЯ БАЛЛАСТИРОВКИ ЖЕЛЕЗНОДОРОЖНОГО ПУТИ,1329,106,47.473472,37.406987,48.629978,38.380115
станція ХРИПЛИН,станція ЧЕРНІВЦІ-ПІВДЕННА,ЩЕБЕНЬ ГРАНИТНЫЙ НЕ ПОИМЕНОВАННЫЙ В АЛФАВИТЕ,223,66,48.8851079,24.7468767,48.265337,25.957599
станція ХУСТ,станція ЯГОДИН (ЕКСП. ПКП),"ЩЕБЕНЬ,НЕ ПОИМЕНОВАННЫЙ В АЛФАВИТЕ",237,124,48.16053,23.29862,51.198201,23.895884
станція ХУСТ,станція ЯМНИЦЯ,"ЩЕБЕНЬ,НЕ ПОИМЕНОВАННЫЙ В АЛФАВИТЕ",5612,123,48.16053,23.29862,48.9855201,24.7113369
станція ЧЕЛЮСКІН,станція ЗАПОРІЖЖЯ-ЛІВЕ,ПЕСОК СТРОИТЕЛЬНЫЙ,439,35,47.492591,36.134906,47.86944,35.1917334
станція ЧЕЛЮСКІН,станція КРИВИЙ РІГ-ГОЛОВНИЙ,ПЕСОК СТРОИТЕЛЬНЫЙ,639,43,47.492591,36.134906,47.9123,33.451545
станція ЧЕЛЮСКІН,станція КРИВИЙ РІГ-СОРТУВАЛЬНИЙ,ПЕСОК СТРОИТЕЛЬНЫЙ,1597,74,47.492591,36.134906,47.964073,33.526917
станція ЧЕРКАСИ,станція ЛАДИЖИН,ПЕСОК СТРОИТЕЛЬНЫЙ,1066,96,49.425949,32.0498809,48.609462,29.1503679
станція ЧОП (ЕКСП. ЖСР),станція МИКОЛАЇВ-ДНІСТРОВСЬКИЙ,МРАМОР МОЛОТЫЙ,270,32,48.432477,22.2055633,49.5119481,23.9535355
станція ШАТРИЩЕ,станція БОРИСПІЛЬ,ЩЕБЕНЬ ГРАНИТНЫЙ НЕ ПОИМЕНОВАННЫЙ В АЛФАВИТЕ,226,97,50.934387,28.7155991,50.3766975,30.9448324
станція ШАТРИЩЕ,станція БРОВАРИ,ЩЕБЕНЬ ГРАНИТНЫЙ НЕ ПОИМЕНОВАННЫЙ В АЛФАВИТЕ,397,93,50.934387,28.7155991,50.5147282,30.8132567
станція ШАТРИЩЕ,станція ГОРОДОК-ЛЬВІВСЬКИЙ,ЩЕБЕНЬ ГРАНИТНЫЙ НЕ ПОИМЕНОВАННЫЙ В АЛФАВИТЕ,265,116,50.934387,28.7155991,49.789677,23.629894
станція ШАТРИЩЕ,станція ДАВИДІВ,ПЕСОК СТРОИТЕЛЬНЫЙ,425,113,50.934387,28.7155991,49.7431731,24.1471702
станція ШАТРИЩЕ,станція ДАВИДІВ,ЩЕБЕНЬ ГРАНИТНЫЙ НЕ ПОИМЕНОВАННЫЙ В АЛФАВИТЕ,388,113,50.934387,28.7155991,49.7431731,24.1471702
станція ШАТРИЩЕ,станція КАЛУШ,ПЕСОК СТРОИТЕЛЬНЫЙ,380,95,50.934387,28.7155991,49.0128135,24.3491688
станція ШАТРИЩЕ,станція КАЛУШ,ЩЕБЕНЬ ГРАНИТНЫЙ НЕ ПОИМЕНОВАННЫЙ В АЛФАВИТЕ,271,95,50.934387,28.7155991,49.0128135,24.3491688
станція ШАТРИЩЕ,станція КИЇВ-ДЕМІЇВСЬКИЙ,ЩЕБЕНЬ ГРАНИТНЫЙ НЕ ПОИМЕНОВАННЫЙ В АЛФАВИТЕ,1860,89,50.934387,28.7155991,50.4047454,30.5370509
станція ШАТРИЩЕ,станція ПЕРСЕНКІВКА,ЩЕБЕНЬ ГРАНИТНЫЙ НЕ ПОИМЕНОВАННЫЙ В АЛФАВИТЕ,250,110,50.934387,28.7155991,49.8098013,24.030408
станція ШАТРИЩЕ,станція ПОЧАЙНА,ЩЕБЕНЬ ГРАНИТНЫЙ НЕ ПОИМЕНОВАННЫЙ В АЛФАВИТЕ,552,78,50.934387,28.7155991,50.485104,30.500415
станція ШАТРИЩЕ,станція СКНИЛІВ,ЩЕБЕНЬ ГРАНИТНЫЙ НЕ ПОИМЕНОВАННЫЙ В АЛФАВИТЕ,253,109,50.934387,28.7155991,49.818992,23.931606
станція ШАТРИЩЕ,станція СУМИ-ТОВАРНА,ЩЕБЕНЬ ГРАНИТНЫЙ НЕ ПОИМЕНОВАННЫЙ В АЛФАВИТЕ,593,127,50.934387,28.7155991,50.898883,34.851877
станція ШАТРИЩЕ,станція ХАРКІВ-СОРТУВАЛЬНИЙ,ЩЕБЕНЬ ГРАНИТНЫЙ НЕ ПОИМЕНОВАННЫЙ В АЛФАВИТЕ,306,110,50.934387,28.7155991,50.030735,36.177962
станція ШАТРИЩЕ,станція ХРИПЛИН,ПЕСОК СТРОИТЕЛЬНЫЙ,219,144,50.934387,28.7155991,48.8851079,24.7468767
станція ШАТРИЩЕ,станція ХРИПЛИН,ЩЕБЕНЬ ГРАНИТНЫЙ НЕ ПОИМЕНОВАННЫЙ В АЛФАВИТЕ,323,144,50.934387,28.7155991,48.8851079,24.7468767
станція ШАТРИЩЕ,станція ЧЕРНІГІВ,ЩЕБЕНЬ ГРАНИТНЫЙ НЕ ПОИМЕНОВАННЫЙ В АЛФАВИТЕ,644,121,50.934387,28.7155991,51.4855,31.2666
станція ШАТРИЩЕ,станція ЯМНИЦЯ,ЩЕБЕНЬ ГРАНИТНЫЙ НЕ ПОИМЕНОВАННЫЙ В АЛФАВИТЕ,1024,142,50.934387,28.7155991,48.9855201,24.7113369
станція ШЕПЕТІВКА,станція ЗЛОЧІВ,ЩЕБЕНЬ ГРАНИТНЫЙ НЕ ПОИМЕНОВАННЫЙ В АЛФАВИТЕ,493,81,50.1965375,27.0658758,50.277582,35.9894641
станція ЩЕБЕНЕВИЙ,станція ЗАПОРІЖЖЯ-ЛІВЕ,ЩЕБЕНЬ ДЛЯ БАЛЛАСТИРОВКИ ЖЕЛЕЗНОДОРОЖНОГО ПУТИ,413,99,47.311279,36.589664,47.86944,35.1917334
станція ЩЕБЕНЕВИЙ,станція ЛИХАЧОВЕ,ЩЕБЕНЬ ГРАНИТНЫЙ НЕ ПОИМЕНОВАННЫЙ В АЛФАВИТЕ,407,80,47.311279,36.589664,49.3823544,36.2086193
станція ЩЕБЕНЕВИЙ,станція СВЯТОГІРСЬК,ЩЕБЕНЬ ГРАНИТНЫЙ НЕ ПОИМЕНОВАННЫЙ В АЛФАВИТЕ,216,64,47.311279,36.589664,49.0328333,37.5530498
станція ЯНЦЕВЕ,станція ІНДУСТРІАЛЬНА,ОТСЕВ ГРАНИТНЫЙ ИЛИ КАМЕННЫЙ,246,95,47.9095,35.357765,49.962852,36.391769
станція ЯНЦЕВЕ,станція ІНДУСТРІАЛЬНА,ЩЕБЕНЬ ГРАНИТНЫЙ ФРАКЦИИ 5Х20,518,95,47.9095,35.357765,49.962852,36.391769
станція ЯНЦЕВЕ,станція ОСНОВА,ОТСЕВ ГРАНИТНЫЙ ИЛИ КАМЕННЫЙ,332,121,47.9095,35.357765,49.9395953,36.2330042
станція ЯНЦЕВЕ,станція ОСНОВА,ЩЕБЕНЬ ГРАНИТНЫЙ НЕ ПОИМЕНОВАННЫЙ В АЛФАВИТЕ,332,91,47.9095,35.357765,49.9395953,36.2330042
станція ЯНЦЕВЕ,станція ХАРКІВ-БАЛАШОВСЬКИЙ,ЩЕБЕНЬ ГРАНИТНЫЙ НЕ ПОИМЕНОВАННЫЙ В АЛФАВИТЕ,376,92,47.9095,35.357765,49.9740613,36.2767679
станція ЯНЦЕВЕ,станція ХАРКІВ-ЛІСКИ,ОТСЕВ ГРАНИТНЫЙ ИЛИ КАМЕННЫЙ,304,92,47.9095,35.357765,49.959174,36.238248
станція ЯНЦЕВЕ,станція ХАРКІВ-ЛІСКИ,ЩЕБЕНЬ ГРАНИТНЫЙ НЕ ПОИМЕНОВАННЫЙ В АЛФАВИТЕ,372,92,47.9095,35.357765,49.959174,36.238248
