sender,receiver,cargo_name,no_wagons,mdn_speed,lat_sender,lon_sender,lat_receiver,lon_receiver
станція АНТРАЦИТ,станція ЕЛЕКТРИЧНА,АНТРАЦИТ,284,43,48.109528,39.080852,48.867694,37.755615
станція АРОМАТНА,станція БУРШТИН,УГОЛЬ КАМЕННЫЙ МАРКИ Г-ГАЗОВЫЙ,6847,414,48.628473,35.888025,49.217461,24.6477491
станція АРОМАТНА,станція ДОБРОТВІР,УГОЛЬ КАМЕННЫЙ МАРКИ Г-ГАЗОВЫЙ,4496,400,48.628473,35.888025,50.20584,24.386969
станція АРОМАТНА,станція КУРАХІВКА,УГОЛЬ КАМЕННЫЙ МАРКИ Г-ГАЗОВЫЙ,5952,82,48.628473,35.888025,48.035687,37.374858
станція АРОМАТНА,станція ЛАДИЖИН,УГОЛЬ КАМЕННЫЙ МАРКИ Г-ГАЗОВЫЙ,6610,333,48.628473,35.888025,48.609462,29.1503679
станція АРОМАТНА,станція МОСПИНЕ,УГОЛЬ КАМЕННЫЙ МАРКИ Г-ГАЗОВЫЙ,1002,103,48.628473,35.888025,47.877058,38.061174
станція АРОМАТНА,станція РОСІЯ,УГОЛЬ КАМЕННЫЙ МАРКИ Г-ГАЗОВЫЙ,739,72,48.628473,35.888025,48.159167,37.360833
станція АРОМАТНА,станція СОРОЧЕ,УГОЛЬ КАМЕННЫЙ МАРКИ Г-ГАЗОВЫЙ,1083,85,48.628473,35.888025,48.040948,38.2787479
станція БЕРЕГОВА  (ЕКСП.),станція АВДІЇВКА,"УГОЛЬ КАМЕННЫЙ,НЕ ПОИМЕНОВАННЫЙ В АЛФАВИТЕ",4521,292,46.632276,31.044189,48.148889,37.733333
станція БЕРЕГОВА  (ЕКСП.),станція ДАРНИЦЯ,АНТРАЦИТ,1604,375,46.632276,31.044189,50.430674,30.643448
станція БЕРЕГОВА  (ЕКСП.),станція ДАРНИЦЯ,УГОЛЬ КАМЕННЫЙ МАРКИ Т-ТОЩИЙ,1561,375,46.632276,31.044189,50.430674,30.643448
станція БЕРЕГОВА  (ЕКСП.),станція ЕНЕРГОДАР,"УГОЛЬ КАМЕННЫЙ,НЕ ПОИМЕНОВАННЫЙ В АЛФАВИТЕ",575,289,46.632276,31.044189,47.494636,34.64672
станція БЕРЕГОВА  (ЕКСП.),станція ІГРЕНЬ,АНТРАЦИТ,305,319,46.632276,31.044189,48.472213,35.18905
станція БЕРЕГОВА  (ЕКСП.),станція ЛИМАН,"УГОЛЬ КАМЕННЫЙ,НЕ ПОИМЕНОВАННЫЙ В АЛФАВИТЕ",911,341,46.632276,31.044189,48.9644789,37.8275288
станція БЕРЕГОВА  (ЕКСП.),станція ТРИПІЛЛЯ-ДНІПРОВСЬКЕ,АНТРАЦИТ,728,328,46.632276,31.044189,50.1397982,30.7534098
станція БЕРЕГОВА  (ЕКСП.),станція ТРИПІЛЛЯ-ДНІПРОВСЬКЕ,"УГОЛЬ КАМЕННЫЙ,НЕ ПОИМЕНОВАННЫЙ В АЛФАВИТЕ",5886,328,46.632276,31.044189,50.1397982,30.7534098
станція БЕРЕГОВА  (ЕКСП.),станція ЧЕРНІГІВ,АНТРАЦИТ,1567,316,46.632276,31.044189,51.4855,31.2666
станція БЕРЕГОВА  (ЕКСП.),станція ЧЕРНІГІВ,УГОЛЬ КАМЕННЫЙ МАРКИ Т-ТОЩИЙ,1655,316,46.632276,31.044189,51.4855,31.2666
станція БОГУСЛАВСЬКИЙ,станція БУРШТИН,УГОЛЬ КАМЕННЫЙ МАРКИ Г-ГАЗОВЫЙ,1704,312,48.444444,36.026667,49.217461,24.6477491
станція БОГУСЛАВСЬКИЙ,станція ЛАДИЖИН,УГОЛЬ КАМЕННЫЙ МАРКИ Г-ГАЗОВЫЙ,1037,338,48.444444,36.026667,48.609462,29.1503679
станція БОГУСЛАВСЬКИЙ,станція НОВОГРОДІВКА,УГОЛЬ КАМЕННЫЙ МАРКИ Г-ГАЗОВЫЙ,755,56,48.444444,36.026667,48.189131,37.334021
станція БОГУСЛАВСЬКИЙ,станція РОСІЯ,УГОЛЬ КАМЕННЫЙ МАРКИ Г-ГАЗОВЫЙ,208,59,48.444444,36.026667,48.159167,37.360833
станція БУЛАВИН,станція КРАМАТОРСЬК,АНТРАЦИТ,232,9,48.3025,38.359722,48.7259313,37.54314
станція БУНКЕРНА,станція ЕЛЕКТРИЧНА,УГОЛЬ КАМЕННЫЙ МАРКИ Т-ТОЩИЙ,436,34,48.144061,38.3498919,48.867694,37.755615
станція БУНКЕРНА,станція ЯМНИЦЯ,УГОЛЬ КАМЕННЫЙ МАРКИ Т-ТОЩИЙ,280,175,48.144061,38.3498919,48.9855201,24.7113369
станція ВОЛНОВАХА,станція ПОКРОВСЬК,УГОЛЬ КАМЕННЫЙ МАРКИ Г-ГАЗОВЫЙ,238,101,47.6016927,37.4901415,48.285102,37.1816185
станція ВОЛНОВАХА,станція ПОКРОВСЬК,"УГОЛЬ КАМЕННЫЙ,НЕ ПОИМЕНОВАННЫЙ В АЛФАВИТЕ",346,101,47.6016927,37.4901415,48.285102,37.1816185
станція ВОСКРЕСЕНСЬКА,станція ЛИМАН,АНТРАЦИТ,857,77,48.016832,38.682542,48.9644789,37.8275288
станція ВОСКРЕСЕНСЬКА,станція НОВИЙ СВІТ,АНТРАЦИТ,228,48,48.016832,38.682542,47.803492,38.0067229
станція ВОСКРЕСЕНСЬКА,станція ТРИПІЛЛЯ-ДНІПРОВСЬКЕ,АНТРАЦИТ,314,86,48.016832,38.682542,50.1397982,30.7534098
станція ГРОДІВКА,станція ЖАШКІВ,"УГОЛЬ КАМЕННЫЙ,НЕ ПОИМЕНОВАННЫЙ В АЛФАВИТЕ",232,97,48.225901,37.3171689,49.243053,30.097353
станція ГРОДІВКА,станція ЛАДИЖИН,КОНЦЕНТРАТ УГОЛЬНЫЙ,483,131,48.225901,37.3171689,48.609462,29.1503679
станція ГРОДІВКА,станція ПОКРОВСЬК,УГОЛЬ КАМЕННЫЙ МАРКИ Г-ГАЗОВЫЙ,253,4,48.225901,37.3171689,48.285102,37.1816185
станція ГРОДІВКА,станція СВІТЛОДАРСЬКЕ,КОНЦЕНТРАТ УГОЛЬНЫЙ,224,71,48.225901,37.3171689,48.460125,38.170116
станція ГРОДІВКА,станція СВІТЛОДАРСЬКЕ,"УГОЛЬ КАМЕННЫЙ,НЕ ПОИМЕНОВАННЫЙ В АЛФАВИТЕ",576,40,48.225901,37.3171689,48.460125,38.170116
станція ГРОДІВКА,станція ЦУКУРИХА,УГОЛЬ КАМЕННЫЙ МАРКИ Г-ГАЗОВЫЙ,887,11,48.225901,37.3171689,48.084594,37.307092
станція ГУСАРІВКА,станція ЧУГУЇВ,АНТРАЦИТ,208,89.5,48.881436,37.150541,49.8197326,36.6729053
станція ДАР’ЇВКА,станція ГОРОДНІЙ,АНТРАЦИТ,478,52,48.990905,31.3552719,48.771438,39.2796221
станція ДАР’ЇВКА,станція ЕЛЕКТРИЧНА,АНТРАЦИТ,499,23,48.990905,31.3552719,48.867694,37.755615
станція ДАР’ЇВКА,станція ІМ. КОЖУШКО О.М.,АНТРАЦИТ,230,19,48.990905,31.3552719,48.828056,37.599722
станція ДАР’ЇВКА,станція КРАМАТОРСЬК,АНТРАЦИТ,349,21,48.990905,31.3552719,48.7259313,37.54314
станція ДАР’ЇВКА,станція ПРАВДА,АНТРАЦИТ,326,23,48.990905,31.3552719,48.517983,34.658394
станція ДАР’ЇВКА,станція ЧЕРНІГІВ,АНТРАЦИТ,723,64,48.990905,31.3552719,51.4855,31.2666
станція ДОБРОПІЛЛЯ,станція БУРШТИН,УГОЛЬ КАМЕННЫЙ МАРКИ Г-ГАЗОВЫЙ,13042,344,48.4481566,37.0757679,49.217461,24.6477491
станція ДОБРОПІЛЛЯ,станція ДОБРОТВІР,УГОЛЬ КАМЕННЫЙ МАРКИ Г-ГАЗОВЫЙ,1016,334,48.4481566,37.0757679,50.20584,24.386969
станція ДОБРОПІЛЛЯ,станція КУРАХІВКА,УГОЛЬ КАМЕННЫЙ МАРКИ Г-ГАЗОВЫЙ,1468,23,48.4481566,37.0757679,48.035687,37.374858
станція ДОБРОПІЛЛЯ,станція ЛАДИЖИН,УГОЛЬ КАМЕННЫЙ МАРКИ Г-ГАЗОВЫЙ,2065,269,48.4481566,37.0757679,48.609462,29.1503679
станція ДОБРОПІЛЛЯ,станція НОВОГРОДІВКА,УГОЛЬ КАМЕННЫЙ МАРКИ Г-ГАЗОВЫЙ,956,15,48.4481566,37.0757679,48.189131,37.334021
станція ДОБРОПІЛЛЯ,станція ПОКРОВСЬК,УГОЛЬ КАМЕННЫЙ МАРКИ Г-ГАЗОВЫЙ,3033,15,48.4481566,37.0757679,48.285102,37.1816185
станція ДОБРОПІЛЛЯ,станція РОДИНСЬКА,УГОЛЬ КАМЕННЫЙ МАРКИ Г-ГАЗОВЫЙ,345,10,48.4481566,37.0757679,48.362572,37.198645
станція ДОБРОПІЛЛЯ,станція РОСІЯ,УГОЛЬ КАМЕННЫЙ МАРКИ Г-ГАЗОВЫЙ,1060,17,48.4481566,37.0757679,48.159167,37.360833
станція ДОБРОПІЛЛЯ,станція РОЯ,УГОЛЬ КАМЕННЫЙ МАРКИ Г-ГАЗОВЫЙ,7218,39,48.4481566,37.0757679,47.989332,37.306483
станція ДОБРОПІЛЛЯ,станція САРТАНА,КОНЦЕНТРАТ УГОЛЬНЫЙ,928,79,48.4481566,37.0757679,47.1536589,37.5740898
станція ДОБРОПІЛЛЯ,станція СВІТЛОДАРСЬКЕ,УГОЛЬ КАМЕННЫЙ МАРКИ Г-ГАЗОВЫЙ,1172,129,48.4481566,37.0757679,48.460125,38.170116
станція ДОБРОПІЛЛЯ,станція ЯСИНУВАТА,УГОЛЬ КАМЕННЫЙ МАРКИ Г-ГАЗОВЫЙ,292,21.5,48.4481566,37.0757679,48.120859,37.846206
станція ДОВЖАНСЬКА,станція ГОРОДНІЙ,АНТРАЦИТ,408,74,48.049144,39.6517249,48.771438,39.2796221
станція ДОВЖАНСЬКА,станція ІГРЕНЬ,АНТРАЦИТ,346,112,48.049144,39.6517249,48.472213,35.18905
станція ДОВЖАНСЬКА,станція КРАМАТОРСЬК,АНТРАЦИТ,202,12,48.049144,39.6517249,48.7259313,37.54314
станція ДОВЖАНСЬКА,станція ЛИМАН,АНТРАЦИТ,311,39.5,48.049144,39.6517249,48.9644789,37.8275288
станція ЗАПОРІЖЖЯ I,станція ЕНЕРГОДАР,УГОЛЬ КАМЕННЫЙ МАРКИ Г-ГАЗОВЫЙ,968,38,47.7952285,35.1875062,47.494636,34.64672
станція ЗБІРНА,станція ЧЕРНІГІВ,АНТРАЦИТ,1144,145,48.486559,39.09406,51.4855,31.2666
станція ІВАНИЧІ,станція БУРШТИН,"УГОЛЬ КАМЕННЫЙ,НЕ ПОИМЕНОВАННЫЙ В АЛФАВИТЕ",206,57,50.6379959,24.3676007,49.217461,24.6477491
станція ІВАНИЧІ,станція ГНІДАВА,"УГОЛЬ КАМЕННЫЙ,НЕ ПОИМЕНОВАННЫЙ В АЛФАВИТЕ",229,86,50.6379959,24.3676007,50.7135044,25.3198979
станція ІВАНИЧІ,станція КАЛУШ,"УГОЛЬ КАМЕННЫЙ,НЕ ПОИМЕНОВАННЫЙ В АЛФАВИТЕ",218,67,50.6379959,24.3676007,49.0128135,24.3491688
станція ІЗВАРИНЕ,станція ЧЕРНІГІВ,УГОЛЬ КАМЕННЫЙ МАРКИ Т-ТОЩИЙ,356,86,48.280616,39.895511,51.4855,31.2666
станція ІЗОВ (ЕКСП. ПКП),станція ДІЇВКА,КОНЦЕНТРАТ УГОЛЬНЫЙ,1654,265,50.828474,24.059367,48.462834,34.9122159
станція ІЗОВ (ЕКСП. ПКП),станція ЗАПОРІЖЖЯ-КАМ’ЯНСЬКЕ,КОНЦЕНТРАТ УГОЛЬНЫЙ,1063,260,50.828474,24.059367,48.4808925,34.6462622
станція ІЗОВ (ЕКСП. ПКП),станція ЗАПОРІЖЖЯ-КАМ’ЯНСЬКЕ,УГОЛЬ КАМЕННЫЙ МАРКИ К-КОКСОВЫЙ,411,260,50.828474,24.059367,48.4808925,34.6462622
станція ІЗОВ (ЕКСП. ПКП),станція КАЛУШ,УГОЛЬ КАМЕННЫЙ МАРКИ Г-ГАЗОВЫЙ,492,65,50.828474,24.059367,49.0128135,24.3491688
станція ІЗЮМ,станція АСЛАНОВЕ,АНТРАЦИТ,441,130,49.216,37.3011,47.245581,37.581294
станція ІЗЮМ,станція ЗЕЛЕНЕ ПОЛЕ,АНТРАЦИТ,405,84,49.216,37.3011,48.057999,33.6329791
станція ІЗЮМ,станція ЧУГУЇВ,АНТРАЦИТ,897,84,49.216,37.3011,49.8197326,36.6729053
станція КАЛЬМІУС,станція АВДІЇВКА,УГОЛЬ КАМЕННЫЙ МАРКИ К-КОКСОВЫЙ,3354,5,48.063889,37.881389,48.148889,37.733333
станція КАЛЬМІУС,станція МАКІЇВКА,УГОЛЬ КАМЕННЫЙ МАРКИ Ж-ЖИРНЫЙ,354,20,48.063889,37.881389,48.007681,37.9815461
станція КАЛЬМІУС,станція МАКІЇВКА,УГОЛЬ КАМЕННЫЙ МАРКИ К-КОКСОВЫЙ,2159,20,48.063889,37.881389,48.007681,37.9815461
станція КАРАХАШ,станція ЕЛЕКТРИЧНА,АНТРАЦИТ,649,16,48.132861,39.087217,48.867694,37.755615
станція КАРАХАШ,станція КРАМАТОРСЬК,АНТРАЦИТ,222,11.5,48.132861,39.087217,48.7259313,37.54314
станція КАРАХАШ,станція ЛИМАН,АНТРАЦИТ,518,13.5,48.132861,39.087217,48.9644789,37.8275288
станція КАРАХАШ,станція ТРИПІЛЛЯ-ДНІПРОВСЬКЕ,АНТРАЦИТ,1716,100,48.132861,39.087217,50.1397982,30.7534098
станція КИПУЧА,станція ЕЛЕКТРИЧНА,АНТРАЦИТ,2166,36,48.439332,38.699008,48.867694,37.755615
станція КИПУЧА,станція КРАМАТОРСЬК,АНТРАЦИТ,321,29,48.439332,38.699008,48.7259313,37.54314
станція КИПУЧА,станція ПРАВДА,АНТРАЦИТ,471,57,48.439332,38.699008,48.517983,34.658394
станція КИПУЧА,станція ЧЕРНІГІВ,АНТРАЦИТ,706,118,48.439332,38.699008,51.4855,31.2666
станція КРАСНИЙ ЛУЧ,станція ЕЛЕКТРИЧНА,АНТРАЦИТ,489,12,48.140955,38.9261811,48.867694,37.755615
станція КРАСНИЙ ЛУЧ,станція ЛИМАН,АНТРАЦИТ,230,26,48.140955,38.9261811,48.9644789,37.8275288
станція КРЕМІННЕ,станція ЕЛЕКТРИЧНА,"УГОЛЬ КАМЕННЫЙ,НЕ ПОИМЕНОВАННЫЙ В АЛФАВИТЕ",469,42,49.05346,38.23712,48.867694,37.755615
станція КРИВИЙ ТОРЕЦЬ,станція АВДІЇВКА,УГОЛЬ КАМЕННЫЙ МАРКИ Ж-ЖИРНЫЙ,6205,131,48.409766,37.78366,48.148889,37.733333
станція КРИВИЙ ТОРЕЦЬ,станція БУРШТИН,"УГОЛЬ КАМЕННЫЙ,НЕ ПОИМЕНОВАННЫЙ В АЛФАВИТЕ",1882,290,48.409766,37.78366,49.217461,24.6477491
станція КРИВИЙ ТОРЕЦЬ,станція ВАПНЯРКА,"УГОЛЬ КАМЕННЫЙ,НЕ ПОИМЕНОВАННЫЙ В АЛФАВИТЕ",217,138,48.409766,37.78366,48.5337039,28.7452533
станція КРИВИЙ ТОРЕЦЬ,станція ГОРЛІВКА,УГОЛЬ КАМЕННЫЙ МАРКИ Г-ГАЗОВЫЙ,276,12,48.409766,37.78366,48.311208,38.044173
станція КРИВИЙ ТОРЕЦЬ,станція ЗАСІЛЛЯ,"УГОЛЬ КАМЕННЫЙ,НЕ ПОИМЕНОВАННЫЙ В АЛФАВИТЕ",484,140,48.409766,37.78366,47.025215,32.423609
станція КРИВИЙ ТОРЕЦЬ,станція ІГРЕНЬ,"УГОЛЬ КАМЕННЫЙ,НЕ ПОИМЕНОВАННЫЙ В АЛФАВИТЕ",340,75,48.409766,37.78366,48.472213,35.18905
станція КРИВИЙ ТОРЕЦЬ,станція КНЯЖЕВЕ,"УГОЛЬ КАМЕННЫЙ,НЕ ПОИМЕНОВАННЫЙ В АЛФАВИТЕ",269,86,48.409766,37.78366,48.471882,28.81294
станція КРИВИЙ ТОРЕЦЬ,станція НІКЕЛЬ-ПОБУЗЬКИЙ,"УГОЛЬ КАМЕННЫЙ,НЕ ПОИМЕНОВАННЫЙ В АЛФАВИТЕ",452,124,48.409766,37.78366,48.173252,30.615134
станція КРИВИЙ ТОРЕЦЬ,станція СВІТЛОДАРСЬКЕ,"УГОЛЬ КАМЕННЫЙ,НЕ ПОИМЕНОВАННЫЙ В АЛФАВИТЕ",768,21,48.409766,37.78366,48.460125,38.170116
станція КУРАХІВКА,станція БУРШТИН,УГОЛЬ КАМЕННЫЙ МАРКИ Г-ГАЗОВЫЙ,3165,278,48.035687,37.374858,49.217461,24.6477491
станція КУРАХІВКА,станція ДОБРОТВІР,УГОЛЬ КАМЕННЫЙ МАРКИ Г-ГАЗОВЫЙ,324,337,48.035687,37.374858,50.20584,24.386969
станція КУРАХІВКА,станція ЛАДИЖИН,УГОЛЬ КАМЕННЫЙ МАРКИ Г-ГАЗОВЫЙ,687,272,48.035687,37.374858,48.609462,29.1503679
станція КУРАХІВКА,станція ПЛАСТИ,"УГОЛЬ КАМЕННЫЙ,НЕ ПОИМЕНОВАННЫЙ В АЛФАВИТЕ",382,34,48.035687,37.374858,48.099349,37.355355
станція КУРАХІВКА,станція РОСІЯ,"УГОЛЬ КАМЕННЫЙ,НЕ ПОИМЕНОВАННЫЙ В АЛФАВИТЕ",1825,31,48.035687,37.374858,48.159167,37.360833
станція КУРАХІВКА,станція СВІТЛОДАРСЬКЕ,УГОЛЬ КАМЕННЫЙ МАРКИ Г-ГАЗОВЫЙ,576,75,48.035687,37.374858,48.460125,38.170116
станція ЛЕГЕНДАРНА,станція ПОКРОВСЬК,УГОЛЬ КАМЕННЫЙ МАРКИ Г-ГАЗОВЫЙ,310,25,48.643259,36.9889861,48.285102,37.1816185
станція ЛИМАН,станція ДАРНИЦЯ,АНТРАЦИТ,264,354,48.9644789,37.8275288,50.430674,30.643448
станція ЛИМАН,станція КРАМАТОРСЬК,АНТРАЦИТ,308,18,48.9644789,37.8275288,48.7259313,37.54314
станція ЛИМАН,станція КРИВИЙ РІГ-ГОЛОВНИЙ,АНТРАЦИТ,469,136,48.9644789,37.8275288,47.9123,33.451545
станція ЛИМАН,станція СВІТЛОДАРСЬКЕ,КОНЦЕНТРАТ УГОЛЬНЫЙ,3039,49,48.9644789,37.8275288,48.460125,38.170116
станція ЛИМАН,станція СВІТЛОДАРСЬКЕ,УГОЛЬ КАМЕННЫЙ МАРКИ Г-ГАЗОВЫЙ,2601,49,48.9644789,37.8275288,48.460125,38.170116
станція ЛИМАН,станція СВІТЛОДАРСЬКЕ,"УГОЛЬ КАМЕННЫЙ,НЕ ПОИМЕНОВАННЫЙ В АЛФАВИТЕ",728,49,48.9644789,37.8275288,48.460125,38.170116
станція ЛИМАН,станція ЧУГУЇВ,АНТРАЦИТ,248,92,48.9644789,37.8275288,49.8197326,36.6729053
станція ЛОБІВСЬКІ КОПАЛЬНІ,станція ІГРЕНЬ,АНТРАЦИТ,227,82,48.139939,39.204215,48.472213,35.18905
станція МАКІЇВКА,станція ЕЛЕКТРИЧНА,АНТРАЦИТ,1354,27,48.007681,37.9815461,48.867694,37.755615
станція МАКІЇВКА,станція ЄНАКІЄВЕ,КОНЦЕНТРАТ УГОЛЬНЫЙ,682,9,48.007681,37.9815461,48.2259,38.203245
станція МАКІЇВКА,станція ЄНАКІЄВЕ,"УГОЛЬ КАМЕННЫЙ,НЕ ПОИМЕНОВАННЫЙ В АЛФАВИТЕ",216,16,48.007681,37.9815461,48.2259,38.203245
станція МАКІЇВКА,станція КОМУНАРСЬК,"УГОЛЬ КАМЕННЫЙ,НЕ ПОИМЕНОВАННЫЙ В АЛФАВИТЕ",2472,21,48.007681,37.9815461,48.483418,38.778808
станція МАКІЇВКА,станція КРИНИЧНА,"УГОЛЬ КАМЕННЫЙ,НЕ ПОИМЕНОВАННЫЙ В АЛФАВИТЕ",1841,15,48.007681,37.9815461,48.126003,38.026796
станція МАКІЇВКА,станція ЛИМАН,"УГОЛЬ КАМЕННЫЙ,НЕ ПОИМЕНОВАННЫЙ В АЛФАВИТЕ",226,22,48.007681,37.9815461,48.9644789,37.8275288
станція МАКІЇВКА,станція МУШКЕТОВЕ,КОНЦЕНТРАТ УГОЛЬНЫЙ,319,10,48.007681,37.9815461,47.977417,37.8578791
станція МАКІЇВКА,станція ЧУМАКОВЕ,УГОЛЬ КАМЕННЫЙ МАРКИ Т-ТОЩИЙ,917,23,48.007681,37.9815461,47.973896,37.889423
станція МАНДРИКИНЕ,станція ЧУМАКОВЕ,"УГОЛЬ КАМЕННЫЙ,НЕ ПОИМЕНОВАННЫЙ В АЛФАВИТЕ",841,17,47.920558,37.679355,47.973896,37.889423
станція МАНУЇЛІВКА,станція ЕЛЕКТРИЧНА,УГОЛЬ КАМЕННЫЙ МАРКИ Т-ТОЩИЙ,204,29,48.408641,38.634584,48.867694,37.755615
станція МИКОЛАЇВКА-ДОНЕЦЬКА,станція БУРШТИН,УГОЛЬ КАМЕННЫЙ МАРКИ Г-ГАЗОВЫЙ,4074,426,48.37885,36.3491541,49.217461,24.6477491
станція МИКОЛАЇВКА-ДОНЕЦЬКА,станція ДОБРОТВІР,УГОЛЬ КАМЕННЫЙ МАРКИ Г-ГАЗОВЫЙ,360,413,48.37885,36.3491541,50.20584,24.386969
станція МИКОЛАЇВКА-ДОНЕЦЬКА,станція КУРАХІВКА,УГОЛЬ КАМЕННЫЙ МАРКИ Г-ГАЗОВЫЙ,2604,54,48.37885,36.3491541,48.035687,37.374858
станція МИКОЛАЇВКА-ДОНЕЦЬКА,станція ЛАДИЖИН,УГОЛЬ КАМЕННЫЙ МАРКИ Г-ГАЗОВЫЙ,2446,352,48.37885,36.3491541,48.609462,29.1503679
станція МИКОЛАЇВКА-ДОНЕЦЬКА,станція РОТИ,УГОЛЬ КАМЕННЫЙ МАРКИ Г-ГАЗОВЫЙ,588,110,48.37885,36.3491541,48.517778,38.221389
станція МОСТИСЬКА II (ЕКСП. ПКП),станція БАТУРИНСЬКА,УГОЛЬ КАМЕННЫЙ СИЛЕЗСКИЙ (ПОЛЬСКИЙ),868,269,49.8166178,23.0325224,47.872783,33.48381
станція МОСТИСЬКА II (ЕКСП. ПКП),станція НАРКЕВИЧІ,УГОЛЬ КАМЕННЫЙ СИЛЕЗСКИЙ (ПОЛЬСКИЙ),550,79,49.8166178,23.0325224,49.508981,26.6186271
станція МОСТИСЬКА II (ЕКСП. ПКП),станція СТАРОКОСТЯНТИНІВ II,УГОЛЬ КАМЕННЫЙ СИЛЕЗСКИЙ (ПОЛЬСКИЙ),427,101,49.8166178,23.0325224,49.733726,27.2788967
станція МУДРЬОНА,станція ЗЕЛЕНЕ ПОЛЕ,АНТРАЦИТ,202,25,47.914665,33.4025031,48.057999,33.6329791
станція НИЖНЬОДНІПРОВСЬК-ВУЗОЛ,станція БУРШТИН,УГОЛЬ КАМЕННЫЙ МАРКИ Г-ГАЗОВЫЙ,262,289,48.480907,35.116513,49.217461,24.6477491
станція НИЖНЬОКРИНКА,станція ЕЛЕКТРИЧНА,УГОЛЬ КАМЕННЫЙ МАРКИ Т-ТОЩИЙ,6022,59,48.129516,38.208348,48.867694,37.755615
станція НИЖНЬОКРИНКА,станція ЛИМАН,УГОЛЬ КАМЕННЫЙ МАРКИ Т-ТОЩИЙ,1739,90,48.129516,38.208348,48.9644789,37.8275288
станція НИЖНЬОКРИНКА,станція НОВИЙ СВІТ,УГОЛЬ КАМЕННЫЙ МАРКИ Т-ТОЩИЙ,3534,42,48.129516,38.208348,47.803492,38.0067229
станція НИЖНЬОКРИНКА,станція ЧУГУЇВ,УГОЛЬ КАМЕННЫЙ МАРКИ Т-ТОЩИЙ,986,108,48.129516,38.208348,49.8197326,36.6729053
станція НІМЧИНЕ,станція НОВИЙ СВІТ,УГОЛЬ КАМЕННЫЙ МАРКИ Т-ТОЩИЙ,1749,17,47.96431,38.224538,47.803492,38.0067229
станція НОВОГРОДІВКА,станція БІЛА ЦЕРКВА,"УГОЛЬ КАМЕННЫЙ,НЕ ПОИМЕНОВАННЫЙ В АЛФАВИТЕ",217,118,48.189131,37.334021,49.8119045,30.1097162
станція НОВОГРОДІВКА,станція БУРШТИН,"УГОЛЬ КАМЕННЫЙ,НЕ ПОИМЕНОВАННЫЙ В АЛФАВИТЕ",477,273,48.189131,37.334021,49.217461,24.6477491
станція НОВОГРОДІВКА,станція ВАПНЯРКА,"УГОЛЬ КАМЕННЫЙ,НЕ ПОИМЕНОВАННЫЙ В АЛФАВИТЕ",234,125,48.189131,37.334021,48.5337039,28.7452533
станція НОВОГРОДІВКА,станція ВОЛОЧИСЬК,"УГОЛЬ КАМЕННЫЙ,НЕ ПОИМЕНОВАННЫЙ В АЛФАВИТЕ",251,124,48.189131,37.334021,49.5320813,26.2084192
станція НОВОГРОДІВКА,станція ГОРЛІВКА,КОНЦЕНТРАТ УГОЛЬНЫЙ,776,19,48.189131,37.334021,48.311208,38.044173
станція НОВОГРОДІВКА,станція ЕЛЕКТРИЧНА,АНТРАЦИТ,275,110,48.189131,37.334021,48.867694,37.755615
станція НОВОГРОДІВКА,станція ЕЛЕКТРИЧНА,"УГОЛЬ КАМЕННЫЙ,НЕ ПОИМЕНОВАННЫЙ В АЛФАВИТЕ",652,110,48.189131,37.334021,48.867694,37.755615
станція НОВОГРОДІВКА,станція ЗАСІЛЛЯ,"УГОЛЬ КАМЕННЫЙ,НЕ ПОИМЕНОВАННЫЙ В АЛФАВИТЕ",334,129,48.189131,37.334021,47.025215,32.423609
станція НОВОГРОДІВКА,станція КНЯЖЕВЕ,"УГОЛЬ КАМЕННЫЙ,НЕ ПОИМЕНОВАННЫЙ В АЛФАВИТЕ",270,74,48.189131,37.334021,48.471882,28.81294
станція НОВОГРОДІВКА,станція НІКЕЛЬ-ПОБУЗЬКИЙ,"УГОЛЬ КАМЕННЫЙ,НЕ ПОИМЕНОВАННЫЙ В АЛФАВИТЕ",679,132,48.189131,37.334021,48.173252,30.615134
станція НОВОГРОДІВКА,станція ПОКРОВСЬК,УГОЛЬ КАМЕННЫЙ МАРКИ Г-ГАЗОВЫЙ,2891,5,48.189131,37.334021,48.285102,37.1816185
станція НОВОГРОДІВКА,станція ПОКРОВСЬК,"УГОЛЬ КАМЕННЫЙ,НЕ ПОИМЕНОВАННЫЙ В АЛФАВИТЕ",542,8,48.189131,37.334021,48.285102,37.1816185
станція НОВОГРОДІВКА,станція СВІТЛОДАРСЬКЕ,"УГОЛЬ КАМЕННЫЙ,НЕ ПОИМЕНОВАННЫЙ В АЛФАВИТЕ",4746,56,48.189131,37.334021,48.460125,38.170116
станція НОВОГРОДІВКА,станція СКВИРА,"УГОЛЬ КАМЕННЫЙ,НЕ ПОИМЕНОВАННЫЙ В АЛФАВИТЕ",258,90,48.189131,37.334021,49.753906,29.65695
станція НОВОГРОДІВКА,станція ХМЕЛЬНИЦЬКИЙ,"УГОЛЬ КАМЕННЫЙ,НЕ ПОИМЕНОВАННЫЙ В АЛФАВИТЕ",403,151,48.189131,37.334021,49.416645,27.0097674
станція НОВОГРОДІВКА,станція ЦУКУРИХА,УГОЛЬ КАМЕННЫЙ МАРКИ Г-ГАЗОВЫЙ,5816,12,48.189131,37.334021,48.084594,37.307092
станція НОВОДРУЖІВСЬКА,станція КРИВИЙ ТОРЕЦЬ,"УГОЛЬ КАМЕННЫЙ,НЕ ПОИМЕНОВАННЫЙ В АЛФАВИТЕ",215,33,48.962558,38.342991,48.409766,37.78366
станція НОВОДРУЖІВСЬКА,станція НОВОГРОДІВКА,"УГОЛЬ КАМЕННЫЙ,НЕ ПОИМЕНОВАННЫЙ В АЛФАВИТЕ",268,42,48.962558,38.342991,48.189131,37.334021
станція НОВОДРУЖІВСЬКА,станція ПОКРОВСЬК,"УГОЛЬ КАМЕННЫЙ,НЕ ПОИМЕНОВАННЫЙ В АЛФАВИТЕ",1426,128,48.962558,38.342991,48.285102,37.1816185
станція НОВОДРУЖІВСЬКА,станція ЦУКУРИХА,"УГОЛЬ КАМЕННЫЙ,НЕ ПОИМЕНОВАННЫЙ В АЛФАВИТЕ",630,53,48.962558,38.342991,48.084594,37.307092
станція ПЕЛАГІЇВСЬКИЙ,станція ЕЛЕКТРИЧНА,АНТРАЦИТ,706,28,48.092167,38.594515,48.867694,37.755615
станція ПЕЛАГІЇВСЬКИЙ,станція КРАМАТОРСЬК,АНТРАЦИТ,372,18,48.092167,38.594515,48.7259313,37.54314
станція ПЕЛАГІЇВСЬКИЙ,станція ЛИМАН,АНТРАЦИТ,1197,40,48.092167,38.594515,48.9644789,37.8275288
станція ПЕЛАГІЇВСЬКИЙ,станція НОВИЙ СВІТ,АНТРАЦИТ,12240,42,48.092167,38.594515,47.803492,38.0067229
станція ПЕЛАГІЇВСЬКИЙ,станція НОВИЙ СВІТ,УГОЛЬ КАМЕННЫЙ МАРКИ Т-ТОЩИЙ,425,42,48.092167,38.594515,47.803492,38.0067229
станція ПЕЛАГІЇВСЬКИЙ,станція ЧУГУЇВ,АНТРАЦИТ,215,86,48.092167,38.594515,49.8197326,36.6729053
станція ПЕРЕЇЗНА,станція КРИВИЙ ТОРЕЦЬ,"УГОЛЬ КАМЕННЫЙ,НЕ ПОИМЕНОВАННЫЙ В АЛФАВИТЕ",484,30,48.897354,38.4776521,48.409766,37.78366
станція ПЕРЕЇЗНА,станція НОВОГРОДІВКА,"УГОЛЬ КАМЕННЫЙ,НЕ ПОИМЕНОВАННЫЙ В АЛФАВИТЕ",811,39,48.897354,38.4776521,48.189131,37.334021
станція ПЕРЕЇЗНА,станція ПОКРОВСЬК,"УГОЛЬ КАМЕННЫЙ,НЕ ПОИМЕНОВАННЫЙ В АЛФАВИТЕ",9293,99,48.897354,38.4776521,48.285102,37.1816185
станція ПЕРЕЇЗНА,станція ЦУКУРИХА,"УГОЛЬ КАМЕННЫЙ,НЕ ПОИМЕНОВАННЫЙ В АЛФАВИТЕ",931,41,48.897354,38.4776521,48.084594,37.307092
станція ПЕТРОВЕНЬКИ,станція ДАРНИЦЯ,АНТРАЦИТ,2259,145,48.286289,38.843062,50.430674,30.643448
станція ПЕТРОВЕНЬКИ,станція СУМИ,АНТРАЦИТ,794,107,48.286289,38.843062,50.926937,34.8087574
станція ПЕТРОВЕНЬКИ,станція ЧЕРНІГІВ,АНТРАЦИТ,871,140,48.286289,38.843062,51.4855,31.2666
станція ПІВДЕННОДОНБАСЬКА,станція НОВОГРОДІВКА,УГОЛЬ КАМЕННЫЙ МАРКИ Г-ГАЗОВЫЙ,4292,56,47.751667,37.509722,48.189131,37.334021
станція ПІВДЕННОДОНБАСЬКА,станція НОВОГРОДІВКА,"УГОЛЬ КАМЕННЫЙ,НЕ ПОИМЕНОВАННЫЙ В АЛФАВИТЕ",6467,56,47.751667,37.509722,48.189131,37.334021
станція ПІВДЕННОДОНБАСЬКА,станція ПЛАСТИ,УГОЛЬ КАМЕННЫЙ МАРКИ Г-ГАЗОВЫЙ,2096,69,47.751667,37.509722,48.099349,37.355355
станція ПІВДЕННОДОНБАСЬКА,станція ПОКРОВСЬК,УГОЛЬ КАМЕННЫЙ МАРКИ Г-ГАЗОВЫЙ,12258,107,47.751667,37.509722,48.285102,37.1816185
станція ПІВДЕННОДОНБАСЬКА,станція ПОКРОВСЬК,"УГОЛЬ КАМЕННЫЙ,НЕ ПОИМЕНОВАННЫЙ В АЛФАВИТЕ",15846,107,47.751667,37.509722,48.285102,37.1816185
станція ПІВДЕННОДОНБАСЬКА,станція РОСІЯ,"УГОЛЬ КАМЕННЫЙ,НЕ ПОИМЕНОВАННЫЙ В АЛФАВИТЕ",457,68,47.751667,37.509722,48.159167,37.360833
станція ПІВДЕННОДОНБАСЬКА,станція СВІТЛОДАРСЬКЕ,УГОЛЬ КАМЕННЫЙ МАРКИ Г-ГАЗОВЫЙ,2855,133,47.751667,37.509722,48.460125,38.170116
станція ПІВДЕННОДОНБАСЬКА,станція СВІТЛОДАРСЬКЕ,"УГОЛЬ КАМЕННЫЙ,НЕ ПОИМЕНОВАННЫЙ В АЛФАВИТЕ",1620,133,47.751667,37.509722,48.460125,38.170116
станція ПЛАСТИ,станція ЕНЕРГОДАР,КОНЦЕНТРАТ УГОЛЬНЫЙ,247,108,48.099349,37.355355,47.494636,34.64672
станція ПЛАСТИ,станція ЛИМАН,КОНЦЕНТРАТ УГОЛЬНЫЙ,372,123,48.099349,37.355355,48.9644789,37.8275288
станція ПЛАСТИ,станція ПОКРОВСЬК,КОНЦЕНТРАТ УГОЛЬНЫЙ,423,7.5,48.099349,37.355355,48.285102,37.1816185
станція ПЛАСТИ,станція СВІТЛОДАРСЬКЕ,КОНЦЕНТРАТ УГОЛЬНЫЙ,6152,86,48.099349,37.355355,48.460125,38.170116
станція ПЛАСТИ,станція ТРИПІЛЛЯ-ДНІПРОВСЬКЕ,КОНЦЕНТРАТ УГОЛЬНЫЙ,406,102,48.099349,37.355355,50.1397982,30.7534098
станція ПОКРОВСЬК,станція БУРШТИН,КОНЦЕНТРАТ УГОЛЬНЫЙ,827,269,48.285102,37.1816185,49.217461,24.6477491
станція ПОКРОВСЬК,станція ДОБРОПІЛЛЯ,УГОЛЬ КАМЕННЫЙ МАРКИ Г-ГАЗОВЫЙ,278,15,48.285102,37.1816185,48.4481566,37.0757679
станція ПОКРОВСЬК,станція ЗАПОРІЖЖЯ-ЛІВЕ,КОНЦЕНТРАТ УГОЛЬНЫЙ,273,99,48.285102,37.1816185,47.86944,35.1917334
станція ПОКРОВСЬК,станція КОМУНАРСЬК,КОНЦЕНТРАТ УГОЛЬНЫЙ,405,28,48.285102,37.1816185,48.483418,38.778808
станція ПОКРОВСЬК,станція КРИВИЙ РІГ-ГОЛОВНИЙ,КОНЦЕНТРАТ УГОЛЬНЫЙ,1846,123,48.285102,37.1816185,47.9123,33.451545
станція ПОКРОВСЬК,станція КРИВИЙ РІГ-ГОЛОВНИЙ,УГОЛЬ КАМЕННЫЙ МАРКИ Ж-ЖИРНЫЙ,265,123,48.285102,37.1816185,47.9123,33.451545
станція ПОКРОВСЬК,станція КРИВИЙ РІГ-ГОЛОВНИЙ,УГОЛЬ КАМЕННЫЙ МАРКИ К-КОКСОВЫЙ,4169,123,48.285102,37.1816185,47.9123,33.451545
станція ПОКРОВСЬК,станція ЛИМАН,УГОЛЬ КАМЕННЫЙ МАРКИ Г-ГАЗОВЫЙ,936,130,48.285102,37.1816185,48.9644789,37.8275288
станція ПОКРОВСЬК,станція НІКЕЛЬ-ПОБУЗЬКИЙ,КОНЦЕНТРАТ УГОЛЬНЫЙ,426,107,48.285102,37.1816185,48.173252,30.615134
станція ПОКРОВСЬК,станція ОСНОВА,КОНЦЕНТРАТ УГОЛЬНЫЙ,3614,125,48.285102,37.1816185,49.9395953,36.2330042
станція ПОКРОВСЬК,станція СВІТЛОДАРСЬКЕ,КОНЦЕНТРАТ УГОЛЬНЫЙ,33006,122,48.285102,37.1816185,48.460125,38.170116
станція ПОКРОВСЬК,станція СВІТЛОДАРСЬКЕ,УГОЛЬ КАМЕННЫЙ МАРКИ Г-ГАЗОВЫЙ,321,97,48.285102,37.1816185,48.460125,38.170116
станція ПОКРОВСЬК,станція ТРИПІЛЛЯ-ДНІПРОВСЬКЕ,КОНЦЕНТРАТ УГОЛЬНЫЙ,5372,138,48.285102,37.1816185,50.1397982,30.7534098
станція ПОКРОВСЬК,станція ЦУКУРИХА,УГОЛЬ КАМЕННЫЙ МАРКИ Г-ГАЗОВЫЙ,294,16,48.285102,37.1816185,48.084594,37.307092
станція ПОКРОВСЬК,станція ЯМНИЦЯ,КОНЦЕНТРАТ УГОЛЬНЫЙ,921,172,48.285102,37.1816185,48.9855201,24.7113369
станція ПОКРОВСЬК,станція ЯМНИЦЯ,УГОЛЬ КАМЕННЫЙ МАРКИ Г-ГАЗОВЫЙ,291,172,48.285102,37.1816185,48.9855201,24.7113369
станція ПОКРОВСЬК,станція ЯСНА ЗОРЯ,КОНЦЕНТРАТ УГОЛЬНЫЙ,209,127,48.285102,37.1816185,47.18757,31.71714
станція ПОЛОГИ,станція ПОКРОВСЬК,УГОЛЬ КАМЕННЫЙ МАРКИ Г-ГАЗОВЫЙ,380,56,47.476667,36.258611,48.285102,37.1816185
станція ПОЛОГИ,станція ПОКРОВСЬК,"УГОЛЬ КАМЕННЫЙ,НЕ ПОИМЕНОВАННЫЙ В АЛФАВИТЕ",436,42,47.476667,36.258611,48.285102,37.1816185
станція ПОСТНИКОВЕ,станція ЕЛЕКТРИЧНА,АНТРАЦИТ,609,42,48.040808,38.49543,48.867694,37.755615
станція ПОСТНИКОВЕ,станція ЕЛЕКТРИЧНА,УГОЛЬ КАМЕННЫЙ МАРКИ Т-ТОЩИЙ,3160,42,48.040808,38.49543,48.867694,37.755615
станція ПОСТНИКОВЕ,станція КРАМАТОРСЬК,АНТРАЦИТ,267,29,48.040808,38.49543,48.7259313,37.54314
станція ПОСТНИКОВЕ,станція КРИВИЙ ТОРЕЦЬ,"УГОЛЬ КАМЕННЫЙ,НЕ ПОИМЕНОВАННЫЙ В АЛФАВИТЕ",296,23,48.040808,38.49543,48.409766,37.78366
станція ПОСТНИКОВЕ,станція ЛИМАН,АНТРАЦИТ,1239,76,48.040808,38.49543,48.9644789,37.8275288
станція ПОСТНИКОВЕ,станція ЛИМАН,УГОЛЬ КАМЕННЫЙ МАРКИ Т-ТОЩИЙ,849,102,48.040808,38.49543,48.9644789,37.8275288
станція ПОСТНИКОВЕ,станція НОВИЙ СВІТ,АНТРАЦИТ,1504,23,48.040808,38.49543,47.803492,38.0067229
станція ПОСТНИКОВЕ,станція НОВОГРОДІВКА,"УГОЛЬ КАМЕННЫЙ,НЕ ПОИМЕНОВАННЫЙ В АЛФАВИТЕ",260,15,48.040808,38.49543,48.189131,37.334021
станція ПОСТНИКОВЕ,станція ЧУГУЇВ,АНТРАЦИТ,489,60,48.040808,38.49543,49.8197326,36.6729053
станція ПОСТНИКОВЕ,станція ЧУГУЇВ,УГОЛЬ КАМЕННЫЙ МАРКИ Т-ТОЩИЙ,254,27,48.040808,38.49543,49.8197326,36.6729053
станція ПРАВДА,станція ЕЛЕКТРИЧНА,"УГОЛЬ КАМЕННЫЙ,НЕ ПОИМЕНОВАННЫЙ В АЛФАВИТЕ",1746,118,48.517983,34.658394,48.867694,37.755615
станція ПРАВДА,станція ЖАШКІВ,"УГОЛЬ КАМЕННЫЙ,НЕ ПОИМЕНОВАННЫЙ В АЛФАВИТЕ",687,126,48.517983,34.658394,49.243053,30.097353
станція ПРАВДА,станція ЗВЕНИГОРОДКА,"УГОЛЬ КАМЕННЫЙ,НЕ ПОИМЕНОВАННЫЙ В АЛФАВИТЕ",465,100,48.517983,34.658394,48.98235,30.98324
станція ПРАВДА,станція КРОПИВНИЦЬКИЙ,"УГОЛЬ КАМЕННЫЙ,НЕ ПОИМЕНОВАННЫЙ В АЛФАВИТЕ",207,92,48.517983,34.658394,48.5239679,32.258731
станція ПРАВДА,станція ТРИПІЛЛЯ-ДНІПРОВСЬКЕ,АНТРАЦИТ,205,121,48.517983,34.658394,50.1397982,30.7534098
станція ПРАВДА,станція ТРИПІЛЛЯ-ДНІПРОВСЬКЕ,УГОЛЬ КАМЕННЫЙ МАРКИ Т-ТОЩИЙ,513,121,48.517983,34.658394,50.1397982,30.7534098
станція ПРАВДА,станція ЧУГУЇВ,"УГОЛЬ КАМЕННЫЙ,НЕ ПОИМЕНОВАННЫЙ В АЛФАВИТЕ",530,129,48.517983,34.658394,49.8197326,36.6729053
станція РОВЕНЬКИ,станція ФАЩІВКА,АНТРАЦИТ,578,35,48.095952,39.370502,48.271485,38.617803
станція РОДИНСЬКА,станція АВДІЇВКА,УГОЛЬ КАМЕННЫЙ МАРКИ Ж-ЖИРНЫЙ,996,31,48.362572,37.198645,48.148889,37.733333
станція РОДИНСЬКА,станція БАТУРИНСЬКА,КОНЦЕНТРАТ УГОЛЬНЫЙ,416,130,48.362572,37.198645,47.872783,33.48381
станція РОДИНСЬКА,станція БУРШТИН,УГОЛЬ КАМЕННЫЙ МАРКИ Г-ГАЗОВЫЙ,3198,339,48.362572,37.198645,49.217461,24.6477491
станція РОДИНСЬКА,станція ГУМЕНЦІ,КОНЦЕНТРАТ УГОЛЬНЫЙ,537,289,48.362572,37.198645,48.770473,26.606396
станція РОДИНСЬКА,станція ДОБРОТВІР,УГОЛЬ КАМЕННЫЙ МАРКИ Г-ГАЗОВЫЙ,762,263,48.362572,37.198645,50.20584,24.386969
станція РОДИНСЬКА,станція ЗЕЛЕНЕ ПОЛЕ,УГОЛЬ КАМЕННЫЙ МАРКИ Г-ГАЗОВЫЙ,223,97,48.362572,37.198645,48.057999,33.6329791
станція РОДИНСЬКА,станція КОМУНАРСЬК,УГОЛЬ КАМЕННЫЙ МАРКИ Ж-ЖИРНЫЙ,728,45,48.362572,37.198645,48.483418,38.778808
станція РОДИНСЬКА,станція КРИВИЙ РІГ-ГОЛОВНИЙ,УГОЛЬ КАМЕННЫЙ МАРКИ Ж-ЖИРНЫЙ,2610,127,48.362572,37.198645,47.9123,33.451545
станція РОДИНСЬКА,станція КРИНИЧНА,УГОЛЬ КАМЕННЫЙ МАРКИ Ж-ЖИРНЫЙ,206,87,48.362572,37.198645,48.126003,38.026796
станція РОДИНСЬКА,станція ЛИМАН,УГОЛЬ КАМЕННЫЙ МАРКИ Ж-ЖИРНЫЙ,292,113,48.362572,37.198645,48.9644789,37.8275288
станція РОДИНСЬКА,станція НІКЕЛЬ-ПОБУЗЬКИЙ,КОНЦЕНТРАТ УГОЛЬНЫЙ,298,109,48.362572,37.198645,48.173252,30.615134
станція РОДИНСЬКА,станція САРТАНА,УГОЛЬ КАМЕННЫЙ МАРКИ Ж-ЖИРНЫЙ,263,62,48.362572,37.198645,47.1536589,37.5740898
станція РОДИНСЬКА,станція СВІТЛОДАРСЬКЕ,УГОЛЬ КАМЕННЫЙ МАРКИ Г-ГАЗОВЫЙ,18645,124,48.362572,37.198645,48.460125,38.170116
станція РОДИНСЬКА,станція ЦУКУРИХА,УГОЛЬ КАМЕННЫЙ МАРКИ Ж-ЖИРНЫЙ,1325,21,48.362572,37.198645,48.084594,37.307092
станція РОДИНСЬКА,станція ЯМНИЦЯ,УГОЛЬ КАМЕННЫЙ МАРКИ Ж-ЖИРНЫЙ,2152,278,48.362572,37.198645,48.9855201,24.7113369
станція РОДИНСЬКА,станція ЯСИНУВАТА,УГОЛЬ КАМЕННЫЙ МАРКИ Ж-ЖИРНЫЙ,1068,94.5,48.362572,37.198645,48.120859,37.846206
станція РОЗСИПНА,станція НОВИЙ СВІТ,АНТРАЦИТ,1114,30,48.130673,38.568012,47.803492,38.0067229
станція РОСІЯ,станція ЗАПОРІЖЖЯ-ЛІВЕ,КОНЦЕНТРАТ УГОЛЬНЫЙ,321,107,48.159167,37.360833,47.86944,35.1917334
станція РОСІЯ,станція ЛИМАН,КОНЦЕНТРАТ УГОЛЬНЫЙ,680,135,48.159167,37.360833,48.9644789,37.8275288
станція РОСІЯ,станція ПОКРОВСЬК,КОНЦЕНТРАТ УГОЛЬНЫЙ,382,5,48.159167,37.360833,48.285102,37.1816185
станція РОСІЯ,станція ПОКРОВСЬК,УГОЛЬ КАМЕННЫЙ МАРКИ Г-ГАЗОВЫЙ,230,7,48.159167,37.360833,48.285102,37.1816185
станція РОСІЯ,станція СВІТЛОДАРСЬКЕ,КОНЦЕНТРАТ УГОЛЬНЫЙ,11696,127,48.159167,37.360833,48.460125,38.170116
станція РОСІЯ,станція ТРИПІЛЛЯ-ДНІПРОВСЬКЕ,КОНЦЕНТРАТ УГОЛЬНЫЙ,590,142,48.159167,37.360833,50.1397982,30.7534098
станція РУТЧЕНКОВЕ,станція АВДІЇВКА,УГОЛЬ КАМЕННЫЙ МАРКИ Ж-ЖИРНЫЙ,1313,4,47.967098,37.686748,48.148889,37.733333
станція РУТЧЕНКОВЕ,станція МАКІЇВКА,УГОЛЬ КАМЕННЫЙ МАРКИ Ж-ЖИРНЫЙ,1296,18,47.967098,37.686748,48.007681,37.9815461
станція СВІТЛАНОВЕ,станція НОВОГРОДІВКА,"УГОЛЬ КАМЕННЫЙ,НЕ ПОИМЕНОВАННЫЙ В АЛФАВИТЕ",348,61,48.713782,38.428834,48.189131,37.334021
станція СВІТЛАНОВЕ,станція ПОКРОВСЬК,"УГОЛЬ КАМЕННЫЙ,НЕ ПОИМЕНОВАННЫЙ В АЛФАВИТЕ",5882,119,48.713782,38.428834,48.285102,37.1816185
станція СЕНТЯНІВКА,станція КОМУНАРСЬК,КОНЦЕНТРАТ УГОЛЬНЫЙ,1989,23,48.668043,38.7499,48.483418,38.778808
станція СЕНТЯНІВКА,станція ЛИМАН,УГОЛЬ КАМЕННЫЙ МАРКИ Т-ТОЩИЙ,990,55,48.668043,38.7499,48.9644789,37.8275288
станція СЛОВ’ЯНОСЕРБСЬК,станція ЕЛЕКТРИЧНА,УГОЛЬ КАМЕННЫЙ МАРКИ Т-ТОЩИЙ,405,51,48.546957,38.9143369,48.867694,37.755615
станція СОСНІВКА,станція БУРШТИН,КОНЦЕНТРАТ УГОЛЬНЫЙ,1338,91,50.2918113,24.263036,49.217461,24.6477491
станція СОСНІВКА,станція БУРШТИН,УГОЛЬ КАМЕННЫЙ МАРКИ Г-ГАЗОВЫЙ,1386,91,50.2918113,24.263036,49.217461,24.6477491
станція СОСНІВКА,станція ГУМЕНЦІ,УГОЛЬ КАМЕННЫЙ МАРКИ Г-ГАЗОВЫЙ,243,68,50.2918113,24.263036,48.770473,26.606396
станція СОСНІВКА,станція ЖИДАЧІВ,УГОЛЬ КАМЕННЫЙ МАРКИ Г-ГАЗОВЫЙ,536,52,50.2918113,24.263036,49.377195,24.159124
станція СОСНІВКА,станція ЗДОЛБУНІВ,УГОЛЬ КАМЕННЫЙ МАРКИ Г-ГАЗОВЫЙ,262,85,50.2918113,24.263036,50.5068585,26.26955
станція СОСНІВКА,станція ЗДОЛБУНІВ,"УГОЛЬ КАМЕННЫЙ,НЕ ПОИМЕНОВАННЫЙ В АЛФАВИТЕ",1641,85,50.2918113,24.263036,50.5068585,26.26955
станція СОСНІВКА,станція КАЛУШ,КОНЦЕНТРАТ УГОЛЬНЫЙ,13515,55,50.2918113,24.263036,49.0128135,24.3491688
станція СОСНІВКА,станція КАЛУШ,УГОЛЬ КАМЕННЫЙ МАРКИ Г-ГАЗОВЫЙ,2494,55,50.2918113,24.263036,49.0128135,24.3491688
станція СОСНІВКА,станція КАЛУШ,"УГОЛЬ КАМЕННЫЙ,НЕ ПОИМЕНОВАННЫЙ В АЛФАВИТЕ",1040,44,50.2918113,24.263036,49.0128135,24.3491688
станція СОСНІВКА,станція КОЛОМИЯ,ШЛАМ УГОЛЬНЫЙ,455,55,50.2918113,24.263036,48.53443,25.0600831
станція СОСНІВКА,станція ЛИМАН,КОНЦЕНТРАТ УГОЛЬНЫЙ,617,263,50.2918113,24.263036,48.9644789,37.8275288
станція СОСНІВКА,станція ПОЛОННЕ,УГОЛЬ КАМЕННЫЙ МАРКИ Г-ГАЗОВЫЙ,1184,71,50.2918113,24.263036,50.1392993,27.488111
станція СОСНІВКА,станція РОЖНЯТІВ,КОНЦЕНТРАТ УГОЛЬНЫЙ,694,52,50.2918113,24.263036,48.998146,24.162632
станція СОСНІВКА,станція РОЖНЯТІВ,УГОЛЬ КАМЕННЫЙ МАРКИ Г-ГАЗОВЫЙ,437,69,50.2918113,24.263036,48.998146,24.162632
станція СОСНІВКА,станція ЯМНИЦЯ,УГОЛЬ КАМЕННЫЙ МАРКИ Г-ГАЗОВЫЙ,1625,53,50.2918113,24.263036,48.9855201,24.7113369
станція СОСНІВКА,станція ЯМНИЦЯ,"УГОЛЬ КАМЕННЫЙ,НЕ ПОИМЕНОВАННЫЙ В АЛФАВИТЕ",816,71,50.2918113,24.263036,48.9855201,24.7113369
станція СОСНІВКА,станція ЯМНИЦЯ,ШЛАМ УГОЛЬНЫЙ,444,71,50.2918113,24.263036,48.9855201,24.7113369
станція СОСНІВКА,станція ЯСНА ЗОРЯ,КОНЦЕНТРАТ УГОЛЬНЫЙ,568,142,50.2918113,24.263036,47.18757,31.71714
станція СОФІНО-БРІДСЬКА,станція КРАМАТОРСЬК,АНТРАЦИТ,639,21,48.042953,38.776151,48.7259313,37.54314
станція СОФІНО-БРІДСЬКА,станція ЛИМАН,АНТРАЦИТ,940,61,48.042953,38.776151,48.9644789,37.8275288
станція СОФІНО-БРІДСЬКА,станція ЧУГУЇВ,АНТРАЦИТ,448,60,48.042953,38.776151,49.8197326,36.6729053
станція ТОРЕЗ,станція КРАМАТОРСЬК,АНТРАЦИТ,800,21,48.040796,38.583563,48.7259313,37.54314
станція ТОРЕЗ,станція ЛИМАН,АНТРАЦИТ,1043,59,48.040796,38.583563,48.9644789,37.8275288
станція ТОРЕЗ,станція НІКЕЛЬ-ПОБУЗЬКИЙ,АНТРАЦИТ,429,84,48.040796,38.583563,48.173252,30.615134
станція ТОРЕЗ,станція НОВИЙ СВІТ,АНТРАЦИТ,489,26,48.040796,38.583563,47.803492,38.0067229
станція ТОРЕЗ,станція ЧУГУЇВ,АНТРАЦИТ,593,50,48.040796,38.583563,49.8197326,36.6729053
станція УДАЧНА,станція КРИВИЙ РІГ-ГОЛОВНИЙ,КОНЦЕНТРАТ УГОЛЬНЫЙ,6022,118,48.237717,36.99034,47.9123,33.451545
станція УДАЧНА,станція САРТАНА,КОНЦЕНТРАТ УГОЛЬНЫЙ,2297,117,48.237717,36.99034,47.1536589,37.5740898
станція ФАЩІВКА,станція ЛИМАН,АНТРАЦИТ,285,91,48.271485,38.617803,48.9644789,37.8275288
станція ХАНЖЕНКОВЕ,станція МАКІЇВКА,УГОЛЬ КАМЕННЫЙ МАРКИ К-КОКСОВЫЙ,423,18,48.08555,38.076849,48.007681,37.9815461
станція ХАНЖЕНКОВЕ,станція МАКІЇВКА,УГОЛЬ КАМЕННЫЙ МАРКИ ОС-ОТОЩЕННЫЙ СПЕКАЮЩИЙСЯ,258,18,48.08555,38.076849,48.007681,37.9815461
станція ЦУКУРИХА,станція ЕЛЕКТРИЧНА,ШЛАМ УГОЛЬНЫЙ,407,92,48.084594,37.307092,48.867694,37.755615
станція ЦУКУРИХА,станція ЕНЕРГОДАР,КОНЦЕНТРАТ УГОЛЬНЫЙ,486,88,48.084594,37.307092,47.494636,34.64672
станція ЦУКУРИХА,станція КАЛУШ,КОНЦЕНТРАТ УГОЛЬНЫЙ,219,109,48.084594,37.307092,49.0128135,24.3491688
станція ЦУКУРИХА,станція СВІТЛОДАРСЬКЕ,КОНЦЕНТРАТ УГОЛЬНЫЙ,10170,58,48.084594,37.307092,48.460125,38.170116
станція ЦУКУРИХА,станція СВІТЛОДАРСЬКЕ,"УГОЛЬ КАМЕННЫЙ,НЕ ПОИМЕНОВАННЫЙ В АЛФАВИТЕ",470,27,48.084594,37.307092,48.460125,38.170116
станція ЧОРНОМОРСЬК-ПОРТ-ЕКСПОРТ,станція ЛАДИЖИН,"УГОЛЬ КАМЕННЫЙ,НЕ ПОИМЕНОВАННЫЙ В АЛФАВИТЕ",719,77,46.322273,30.629317,48.609462,29.1503679
станція ЧОРНОМОРСЬКА ( ЕКСП. ДЛЯ ТІС ),станція ЗАПОРІЖЖЯ-ЛІВЕ,"УГОЛЬ КАМЕННЫЙ,НЕ ПОИМЕНОВАННЫЙ В АЛФАВИТЕ",365,365,46.82775,30.76,47.86944,35.1917334
станція ЧОРНОМОРСЬКА ( ЕКСП. ДЛЯ ТІС ),станція ПРАВДА,"УГОЛЬ КАМЕННЫЙ,НЕ ПОИМЕНОВАННЫЙ В АЛФАВИТЕ",253,306,46.82775,30.76,48.517983,34.658394
станція ЧУМАКОВЕ,станція КОМУНАРСЬК,"УГОЛЬ КАМЕННЫЙ,НЕ ПОИМЕНОВАННЫЙ В АЛФАВИТЕ",293,16.5,47.973896,37.889423,48.483418,38.778808
станція ЧУМАКОВЕ,станція ЛИМАН,УГОЛЬ КАМЕННЫЙ МАРКИ Т-ТОЩИЙ,327,57,47.973896,37.889423,48.9644789,37.8275288
станція ЧУМАКОВЕ,станція ЯСИНУВАТА,"УГОЛЬ КАМЕННЫЙ,НЕ ПОИМЕНОВАННЫЙ В АЛФАВИТЕ",338,7,47.973896,37.889423,48.120859,37.846206
станція ЯНІВСЬКИЙ (РЗД),станція ЕЛЕКТРИЧНА,АНТРАЦИТ,649,32,48.153274,38.782219,48.867694,37.755615
