sender,receiver,cargo_name,no_wagons,mdn_speed,lat_sender,lon_sender,lat_receiver,lon_receiver
станція АЛІЯГА,станція ЧОРНОМОРСЬКА ( ЕКСП. ДЛЯ ТІС ),ЯЧМЕНЬ,365,73,45.7903506,29.1875561,46.82775,30.76
станція АНДРІЯШІВКА,станція ЛАДИЖИН,ЗЕРНО КУКУРУЗЫ,217,131,50.5700447,33.3703925,48.609462,29.1503679
станція АНДРІЯШІВКА,станція МИРОНІВКА,ПШЕНИЦА,465,117,50.5700447,33.3703925,49.678092,30.9119329
станція АНТОНІНИ,станція ОДЕСА-ПОРТ  (ЕКСП.),ПШЕНИЦА,224,141,49.790807,26.988522,46.485545,30.748833
станція АРЦИЗ,станція КСЕНІЄВЕ (ЕКСП.),ПШЕНИЦА,734,51,45.9968241,29.4199425,46.36337,30.62144
станція АРЦИЗ,станція КСЕНІЄВЕ (ЕКСП.),ЯЧМЕНЬ,611,51,45.9968241,29.4199425,46.36337,30.62144
станція АРЦИЗ,станція ЧОРНОМОРСЬК-ПОРТ-ЕКСПОРТ,ПШЕНИЦА,985,78,45.9968241,29.4199425,46.322273,30.629317
станція АРЦИЗ,станція ЧОРНОМОРСЬК-ПОРТ-ЕКСПОРТ,ЯЧМЕНЬ,901,78,45.9968241,29.4199425,46.322273,30.629317
станція АРЦИЗ,станція ЧОРНОМОРСЬКА-ЕКСП.(ДЛЯ ОПЗ),ПШЕНИЦА,323,84,45.9968241,29.4199425,46.82775,30.76
станція АРЦИЗ,станція ЧОРНОМОРСЬКА ( ЕКСП. ДЛЯ ТІС ),ПШЕНИЦА,302,86,45.9968241,29.4199425,46.82775,30.76
станція АРЦИЗ,станція ЧОРНОМОРСЬКА ( ЕКСП. ДЛЯ ТІС ),ЯЧМЕНЬ,528,86,45.9968241,29.4199425,46.82775,30.76
станція БАЛИН,станція ЧОРНОМОРСЬК-ПОРТ-ЕКСПОРТ,ПШЕНИЦА,821,122,48.90661,26.6346,46.322273,30.629317
станція БАЛТА,станція КСЕНІЄВЕ (ЕКСП.),ЗЕРНО КУКУРУЗЫ,568,75,47.874574,29.625154,46.36337,30.62144
станція БАЛТА,станція КСЕНІЄВЕ (ЕКСП.),ПШЕНИЦА,1110,75,47.874574,29.625154,46.36337,30.62144
станція БАЛТА,станція КСЕНІЄВЕ (ЕКСП.),ЯЧМЕНЬ,394,75,47.874574,29.625154,46.36337,30.62144
станція БАЛТА,станція ОДЕСА-ПОРТ  (ЕКСП.),ЗЕРНО КУКУРУЗЫ,814,56,47.874574,29.625154,46.485545,30.748833
станція БАЛТА,станція ОДЕСА-ПОРТ  (ЕКСП.),ПШЕНИЦА,736,75,47.874574,29.625154,46.485545,30.748833
станція БАЛТА,станція ЧОРНОМОРСЬК-ПОРТ-ЕКСПОРТ,ЗЕРНО КУКУРУЗЫ,250,82,47.874574,29.625154,46.322273,30.629317
станція БАЛТА,станція ЧОРНОМОРСЬК-ПОРТ-ЕКСПОРТ,ПШЕНИЦА,305,82,47.874574,29.625154,46.322273,30.629317
станція БАЛТА,станція ЧОРНОМОРСЬКА ( ЕКСП. ДЛЯ ТІС ),ЗЕРНО КУКУРУЗЫ,592,92,47.874574,29.625154,46.82775,30.76
станція БАЛТА,станція ЧОРНОМОРСЬКА ( ЕКСП. ДЛЯ ТІС ),ПШЕНИЦА,403,92,47.874574,29.625154,46.82775,30.76
станція БАР,станція ЧОРНОМОРСЬКА ( ЕКСП. ДЛЯ ТІС ),ПШЕНИЦА,688,141,49.036101,27.722638,46.82775,30.76
станція БАРВІНКОВЕ,станція ЖОВТНЕВА  (ЕКСП.),ПШЕНИЦА,659,140,48.9014667,37.0181437,46.834899,31.967136
станція БАРВІНКОВЕ,станція ЗОЛОТОНОША I,ПШЕНИЦА,214,147,48.9014667,37.0181437,49.6564714,32.0774714
станція БАРВІНКОВЕ,станція МИКОЛАЇВ-ВАНТАЖНИЙ  (ЕКСП.),ПШЕНИЦА,821,137,48.9014667,37.0181437,46.9575,31.975556
станція БАРИШІВКА,станція ОДЕСА-ПОРТ  (ЕКСП.),ЗЕРНО КУКУРУЗЫ,579,146,50.3469003,31.3166756,46.485545,30.748833
станція БАСИ,станція МИКОЛАЇВ-ВАНТАЖНИЙ  (ЕКСП.),ЗЕРНО КУКУРУЗЫ,444,143,50.862753,34.886865,46.9575,31.975556
станція БЕРДИЧІВ,станція КСЕНІЄВЕ (ЕКСП.),ЗЕРНО КУКУРУЗЫ,317,135,49.8892838,28.6129448,46.36337,30.62144
станція БЕРДИЧІВ,станція ЧОРНОМОРСЬКА ( ЕКСП. ДЛЯ ТІС ),ЗЕРНО КУКУРУЗЫ,917,148,49.8892838,28.6129448,46.82775,30.76
станція БЕРЕЗИНЕ,станція КСЕНІЄВЕ (ЕКСП.),ПШЕНИЦА,342,47,46.230278,29.205833,46.36337,30.62144
станція БЕРЕЗИНЕ,станція КСЕНІЄВЕ (ЕКСП.),ЯЧМЕНЬ,355,63,46.230278,29.205833,46.36337,30.62144
станція БЕРЕЗИНЕ,станція ОДЕСА-ПОРТ  (ЕКСП.),ПШЕНИЦА,1045,80,46.230278,29.205833,46.485545,30.748833
станція БЕРЕЗИНЕ,станція ЧОРНОМОРСЬК-ПОРТ-ЕКСПОРТ,ПШЕНИЦА,591,87,46.230278,29.205833,46.322273,30.629317
станція БЕРЕЗИНЕ,станція ЧОРНОМОРСЬК-ПОРТ-ЕКСПОРТ,ЯЧМЕНЬ,217,87,46.230278,29.205833,46.322273,30.629317
станція БЕРЕЗИНЕ,станція ЧОРНОМОРСЬКА-ЕКСП.(ДЛЯ ОПЗ),ПШЕНИЦА,238,95,46.230278,29.205833,46.82775,30.76
станція БЕРЕЗІВКА,станція ОДЕСА-ПОРТ  (ЕКСП.),ПШЕНИЦА,396,51,47.19249,30.94197,46.485545,30.748833
станція БЕРЕЗІВКА,станція ОДЕСА-ПОРТ  (ЕКСП.),ЯЧМЕНЬ,270,51,47.19249,30.94197,46.485545,30.748833
станція БЕРЕЗІВКА,станція ЧОРНОМОРСЬК-ПОРТ-ЕКСПОРТ,ПШЕНИЦА,222,52,47.19249,30.94197,46.322273,30.629317
станція БЕРЕЗІВКА,станція ЧОРНОМОРСЬКА ( ЕКСП. ДЛЯ ТІС ),ПШЕНИЦА,401,45,47.19249,30.94197,46.82775,30.76
станція БЕРЕЗІВКА,станція ЧОРНОМОРСЬКА ( ЕКСП. ДЛЯ ТІС ),ЯЧМЕНЬ,261,45,47.19249,30.94197,46.82775,30.76
станція БЕРЕЗОВИЦЯ-ОСТРІВ,станція ГУМЕНЦІ,ЗЕРНО КУКУРУЗЫ,302,68,49.490776,25.605512,48.770473,26.606396
станція БЕРЕЗОВИЦЯ-ОСТРІВ,станція ЧОРНОМОРСЬКА ( ЕКСП. ДЛЯ ТІС ),ЗЕРНО КУКУРУЗЫ,367,136,49.490776,25.605512,46.82775,30.76
станція БІЛА КРИНИЦЯ,станція ГУМЕНЦІ,ПШЕНИЦА,253,139,47.3511476,33.1967766,48.770473,26.606396
станція БІЛА КРИНИЦЯ,станція ОДЕСА-ПОРТ  (ЕКСП.),ПШЕНИЦА,248,47,47.3511476,33.1967766,46.485545,30.748833
станція БІЛА КРИНИЦЯ,станція ЧОРНОМОРСЬКА ( ЕКСП. ДЛЯ ТІС ),ПШЕНИЦА,226,45,47.3511476,33.1967766,46.82775,30.76
станція БІЛА ЦЕРКВА,станція КСЕНІЄВЕ (ЕКСП.),ЗЕРНО КУКУРУЗЫ,474,128,49.8119045,30.1097162,46.36337,30.62144
станція БІЛГОРОД-ДНІСТРОВСЬКИЙ,станція КСЕНІЄВЕ (ЕКСП.),ЯЧМЕНЬ,508,32,46.1851723,30.3377686,46.36337,30.62144
станція БІЛГОРОД-ДНІСТРОВСЬКИЙ,станція ОДЕСА-ПОРТ  (ЕКСП.),ПШЕНИЦА,330,58,46.1851723,30.3377686,46.485545,30.748833
станція БІЛГОРОД-ДНІСТРОВСЬКИЙ,станція ЧОРНОМОРСЬК-ПОРТ-ЕКСПОРТ,ПШЕНИЦА,839,33,46.1851723,30.3377686,46.322273,30.629317
станція БІЛГОРОД-ДНІСТРОВСЬКИЙ,станція ЧОРНОМОРСЬК-ПОРТ-ЕКСПОРТ,ЯЧМЕНЬ,617,33,46.1851723,30.3377686,46.322273,30.629317
станція БІЛГОРОД-ДНІСТРОВСЬКИЙ,станція ЧОРНОМОРСЬКА ( ЕКСП. ДЛЯ ТІС ),ПШЕНИЦА,454,56,46.1851723,30.3377686,46.82775,30.76
станція БІЛГОРОД-ДНІСТРОВСЬКИЙ,станція ЧОРНОМОРСЬКА ( ЕКСП. ДЛЯ ТІС ),ЯЧМЕНЬ,594,84,46.1851723,30.3377686,46.82775,30.76
станція БІЛГОРОДКА,станція КСЕНІЄВЕ (ЕКСП.),ЗЕРНО КУКУРУЗЫ,205,118,50.3897825,30.2266649,46.36337,30.62144
станція БІЛГОРОДКА,станція ЧОРНОМОРСЬКА ( ЕКСП. ДЛЯ ТІС ),ЗЕРНО КУКУРУЗЫ,381,152,50.3897825,30.2266649,46.82775,30.76
станція БІЛГОРОДКА,станція ЯГОДИН (ЕКСП. ПКП),ЗЕРНО КУКУРУЗЫ,728,111,50.3897825,30.2266649,51.198201,23.895884
станція БІЛОБОЖНИЦЯ,станція ОДЕСА-ПОРТ  (ЕКСП.),ЗЕРНО КУКУРУЗЫ,250,117,49.0398865,25.6872261,46.485545,30.748833
станція БІЛОБОЖНИЦЯ,станція ОДЕСА-ПОРТ  (ЕКСП.),ПШЕНИЦА,209,117,49.0398865,25.6872261,46.485545,30.748833
станція БІЛОЗІР’Я,станція ОДЕСА-ПОРТ  (ЕКСП.),ЗЕРНО КУКУРУЗЫ,273,126,49.308279,31.9509979,46.485545,30.748833
станція БІЛОПІЛЛЯ,станція МИКОЛАЇВ-ВАНТАЖНИЙ  (ЕКСП.),ПШЕНИЦА,316,279,51.1421206,34.2717682,46.9575,31.975556
станція БІЛЯЇВКА,станція ЧОРНОМОРСЬКА ( ЕКСП. ДЛЯ ТІС ),ПШЕНИЦА,523,270,49.263454,36.306605,46.82775,30.76
станція БЛАКИТНЕ,станція ЖОВТНЕВА  (ЕКСП.),ПШЕНИЦА,329,74,47.409307,33.440762,46.834899,31.967136
станція БЛИЗНЮКИ,станція ЖОВТНЕВА  (ЕКСП.),ПШЕНИЦА,294,129,48.856667,36.555,46.834899,31.967136
станція БЛИЗНЮКИ,станція МИКОЛАЇВ-ВАНТАЖНИЙ  (ЕКСП.),ПШЕНИЦА,709,126,48.856667,36.555,46.9575,31.975556
станція БЛИЗНЮКИ,станція ОДЕСА-ПОРТ  (ЕКСП.),ПШЕНИЦА,214,159,48.856667,36.555,46.485545,30.748833
станція БОБРОВИЦЯ,станція ЧОРНОМОРСЬКА ( ЕКСП. ДЛЯ ТІС ),ЗЕРНО КУКУРУЗЫ,289,270,50.763995,31.3713796,46.82775,30.76
станція БОГДАНІВЦІ,станція ОДЕСА-ПОРТ  (ЕКСП.),ЗЕРНО КУКУРУЗЫ,453,79,49.3754473,27.1448741,46.485545,30.748833
станція БОГДАНІВЦІ,станція ОДЕСА-ПОРТ  (ЕКСП.),ПШЕНИЦА,205,79,49.3754473,27.1448741,46.485545,30.748833
станція БОГДАНІВЦІ,станція ЧОРНОМОРСЬК-ПОРТ-ЕКСПОРТ,ПШЕНИЦА,345,128,49.3754473,27.1448741,46.322273,30.629317
станція БОГОДУХІВ,станція ЧОРНОМОРСЬКА ( ЕКСП. ДЛЯ ТІС ),ЗЕРНО КУКУРУЗЫ,216,274,50.1567086,35.489891,46.82775,30.76
станція БОРОДЯНКА,станція ОДЕСА-ПОРТ  (ЕКСП.),ЗЕРНО КУКУРУЗЫ,316,139,50.628879,29.8912941,46.485545,30.748833
станція БОРЩІВ,станція ОДЕСА-ПОРТ  (ЕКСП.),ПШЕНИЦА,317,144,48.803477,26.060664,46.485545,30.748833
станція БРАТОЛЮБІВКА,станція ЖОВТНЕВА  (ЕКСП.),ПШЕНИЦА,200,89,46.831389,33.853056,46.834899,31.967136
станція БРАТОЛЮБІВКА,станція ОДЕСА-ПОРТ  (ЕКСП.),ПШЕНИЦА,217,76,46.831389,33.853056,46.485545,30.748833
станція БРАТОЛЮБІВКА,станція ЧОРНОМОРСЬКА ( ЕКСП. ДЛЯ ТІС ),ПШЕНИЦА,656,123,46.831389,33.853056,46.82775,30.76
станція БРІВКИ,станція МИКОЛАЇВ-ВАНТАЖНИЙ  (ЕКСП.),ПШЕНИЦА,201,149,49.924255,29.212466,46.9575,31.975556
станція БРОДИ,станція ОДЕСА-ПОРТ  (ЕКСП.),ПШЕНИЦА,315,147,50.074371,25.1408283,46.485545,30.748833
станція БУРЛУК,станція ЖОВТНЕВА  (ЕКСП.),ПШЕНИЦА,514,156,50.035058,37.403634,46.834899,31.967136
станція БУРЛУК,станція КСЕНІЄВЕ (ЕКСП.),ЗЕРНО КУКУРУЗЫ,335,161,50.035058,37.403634,46.36337,30.62144
станція БУЧАЧ,станція КСЕНІЄВЕ (ЕКСП.),ЗЕРНО КУКУРУЗЫ,405,115,49.064831,25.3817159,46.36337,30.62144
станція БУЧАЧ,станція КСЕНІЄВЕ (ЕКСП.),ЯЧМЕНЬ,506,93,49.064831,25.3817159,46.36337,30.62144
станція БУЧАЧ,станція ОДЕСА-ПОРТ  (ЕКСП.),ЗЕРНО КУКУРУЗЫ,607,106,49.064831,25.3817159,46.485545,30.748833
станція БУЧАЧ,станція ОДЕСА-ПОРТ  (ЕКСП.),ПШЕНИЦА,1266,104,49.064831,25.3817159,46.485545,30.748833
станція БУЧАЧ,станція ОДЕСА-ПОРТ  (ЕКСП.),ЯЧМЕНЬ,323,104,49.064831,25.3817159,46.485545,30.748833
станція БУЧАЧ,станція ЧОРНОМОРСЬК-ПОРТ-ЕКСПОРТ,ПШЕНИЦА,422,109,49.064831,25.3817159,46.322273,30.629317
станція БУЧАЧ,станція ЧОРНОМОРСЬКА ( ЕКСП. ДЛЯ ТІС ),ЗЕРНО КУКУРУЗЫ,727,133,49.064831,25.3817159,46.82775,30.76
станція ВАПНЯРКА,станція КСЕНІЄВЕ (ЕКСП.),ЗЕРНО КУКУРУЗЫ,526,107,48.5337039,28.7452533,46.36337,30.62144
станція ВАПНЯРКА,станція ОДЕСА-ПОРТ  (ЕКСП.),ЗЕРНО КУКУРУЗЫ,450,107,48.5337039,28.7452533,46.485545,30.748833
станція ВАПНЯРКА,станція ОДЕСА-ПОРТ  (ЕКСП.),ПШЕНИЦА,348,107,48.5337039,28.7452533,46.485545,30.748833
станція ВАСКАУЦИ,станція МИКОЛАЇВ-ВАНТАЖНИЙ  (ЕКСП.),ПШЕНИЦА,298,71.5,48.465725,27.138708,46.9575,31.975556
станція ВАСКАУЦИ,станція ОДЕСА-ПОРТ  (ЕКСП.),ПШЕНИЦА,373,74,48.465725,27.138708,46.485545,30.748833
станція ВЕНДИЧАНИ,станція ЧОРНОМОРСЬК-ПОРТ-ЕКСПОРТ,ПШЕНИЦА,359,103,48.6066734,27.7806587,46.322273,30.629317
станція ВЕСЕЛИЙ КУТ,станція ЧОРНОМОРСЬК-ПОРТ-ЕКСПОРТ,ЗЕРНО КУКУРУЗЫ,971,47,47.1060754,29.9920901,46.322273,30.629317
станція ВЕСЕЛИЙ КУТ,станція ЧОРНОМОРСЬК-ПОРТ-ЕКСПОРТ,ПШЕНИЦА,2629,71,47.1060754,29.9920901,46.322273,30.629317
станція ВЕСЕЛИЙ КУТ,станція ЧОРНОМОРСЬК-ПОРТ-ЕКСПОРТ,ЯЧМЕНЬ,1136,71,47.1060754,29.9920901,46.322273,30.629317
станція ВЕСЕЛИЙ ПОДІЛ,станція МИКОЛАЇВ-ВАНТАЖНИЙ  (ЕКСП.),ЗЕРНО КУКУРУЗЫ,933,100,49.6031947,33.1876332,46.9575,31.975556
станція ВЕСЕЛИЙ ПОДІЛ,станція МИКОЛАЇВ-ВАНТАЖНИЙ  (ЕКСП.),ПШЕНИЦА,245,100,49.6031947,33.1876332,46.9575,31.975556
станція ВИРИ,станція ЧОРНОМОРСЬКА ( ЕКСП. ДЛЯ ТІС ),ЗЕРНО КУКУРУЗЫ,236,324,51.021104,34.377583,46.82775,30.76
станція ВИРІВКА,станція ЖОВТНЕВА  (ЕКСП.),ЗЕРНО КУКУРУЗЫ,288,282,51.26295,33.173564,46.834899,31.967136
станція ВИРІВКА,станція МИКОЛАЇВ-ВАНТАЖНИЙ  (ЕКСП.),ЗЕРНО КУКУРУЗЫ,1001,278,51.26295,33.173564,46.9575,31.975556
станція ВИСКА,станція ОДЕСА-ПОРТ  (ЕКСП.),ЗЕРНО КУКУРУЗЫ,225,79,48.63385,31.64692,46.485545,30.748833
станція ВІЙТІВЦІ,станція ЖОВТНЕВА  (ЕКСП.),ПШЕНИЦА,369,151,49.497128,26.445956,46.834899,31.967136
станція ВІЙТІВЦІ,станція ОДЕСА-ПОРТ  (ЕКСП.),ЗЕРНО КУКУРУЗЫ,244,106,49.497128,26.445956,46.485545,30.748833
станція ВІЙТІВЦІ,станція ОДЕСА-ПОРТ  (ЕКСП.),ПШЕНИЦА,695,106,49.497128,26.445956,46.485545,30.748833
станція ВІКТОРІЯ,станція ВАДУЛ-СІРЕТ (ЕКСП. ЧФР),ЯЧМЕНЬ,219,35,49.168466,26.6001879,48.023813,25.959627
станція ВІКТОРІЯ,станція ОДЕСА-ПОРТ  (ЕКСП.),ПШЕНИЦА,278,137,49.168466,26.6001879,46.485545,30.748833
станція ВІКТОРІЯ,станція СЛАВУТА I,ЯЧМЕНЬ,496,66,49.168466,26.6001879,50.32072,26.88511
станція ВІКТОРІЯ,станція ЧОРНОМОРСЬК-ПОРТ-ЕКСПОРТ,ЗЕРНО КУКУРУЗЫ,295,98,49.168466,26.6001879,46.322273,30.629317
станція ВІКТОРІЯ,станція ЧОРНОМОРСЬК-ПОРТ-ЕКСПОРТ,ПШЕНИЦА,635,117,49.168466,26.6001879,46.322273,30.629317
станція ВІННИЦЯ,станція КСЕНІЄВЕ (ЕКСП.),ЗЕРНО КУКУРУЗЫ,247,112,49.239428,28.5106651,46.36337,30.62144
станція ВІННИЦЯ,станція ОДЕСА-ПОРТ  (ЕКСП.),ЗЕРНО КУКУРУЗЫ,796,110,49.239428,28.5106651,46.485545,30.748833
станція ВІННИЦЯ,станція ОДЕСА-ПОРТ  (ЕКСП.),ПШЕНИЦА,784,110,49.239428,28.5106651,46.485545,30.748833
станція ВІННИЦЯ,станція ЧОРНОМОРСЬК-ПОРТ-ЕКСПОРТ,ЗЕРНО КУКУРУЗЫ,558,118,49.239428,28.5106651,46.322273,30.629317
станція ВІННИЦЯ,станція ЧОРНОМОРСЬК-ПОРТ-ЕКСПОРТ,ПШЕНИЦА,356,94,49.239428,28.5106651,46.322273,30.629317
станція ВІННИЦЯ,станція ЧОРНОМОРСЬКА-ЕКСП.(ДЛЯ ОПЗ),ЗЕРНО КУКУРУЗЫ,211,124,49.239428,28.5106651,46.82775,30.76
станція ВІННИЦЯ,станція ЧОРНОМОРСЬКА ( ЕКСП. ДЛЯ ТІС ),ЗЕРНО КУКУРУЗЫ,1541,125,49.239428,28.5106651,46.82775,30.76
станція ВІННИЦЯ,станція ЧОРНОМОРСЬКА ( ЕКСП. ДЛЯ ТІС ),ПШЕНИЦА,560,100,49.239428,28.5106651,46.82775,30.76
станція ВЛАСІВКА,станція ЖОВТНЕВА  (ЕКСП.),ЗЕРНО КУКУРУЗЫ,658,145,49.592096,35.7162969,46.834899,31.967136
станція ВЛАСІВКА,станція МИКОЛАЇВ-ВАНТАЖНИЙ  (ЕКСП.),ЗЕРНО КУКУРУЗЫ,713,142,49.592096,35.7162969,46.9575,31.975556
станція ВОЛНОВАХА,станція МИКОЛАЇВ-ВАНТАЖНИЙ  (ЕКСП.),ПШЕНИЦА,277,142,47.6016927,37.4901415,46.9575,31.975556
станція ВОЛОДИМИР-ВОЛИНСЬКИЙ,станція ОДЕСА-ПОРТ  (ЕКСП.),ЗЕРНО КУКУРУЗЫ,346,150,50.8450086,24.3352242,46.485545,30.748833
станція ВОЛОДИМИР-ВОЛИНСЬКИЙ,станція ЧОРНОМОРСЬК-ПОРТ-ЕКСПОРТ,ПШЕНИЦА,431,133,50.8450086,24.3352242,46.322273,30.629317
станція ВОЛОДИМИР-ВОЛИНСЬКИЙ,станція ЧОРНОМОРСЬКА ( ЕКСП. ДЛЯ ТІС ),ПШЕНИЦА,224,161,50.8450086,24.3352242,46.82775,30.76
станція ВОРОЖБА,станція ЧОРНОМОРСЬКА ( ЕКСП. ДЛЯ ТІС ),ЗЕРНО КУКУРУЗЫ,398,256,51.1702058,34.2248818,46.82775,30.76
станція ВОРОЖБА,станція ЧОРНОМОРСЬКА ( ЕКСП. ДЛЯ ТІС ),ПШЕНИЦА,209,256,51.1702058,34.2248818,46.82775,30.76
станція ВОРОНОВИЦЯ,станція КСЕНІЄВЕ (ЕКСП.),ПШЕНИЦА,273,117,49.12341,28.712317,46.36337,30.62144
станція ВОРОНОВИЦЯ,станція ОДЕСА-ПОРТ  (ЕКСП.),ЗЕРНО КУКУРУЗЫ,1275,115,49.12341,28.712317,46.485545,30.748833
станція ВРАДІЇВКА,станція ОДЕСА-ПОРТ  (ЕКСП.),ЗЕРНО КУКУРУЗЫ,268,102,47.87692,30.58557,46.485545,30.748833
станція ГАДЯЧ ІМ. СЕРГІЄНКА МИКОЛИ ІВАНОВИЧА,станція ЖОВТНЕВА  (ЕКСП.),ЗЕРНО КУКУРУЗЫ,2502,137,50.3678365,33.9796724,46.834899,31.967136
станція ГАДЯЧ ІМ. СЕРГІЄНКА МИКОЛИ ІВАНОВИЧА,станція ЖОВТНЕВА  (ЕКСП.),ПШЕНИЦА,592,137,50.3678365,33.9796724,46.834899,31.967136
станція ГАДЯЧ ІМ. СЕРГІЄНКА МИКОЛИ ІВАНОВИЧА,станція КСЕНІЄВЕ (ЕКСП.),ЗЕРНО КУКУРУЗЫ,498,146,50.3678365,33.9796724,46.36337,30.62144
станція ГАДЯЧ ІМ. СЕРГІЄНКА МИКОЛИ ІВАНОВИЧА,станція МИКОЛАЇВ-ВАНТАЖНИЙ,ЗЕРНО КУКУРУЗЫ,243,134,50.3678365,33.9796724,46.9576791,31.9758924
станція ГАДЯЧ ІМ. СЕРГІЄНКА МИКОЛИ ІВАНОВИЧА,станція МИКОЛАЇВ-ВАНТАЖНИЙ  (ЕКСП.),ЗЕРНО КУКУРУЗЫ,1876,134,50.3678365,33.9796724,46.9575,31.975556
станція ГАДЯЧ ІМ. СЕРГІЄНКА МИКОЛИ ІВАНОВИЧА,станція МИКОЛАЇВ-ВАНТАЖНИЙ  (ЕКСП.),ПШЕНИЦА,656,134,50.3678365,33.9796724,46.9575,31.975556
станція ГАЙСИН,станція ОДЕСА-ПОРТ  (ЕКСП.),ЗЕРНО КУКУРУЗЫ,876,111,48.795178,29.39161,46.485545,30.748833
станція ГАЙСИН,станція ОДЕСА-ПОРТ  (ЕКСП.),ПШЕНИЦА,673,138,48.795178,29.39161,46.485545,30.748833
станція ГАЙСИН,станція ЧОРНОМОРСЬК-ПОРТ,ЗЕРНО КУКУРУЗЫ,310,131.5,48.795178,29.39161,46.32227,30.62932
станція ГАЙСИН,станція ЧОРНОМОРСЬКА-ЕКСП.(ДЛЯ ОПЗ),ЗЕРНО КУКУРУЗЫ,678,87,48.795178,29.39161,46.82775,30.76
станція ГАЛЕЩИНА,станція ЧОРНОМОРСЬК-ПОРТ-ЕКСПОРТ,ЗЕРНО КУКУРУЗЫ,246,115,49.1706424,33.7543946,46.322273,30.629317
станція ГАЛЕЩИНА,станція ЧОРНОМОРСЬК-ПОРТ-ЕКСПОРТ,ПШЕНИЦА,364,144,49.1706424,33.7543946,46.322273,30.629317
станція ГАЛКА,станція МИКОЛАЇВ-ВАНТАЖНИЙ  (ЕКСП.),ЗЕРНО КУКУРУЗЫ,1016,149,50.706484,32.191208,46.9575,31.975556
станція ГАННІВКА,станція ЖОВТНЕВА  (ЕКСП.),ЗЕРНО КУКУРУЗЫ,590,112,49.2370426,33.9002971,46.834899,31.967136
станція ГАННІВКА,станція МИКОЛАЇВ-ВАНТАЖНИЙ  (ЕКСП.),ЗЕРНО КУКУРУЗЫ,479,124,49.2370426,33.9002971,46.9575,31.975556
станція ГАННІВКА,станція ОДЕСА-ПОРТ  (ЕКСП.),ПШЕНИЦА,274,134,49.2370426,33.9002971,46.485545,30.748833
станція ГАННІВКА,станція ЧОРНОМОРСЬК-ПОРТ-ЕКСПОРТ,ЗЕРНО КУКУРУЗЫ,301,148,49.2370426,33.9002971,46.322273,30.629317
станція ГЛОБИНЕ,станція ЖОВТНЕВА  (ЕКСП.),ЗЕРНО КУКУРУЗЫ,962,129,49.399085,33.2271859,46.834899,31.967136
станція ГЛОБИНЕ,станція МИКОЛАЇВ-ВАНТАЖНИЙ,ЗЕРНО КУКУРУЗЫ,938,125,49.399085,33.2271859,46.9576791,31.9758924
станція ГЛОБИНЕ,станція МИКОЛАЇВ-ВАНТАЖНИЙ,ПШЕНИЦА,324,125,49.399085,33.2271859,46.9576791,31.9758924
станція ГЛОБИНЕ,станція МИКОЛАЇВ-ВАНТАЖНИЙ  (ЕКСП.),ЗЕРНО КУКУРУЗЫ,2002,125,49.399085,33.2271859,46.9575,31.975556
станція ГЛОБИНЕ,станція ОДЕСА-ПОРТ  (ЕКСП.),ЗЕРНО КУКУРУЗЫ,415,134,49.399085,33.2271859,46.485545,30.748833
станція ГЛОБИНЕ,станція ОДЕСА-ПОРТ  (ЕКСП.),ПШЕНИЦА,358,134,49.399085,33.2271859,46.485545,30.748833
станція ГЛОБИНЕ,станція ЧОРНОМОРСЬК-ПОРТ-ЕКСПОРТ,ЗЕРНО КУКУРУЗЫ,944,148,49.399085,33.2271859,46.322273,30.629317
станція ГЛОБИНЕ,станція ЧОРНОМОРСЬК-ПОРТ-ЕКСПОРТ,ПШЕНИЦА,543,148,49.399085,33.2271859,46.322273,30.629317
станція ГЛУХІВ,станція ЖОВТНЕВА  (ЕКСП.),ЗЕРНО КУКУРУЗЫ,452,318,51.679907,33.938458,46.834899,31.967136
станція ГЛУХІВ,станція ЧОРНОМОРСЬКА ( ЕКСП. ДЛЯ ТІС ),ЗЕРНО КУКУРУЗЫ,222,354,51.679907,33.938458,46.82775,30.76
станція ГНІВАНЬ,станція КСЕНІЄВЕ (ЕКСП.),ЗЕРНО КУКУРУЗЫ,268,106,49.1023539,28.3299434,46.36337,30.62144
станція ГНІВАНЬ,станція ЧОРНОМОРСЬК-ПОРТ-ЕКСПОРТ,ЗЕРНО КУКУРУЗЫ,872,111,49.1023539,28.3299434,46.322273,30.629317
станція ГНІВАНЬ,станція ЧОРНОМОРСЬК-ПОРТ-ЕКСПОРТ,ПШЕНИЦА,242,100,49.1023539,28.3299434,46.322273,30.629317
станція ГНІДАВА,станція ЧОРНОМОРСЬК-ПОРТ-ЕКСПОРТ,ПШЕНИЦА,260,143,50.7135044,25.3198979,46.322273,30.629317
станція ГНІДАВА,станція ЧОРНОМОРСЬКА ( ЕКСП. ДЛЯ ТІС ),ПШЕНИЦА,380,148.5,50.7135044,25.3198979,46.82775,30.76
станція ГНІЗДИЧІВ,станція ОДЕСА-ПОРТ  (ЕКСП.),ЗЕРНО КУКУРУЗЫ,214,138,49.32879,24.105971,46.485545,30.748833
станція ГОЛЕНДРИ,станція ОДЕСА-ПОРТ  (ЕКСП.),ПШЕНИЦА,225,121,49.565771,28.7194935,46.485545,30.748833
станція ГОЛОВАНІВСЬК,станція ОДЕСА-ПОРТ  (ЕКСП.),ЗЕРНО КУКУРУЗЫ,245,94,48.359396,30.3974229,46.485545,30.748833
станція ГОЛОВАНІВСЬК,станція ОДЕСА-ПОРТ  (ЕКСП.),ПШЕНИЦА,760,94,48.359396,30.3974229,46.485545,30.748833
станція ГОРОДЕНКА-ЗАВОД,станція КСЕНІЄВЕ (ЕКСП.),ЗЕРНО КУКУРУЗЫ,442,95,48.6823182,25.476688,46.36337,30.62144
станція ГОРОДЕНКА-ЗАВОД,станція ОДЕСА-ПОРТ  (ЕКСП.),ЗЕРНО КУКУРУЗЫ,708,84,48.6823182,25.476688,46.485545,30.748833
станція ГОРОДЕНКА-ЗАВОД,станція ОДЕСА-ПОРТ  (ЕКСП.),ПШЕНИЦА,328,70,48.6823182,25.476688,46.485545,30.748833
станція ГОРОДЕНКА-ЗАВОД,станція ЧОРНОМОРСЬК-ПОРТ-ЕКСПОРТ,ПШЕНИЦА,221,125,48.6823182,25.476688,46.322273,30.629317
станція ГОРОДЕНКА-ЗАВОД,станція ЧОРНОМОРСЬКА ( ЕКСП. ДЛЯ ТІС ),ПШЕНИЦА,332,52,48.6823182,25.476688,46.82775,30.76
станція ГРАБАРІВКА,станція ЖОВТНЕВА  (ЕКСП.),ЗЕРНО КУКУРУЗЫ,386,140,50.366267,32.404354,46.834899,31.967136
станція ГРАБАРІВКА,станція МИКОЛАЇВ-ВАНТАЖНИЙ  (ЕКСП.),ЗЕРНО КУКУРУЗЫ,282,138,50.366267,32.404354,46.9575,31.975556
станція ГРЕБІНКА,станція ЖОВТНЕВА  (ЕКСП.),ЗЕРНО КУКУРУЗЫ,439,132,50.1217045,32.4330974,46.834899,31.967136
станція ГРЕБІНКА,станція МИКОЛАЇВ-ВАНТАЖНИЙ  (ЕКСП.),ЗЕРНО КУКУРУЗЫ,1023,104,50.1217045,32.4330974,46.9575,31.975556
станція ДЕРАЖНЯ,станція ОДЕСА-ПОРТ  (ЕКСП.),ПШЕНИЦА,216,101,49.26728,27.4305996,46.485545,30.748833
станція ДЕРЕНІВКА,станція ОДЕСА-ПОРТ  (ЕКСП.),ПШЕНИЦА,234,109,49.239925,25.770231,46.485545,30.748833
станція ДЖУЛИНКА,станція КСЕНІЄВЕ (ЕКСП.),ЗЕРНО КУКУРУЗЫ,437,109,48.457762,29.738227,46.36337,30.62144
станція ДЖУЛИНКА,станція ЧОРНОМОРСЬК-ПОРТ-ЕКСПОРТ,ЗЕРНО КУКУРУЗЫ,214,115,48.457762,29.738227,46.322273,30.629317
станція ДЖУЛИНКА,станція ЧОРНОМОРСЬКА ( ЕКСП. ДЛЯ ТІС ),ЗЕРНО КУКУРУЗЫ,540,123,48.457762,29.738227,46.82775,30.76
станція ДЖУЛИНКА,станція ЧОРНОМОРСЬКА ( ЕКСП. ДЛЯ ТІС ),ПШЕНИЦА,476,123,48.457762,29.738227,46.82775,30.76
станція ДНІПРО-ЛІСКИ,станція ОДЕСА-ПОРТ  (ЕКСП.),ЗЕРНО ГОРОХА,314,104,48.401389,34.991389,46.485545,30.748833
станція ДОЛИНСЬКА,станція ПРИБУЗЬКА  (ЕКСП.),ЗЕРНО КУКУРУЗЫ,337,80,48.1153645,32.7604175,46.862121,32.0406991
станція ДОЛИНСЬКА,станція ПРИБУЗЬКА  (ЕКСП.),ПШЕНИЦА,207,80,48.1153645,32.7604175,46.862121,32.0406991
станція ДРАБОВЕ-БАРЯТИНСЬКЕ,станція ОДЕСА-ПОРТ  (ЕКСП.),ЗЕРНО КУКУРУЗЫ,2209,147,49.9594926,32.3045112,46.485545,30.748833
станція ДУБНО,станція ГУМЕНЦІ,ЗЕРНО КУКУРУЗЫ,394,99,50.3867622,25.7527362,48.770473,26.606396
станція ДУБНО,станція ІЗОВ (ЕКСП. ПКП),ЗЕРНО КУКУРУЗЫ,268,92,50.3867622,25.7527362,50.828474,24.059367
станція ДУБНО,станція ОДЕСА-ПОРТ  (ЕКСП.),ПШЕНИЦА,369,152,50.3867622,25.7527362,46.485545,30.748833
станція ДУБОВ’ЯЗІВКА,станція ОДЕСА-ПОРТ  (ЕКСП.),ПШЕНИЦА,381,300,51.1296375,33.3778584,46.485545,30.748833
станція ДУБОВ’ЯЗІВКА,станція РОГАНЬ,ЯЧМЕНЬ,303,83,51.1296375,33.3778584,49.902763,36.431533
станція ДУБОВ’ЯЗІВКА,станція ЧОРНОМОРСЬКА ( ЕКСП. ДЛЯ ТІС ),ЗЕРНО КУКУРУЗЫ,1046,322,51.1296375,33.3778584,46.82775,30.76
станція ДУНАЇВЦІ,станція ОДЕСА-ПОРТ  (ЕКСП.),ЗЕРНО КУКУРУЗЫ,419,138,49.0203618,26.8362496,46.485545,30.748833
станція ДУНАЇВЦІ,станція ОДЕСА-ПОРТ  (ЕКСП.),ПШЕНИЦА,932,138,49.0203618,26.8362496,46.485545,30.748833
станція ЄМИЛІВКА,станція ОДЕСА-ПОРТ  (ЕКСП.),ЗЕРНО КУКУРУЗЫ,458,60,48.338062,30.5987929,46.485545,30.748833
станція ЄМИЛІВКА,станція ЧОРНОМОРСЬКА-ЕКСП.(ДЛЯ ОПЗ),ЗЕРНО КУКУРУЗЫ,249,69,48.338062,30.5987929,46.82775,30.76
станція ЖЕРЕБКОВЕ,станція ОДЕСА-ПОРТ  (ЕКСП.),ПШЕНИЦА,419,82,47.83652,29.87632,46.485545,30.748833
станція ЖЕРЕБКОВЕ,станція ЧОРНОМОРСЬК-ПОРТ,ЗЕРНО КУКУРУЗЫ,223,53,47.83652,29.87632,46.32227,30.62932
станція ЖЕРЕБКОВЕ,станція ЧОРНОМОРСЬК-ПОРТ-ЕКСПОРТ,ПШЕНИЦА,556,89,47.83652,29.87632,46.322273,30.629317
станція ЖЕРЕБКОВЕ,станція ЧОРНОМОРСЬКА ( ЕКСП. ДЛЯ ТІС ),ЗЕРНО КУКУРУЗЫ,558,99,47.83652,29.87632,46.82775,30.76
станція ЖЕРЕБКОВЕ,станція ЧОРНОМОРСЬКА ( ЕКСП. ДЛЯ ТІС ),ПШЕНИЦА,746,74,47.83652,29.87632,46.82775,30.76
станція ЖЕРЕБКОВЕ,станція ЧОРНОМОРСЬКА ( ЕКСП. ДЛЯ ТІС ),ЯЧМЕНЬ,662,99,47.83652,29.87632,46.82775,30.76
станція ЖМЕРИНКА,станція ОДЕСА-ПОРТ  (ЕКСП.),ЗЕРНО КУКУРУЗЫ,482,131.5,49.0346627,28.1115142,46.485545,30.748833
станція ЖУРАВЛІВКА,станція ОДЕСА-ПОРТ  (ЕКСП.),ПШЕНИЦА,218,82,48.601219,28.720352,46.485545,30.748833
станція ЖУРАВЛІВКА,станція ЧОРНОМОРСЬК-ПОРТ,ПШЕНИЦА,424,70,48.601219,28.720352,46.32227,30.62932
станція ЖУРАВЛІВКА,станція ЧОРНОМОРСЬК-ПОРТ-ЕКСПОРТ,ПШЕНИЦА,451,117,48.601219,28.720352,46.322273,30.629317
станція ЗАКУПНЕ,станція ОДЕСА-ПОРТ  (ЕКСП.),СОЛОД В ЗЕРНЕ,690,115,49.108364,26.317903,46.485545,30.748833
станція ЗАПЛАЗИ,станція ІЗМАЇЛ  (ЕКСП.),ЗЕРНО КУКУРУЗЫ,573,132,47.8592,30.1234,45.3600096,28.812532
станція ЗАПЛАЗИ,станція ІЗМАЇЛ  (ЕКСП.),ПШЕНИЦА,363,132,47.8592,30.1234,45.3600096,28.812532
станція ЗАПЛАЗИ,станція КСЕНІЄВЕ (ЕКСП.),ПШЕНИЦА,235,89,47.8592,30.1234,46.36337,30.62144
станція ЗАПЛАЗИ,станція ОДЕСА-ПОРТ  (ЕКСП.),ЗЕРНО КУКУРУЗЫ,331,90,47.8592,30.1234,46.485545,30.748833
станція ЗАПЛАЗИ,станція ОДЕСА-ПОРТ  (ЕКСП.),ПШЕНИЦА,217,67,47.8592,30.1234,46.485545,30.748833
станція ЗАПЛАЗИ,станція ЧОРНОМОРСЬК-ПОРТ-ЕКСПОРТ,ЗЕРНО КУКУРУЗЫ,548,72,47.8592,30.1234,46.322273,30.629317
станція ЗАПЛАЗИ,станція ЧОРНОМОРСЬК-ПОРТ-ЕКСПОРТ,ПШЕНИЦА,442,72,47.8592,30.1234,46.322273,30.629317
станція ЗАПЛАЗИ,станція ЧОРНОМОРСЬКА ( ЕКСП. ДЛЯ ТІС ),ПШЕНИЦА,371,107,47.8592,30.1234,46.82775,30.76
станція ЗАПЛАЗИ,станція ЧОРНОМОРСЬКА ( ЕКСП. ДЛЯ ТІС ),ЯЧМЕНЬ,315,107,47.8592,30.1234,46.82775,30.76
станція ЗАПОРІЖЖЯ-ВАНТАЖНЕ,станція МИКОЛАЇВ-ВАНТАЖНИЙ,ПШЕНИЦА,303,113,47.855854,35.258617,46.9576791,31.9758924
станція ЗАСУЛЛЯ,станція ЖОВТНЕВА  (ЕКСП.),ЗЕРНО КУКУРУЗЫ,589,137,50.696226,33.4956691,46.834899,31.967136
станція ЗАСУЛЛЯ,станція МИКОЛАЇВ-ВАНТАЖНИЙ  (ЕКСП.),ЗЕРНО КУКУРУЗЫ,402,135,50.696226,33.4956691,46.9575,31.975556
станція ЗАТИШШЯ,станція ЧОРНОМОРСЬКА ( ЕКСП. ДЛЯ ТІС ),ЯЧМЕНЬ,231,67,47.335864,29.878657,46.82775,30.76
станція ЗБАРАЖ,станція ЧОРНОМОРСЬКА ( ЕКСП. ДЛЯ ТІС ),ПШЕНИЦА,512,139,49.677809,25.7629487,46.82775,30.76
станція ЗБАРАЖ,станція ЧОРНОМОРСЬКА ( ЕКСП. ДЛЯ ТІС ),ЯЧМЕНЬ,353,139,49.677809,25.7629487,46.82775,30.76
станція ЗВИНЯЧЕ,станція КСЕНІЄВЕ (ЕКСП.),ПШЕНИЦА,281,146,50.517882,24.908788,46.36337,30.62144
станція ЗВИНЯЧЕ,станція ОДЕСА-ПОРТ  (ЕКСП.),ПШЕНИЦА,506,143,50.517882,24.908788,46.485545,30.748833
станція ЗВИНЯЧЕ,станція ЧОРНОМОРСЬКА ( ЕКСП. ДЛЯ ТІС ),ЗЕРНО КУКУРУЗЫ,214,155,50.517882,24.908788,46.82775,30.76
станція ЗВИНЯЧЕ,станція ЧОРНОМОРСЬКА ( ЕКСП. ДЛЯ ТІС ),ПШЕНИЦА,301,132,50.517882,24.908788,46.82775,30.76
станція ЗОЛОТОНОША I,станція ЖОВТНЕВА  (ЕКСП.),ЗЕРНО КУКУРУЗЫ,864,132,49.6564714,32.0774714,46.834899,31.967136
станція ЗОЛОТОНОША I,станція ЖОВТНЕВА  (ЕКСП.),ПШЕНИЦА,255,99,49.6564714,32.0774714,46.834899,31.967136
станція ЗОЛОТОНОША I,станція МИКОЛАЇВ-ВАНТАЖНИЙ,ЗЕРНО КУКУРУЗЫ,206,96,49.6564714,32.0774714,46.9576791,31.9758924
станція ЗОЛОТОНОША I,станція МИКОЛАЇВ-ВАНТАЖНИЙ  (ЕКСП.),ЗЕРНО КУКУРУЗЫ,2045,96,49.6564714,32.0774714,46.9575,31.975556
станція ЗОЛОТОНОША I,станція МИКОЛАЇВ-ВАНТАЖНИЙ  (ЕКСП.),ПШЕНИЦА,472,128,49.6564714,32.0774714,46.9575,31.975556
станція ЗОЛОТОНОША I,станція ОДЕСА-ПОРТ  (ЕКСП.),ЗЕРНО КУКУРУЗЫ,1163,137,49.6564714,32.0774714,46.485545,30.748833
станція ЗОЛОТОНОША I,станція ОДЕСА-ПОРТ  (ЕКСП.),ПШЕНИЦА,374,109,49.6564714,32.0774714,46.485545,30.748833
станція ЗЯТКІВЦІ,станція ОДЕСА-ПОРТ  (ЕКСП.),ПШЕНИЦА,253,132,48.71035,29.44402,46.485545,30.748833
станція ІЗМАЇЛ,станція ОДЕСА-ПОРТ  (ЕКСП.),ПШЕНИЦА,604,104,45.3600096,28.812532,46.485545,30.748833
станція ІЗМАЇЛ,станція ЧОРНОМОРСЬК-ПОРТ-ЕКСПОРТ,ПШЕНИЦА,280,87,45.3600096,28.812532,46.322273,30.629317
станція ІЗМАЇЛ,станція ЧОРНОМОРСЬКА ( ЕКСП. ДЛЯ ТІС ),ЯЧМЕНЬ,643,121,45.3600096,28.812532,46.82775,30.76
станція КАБАННЕ,станція ЖОВТНЕВА  (ЕКСП.),ПШЕНИЦА,712,134,49.22686,38.21578,46.834899,31.967136
станція КАБАННЕ,станція МИКОЛАЇВ-ВАНТАЖНИЙ,ПШЕНИЦА,397,159,49.22686,38.21578,46.9576791,31.9758924
станція КАБАННЕ,станція МИКОЛАЇВ-ВАНТАЖНИЙ  (ЕКСП.),ПШЕНИЦА,2157,133,49.22686,38.21578,46.9575,31.975556
станція КАБАННЕ,станція ОДЕСА-ПОРТ  (ЕКСП.),ПШЕНИЦА,341,160,49.22686,38.21578,46.485545,30.748833
станція КАЗАНКА,станція ЧОРНОМОРСЬК-ПОРТ-ЕКСПОРТ,ЯЧМЕНЬ,285,100,47.88315,32.7631301,46.322273,30.629317
станція КАЛИНІВКА I,станція ЧОРНОМОРСЬК-ПОРТ-ЕКСПОРТ,ПШЕНИЦА,240,99,49.434894,28.528872,46.322273,30.629317
станція КАМ’ЯНКА,станція ЖОВТНЕВА  (ЕКСП.),ПШЕНИЦА,345,104,49.04679,32.074944,46.834899,31.967136
станція КАМ’ЯНКА,станція ЧОРНОМОРСЬКА-ЕКСП.(ДЛЯ ОПЗ),ЗЕРНО КУКУРУЗЫ,286,89,49.04679,32.074944,46.82775,30.76
станція КАПІТАНІВКА,станція ЖОВТНЕВА  (ЕКСП.),ПШЕНИЦА,220,119,48.915932,31.6996218,46.834899,31.967136
станція КАПІТАНІВКА,станція МИКОЛАЇВ-ВАНТАЖНИЙ  (ЕКСП.),ЗЕРНО КУКУРУЗЫ,408,115,48.915932,31.6996218,46.9575,31.975556
станція КАПІТАНІВКА,станція МИКОЛАЇВ-ВАНТАЖНИЙ  (ЕКСП.),ПШЕНИЦА,611,115,48.915932,31.6996218,46.9575,31.975556
станція КАПІТАНІВКА,станція ОДЕСА-ПОРТ  (ЕКСП.),ЗЕРНО КУКУРУЗЫ,475,117,48.915932,31.6996218,46.485545,30.748833
станція КАПІТАНІВКА,станція ЧОРНОМОРСЬКА-ЕКСП.(ДЛЯ ОПЗ),ЗЕРНО КУКУРУЗЫ,308,83,48.915932,31.6996218,46.82775,30.76
станція КАПІТАНІВКА,станція ЧОРНОМОРСЬКА ( ЕКСП. ДЛЯ ТІС ),ЗЕРНО КУКУРУЗЫ,821,112,48.915932,31.6996218,46.82775,30.76
станція КАПУСТИНЕ,станція ОДЕСА-ПОРТ  (ЕКСП.),ЗЕРНО КУКУРУЗЫ,853,98,48.471449,31.551335,46.485545,30.748833
станція КАПУСТИНЕ,станція ЧОРНОМОРСЬК-ПОРТ-ЕКСПОРТ,ЗЕРНО КУКУРУЗЫ,449,116,48.471449,31.551335,46.322273,30.629317
станція КАПУСТИНЕ,станція ЧОРНОМОРСЬК-ПОРТ-ЕКСПОРТ,ПШЕНИЦА,281,116,48.471449,31.551335,46.322273,30.629317
станція КАПУСТИНЕ,станція ЧОРНОМОРСЬКА ( ЕКСП. ДЛЯ ТІС ),ЗЕРНО КУКУРУЗЫ,381,94,48.471449,31.551335,46.82775,30.76
станція КАРЛІВКА,станція КСЕНІЄВЕ (ЕКСП.),ЗЕРНО КУКУРУЗЫ,536,139,49.455277,35.127453,46.36337,30.62144
станція КАРЛІВКА,станція МИКОЛАЇВ-ВАНТАЖНИЙ  (ЕКСП.),ЗЕРНО КУКУРУЗЫ,2377,125,49.455277,35.127453,46.9575,31.975556
станція КАРЛІВКА,станція ЧОРНОМОРСЬКА-ЕКСП.(ДЛЯ ОПЗ),ЗЕРНО КУКУРУЗЫ,203,145,49.455277,35.127453,46.82775,30.76
станція КАРОЛІНА,станція СЛАВУТА I,ЯЧМЕНЬ,555,97,48.914938,28.971859,50.32072,26.88511
станція КАРОЛІНА,станція ЧОРНОМОРСЬК-ПОРТ-ЕКСПОРТ,ЗЕРНО КУКУРУЗЫ,229,132,48.914938,28.971859,46.322273,30.629317
станція КАХОВКА,станція ЖОВТНЕВА  (ЕКСП.),ПШЕНИЦА,425,73,46.753355,33.4315209,46.834899,31.967136
станція КАХОВКА,станція ОДЕСА-ПОРТ  (ЕКСП.),ЗЕРНО КУКУРУЗЫ,307,69,46.753355,33.4315209,46.485545,30.748833
станція КАХОВКА,станція ОДЕСА-ПОРТ  (ЕКСП.),ПШЕНИЦА,583,87,46.753355,33.4315209,46.485545,30.748833
станція КАХОВКА,станція ОДЕСА-ПОРТ  (ЕКСП.),ЯЧМЕНЬ,302,116,46.753355,33.4315209,46.485545,30.748833
станція КИРИКІВКА,станція МИКОЛАЇВ-ВАНТАЖНИЙ  (ЕКСП.),ПШЕНИЦА,257,142,50.3419644,35.1368596,46.9575,31.975556
станція КІНЕЦЬПІЛЬ,станція ЧОРНОМОРСЬКА ( ЕКСП. ДЛЯ ТІС ),ПШЕНИЦА,270,108,48.0019351,30.785321,46.82775,30.76
станція КНЯЖЕВЕ,станція КСЕНІЄВЕ (ЕКСП.),ЗЕРНО КУКУРУЗЫ,250,77,48.471882,28.81294,46.36337,30.62144
станція КНЯЖЕВЕ,станція ОДЕСА-ПОРТ  (ЕКСП.),ЗЕРНО КУКУРУЗЫ,389,78,48.471882,28.81294,46.485545,30.748833
станція КНЯЖЕВЕ,станція ОДЕСА-ПОРТ  (ЕКСП.),ПШЕНИЦА,1198,104,48.471882,28.81294,46.485545,30.748833
станція КНЯЖЕВЕ,станція ЧОРНОМОРСЬК-ПОРТ,ЗЕРНО КУКУРУЗЫ,210,83,48.471882,28.81294,46.32227,30.62932
станція КНЯЖЕВЕ,станція ЧОРНОМОРСЬК-ПОРТ,ПШЕНИЦА,338,74.5,48.471882,28.81294,46.32227,30.62932
станція КНЯЖЕВЕ,станція ЧОРНОМОРСЬК-ПОРТ-ЕКСПОРТ,ПШЕНИЦА,395,83,48.471882,28.81294,46.322273,30.629317
станція КНЯЖЕВЕ,станція ЧОРНОМОРСЬКА-ЕКСП.(ДЛЯ ОПЗ),ЗЕРНО КУКУРУЗЫ,674,89,48.471882,28.81294,46.82775,30.76
станція КНЯЖЕВЕ,станція ЧОРНОМОРСЬКА ( ЕКСП. ДЛЯ ТІС ),ЗЕРНО КУКУРУЗЫ,479,121,48.471882,28.81294,46.82775,30.76
станція КНЯЖЕВЕ,станція ЧОРНОМОРСЬКА ( ЕКСП. ДЛЯ ТІС ),ПШЕНИЦА,430,121,48.471882,28.81294,46.82775,30.76
станція КНЯЖЕВЕ,станція ЧОРНОМОРСЬКА ( ЕКСП. ДЛЯ ТІС ),ЯЧМЕНЬ,232,60,48.471882,28.81294,46.82775,30.76
станція КОБЕЛЯКИ,станція МИКОЛАЇВ-ВАНТАЖНИЙ  (ЕКСП.),ЗЕРНО КУКУРУЗЫ,385,130,49.2308362,34.103493,46.9575,31.975556
станція КОБЕЛЯКИ,станція ОДЕСА-ПОРТ  (ЕКСП.),ЗЕРНО КУКУРУЗЫ,879,138,49.2308362,34.103493,46.485545,30.748833
станція КОБЕЛЯКИ,станція ОДЕСА-ПОРТ  (ЕКСП.),ПШЕНИЦА,240,138,49.2308362,34.103493,46.485545,30.748833
станція КОДИМА,станція ОДЕСА-ПОРТ  (ЕКСП.),ЗЕРНО КУКУРУЗЫ,309,52,48.1020025,29.1432086,46.485545,30.748833
станція КОДИМА,станція ЧОРНОМОРСЬК-ПОРТ-ЕКСПОРТ,ПШЕНИЦА,208,56,48.1020025,29.1432086,46.322273,30.629317
станція КОЗОВА,станція ЛАДИЖИН,ПШЕНИЦА,207,96,49.4296637,25.1642181,48.609462,29.1503679
станція КОЗОВА,станція ЧОРНОМОРСЬКА ( ЕКСП. ДЛЯ ТІС ),ПШЕНИЦА,455,143,49.4296637,25.1642181,46.82775,30.76
станція КОНОНІВКА,станція ХЕРСОН-ПОРТ (ПЕРЕВ.)(ЕКСП.)(РІЧКОВИЙ),ЗЕРНО КУКУРУЗЫ,232,112,50.177331,32.1087141,46.630041,32.568526
станція КОРИСТІВКА,станція ЖОВТНЕВА  (ЕКСП.),ЗЕРНО КУКУРУЗЫ,296,95,48.7319283,33.066253,46.834899,31.967136
станція КОРИСТІВКА,станція МИКОЛАЇВ-ВАНТАЖНИЙ  (ЕКСП.),ЗЕРНО КУКУРУЗЫ,860,91,48.7319283,33.066253,46.9575,31.975556
станція КОРОЛІВКА,станція ЖОВТНЕВА  (ЕКСП.),ЗЕРНО КУКУРУЗЫ,300,104,48.579343,33.224713,46.834899,31.967136
станція КОРОЛІВКА,станція ОДЕСА-ПОРТ  (ЕКСП.),ПШЕНИЦА,217,116,48.579343,33.224713,46.485545,30.748833
станція КОРОЛІВКА,станція ЧОРНОМОРСЬК-ПОРТ-ЕКСПОРТ,ЗЕРНО КУКУРУЗЫ,354,129,48.579343,33.224713,46.322273,30.629317
станція КОРОЛІВКА,станція ЧОРНОМОРСЬКА ( ЕКСП. ДЛЯ ТІС ),ПШЕНИЦА,236,112,48.579343,33.224713,46.82775,30.76
станція КОРСУНЬ,станція МИКОЛАЇВ-ВАНТАЖНИЙ  (ЕКСП.),ЗЕРНО КУКУРУЗЫ,538,132,49.4300146,31.3117628,46.9575,31.975556
станція КРАСИЛІВ,станція ОДЕСА-ПОРТ  (ЕКСП.),ПШЕНИЦА,430,105,49.6698356,27.0131238,46.485545,30.748833
станція КРАСИЛІВ,станція ЧОРНОМОРСЬК-ПОРТ-ЕКСПОРТ,ПШЕНИЦА,390,113,49.6698356,27.0131238,46.322273,30.629317
станція КРАСИЛІВ,станція ЧОРНОМОРСЬКА ( ЕКСП. ДЛЯ ТІС ),ПШЕНИЦА,319,99,49.6698356,27.0131238,46.82775,30.76
станція КРАСНЕ,станція ЧОРНОМОРСЬКА ( ЕКСП. ДЛЯ ТІС ),ПШЕНИЦА,308,152,49.9172135,24.6159582,46.82775,30.76
станція КРЕМЕНЕЦЬ,станція ОДЕСА-ПОРТ  (ЕКСП.),ЗЕРНО КУКУРУЗЫ,644,114,50.121024,25.7144149,46.485545,30.748833
станція КРЕМЕНЕЦЬ,станція ЧОРНОМОРСЬКА ( ЕКСП. ДЛЯ ТІС ),ПШЕНИЦА,361,144,50.121024,25.7144149,46.82775,30.76
станція КРЕМЕНЧУК,станція МИКОЛАЇВ-ВАНТАЖНИЙ  (ЕКСП.),ЗЕРНО КУКУРУЗЫ,388,111,49.0678972,33.4277227,46.9575,31.975556
станція КРИЖОПІЛЬ,станція КСЕНІЄВЕ (ЕКСП.),ЗЕРНО КУКУРУЗЫ,204,99,48.3793207,28.8652,46.36337,30.62144
станція КРИЖОПІЛЬ,станція КСЕНІЄВЕ (ЕКСП.),ПШЕНИЦА,474,99,48.3793207,28.8652,46.36337,30.62144
станція КРИЖОПІЛЬ,станція ОДЕСА-ПОРТ  (ЕКСП.),ЗЕРНО КУКУРУЗЫ,2638,100,48.3793207,28.8652,46.485545,30.748833
станція КРИЖОПІЛЬ,станція ОДЕСА-ПОРТ  (ЕКСП.),ПШЕНИЦА,3121,100,48.3793207,28.8652,46.485545,30.748833
станція КРИЖОПІЛЬ,станція ОДЕСА-ПОРТ  (ЕКСП.),ЯЧМЕНЬ,558,100,48.3793207,28.8652,46.485545,30.748833
станція КРОЛЕВЕЦЬ,станція МИКОЛАЇВ-ВАНТАЖНИЙ  (ЕКСП.),ЗЕРНО КУКУРУЗЫ,2371,291,51.5513099,33.3628093,46.9575,31.975556
станція КРОПИВНИЦЬКИЙ,станція ЖОВТНЕВА  (ЕКСП.),ЗЕРНО КУКУРУЗЫ,207,99,48.5239679,32.258731,46.834899,31.967136
станція КРОПИВНИЦЬКИЙ,станція МИКОЛАЇВ-ВАНТАЖНИЙ  (ЕКСП.),ЗЕРНО КУКУРУЗЫ,368,96,48.5239679,32.258731,46.9575,31.975556
станція КРОПИВНИЦЬКИЙ,станція МИКОЛАЇВ-ВАНТАЖНИЙ  (ЕКСП.),ПШЕНИЦА,322,96,48.5239679,32.258731,46.9575,31.975556
станція КРОПИВНИЦЬКИЙ,станція ОДЕСА-ПОРТ  (ЕКСП.),ЗЕРНО КУКУРУЗЫ,1361,87,48.5239679,32.258731,46.485545,30.748833
станція КРОПИВНИЦЬКИЙ,станція ОДЕСА-ПОРТ  (ЕКСП.),ПШЕНИЦА,591,116,48.5239679,32.258731,46.485545,30.748833
станція КРОПИВНИЦЬКИЙ,станція ЧОРНОМОРСЬК-ПОРТ-ЕКСПОРТ,ПШЕНИЦА,271,101,48.5239679,32.258731,46.322273,30.629317
станція КРОПИВНИЦЬКИЙ,станція ЧОРНОМОРСЬКА ( ЕКСП. ДЛЯ ТІС ),ЗЕРНО КУКУРУЗЫ,274,112,48.5239679,32.258731,46.82775,30.76
станція КРОПИВНИЦЬКИЙ,станція ЧОРНОМОРСЬКА ( ЕКСП. ДЛЯ ТІС ),ПШЕНИЦА,217,112,48.5239679,32.258731,46.82775,30.76
станція КРОШНЯ,станція ОДЕСА-ПОРТ  (ЕКСП.),ЗЕРНО КУКУРУЗЫ,260,145,50.294948,28.67092,46.485545,30.748833
станція КРОШНЯ,станція ЧОРНОМОРСЬКА ( ЕКСП. ДЛЯ ТІС ),ПШЕНИЦА,237,129,50.294948,28.67092,46.82775,30.76
станція КУЗЕМІВКА,станція МИКОЛАЇВ-ВАНТАЖНИЙ  (ЕКСП.),ПШЕНИЦА,490,150,49.5210518,37.9593964,46.9575,31.975556
станція КУЦІВКА,станція ЖОВТНЕВА  (ЕКСП.),ПШЕНИЦА,1059,63,48.3133346,32.7920153,46.834899,31.967136
станція КУЦІВКА,станція МИКОЛАЇВ-ВАНТАЖНИЙ  (ЕКСП.),ЗЕРНО КУКУРУЗЫ,442,90,48.3133346,32.7920153,46.9575,31.975556
станція КУЦІВКА,станція МИКОЛАЇВ-ВАНТАЖНИЙ  (ЕКСП.),ПШЕНИЦА,934,90,48.3133346,32.7920153,46.9575,31.975556
станція ЛАДИЖИН,станція ОДЕСА-ПОРТ  (ЕКСП.),ПШЕНИЦА,371,122,48.609462,29.1503679,46.485545,30.748833
станція ЛАНІВЦІ,станція ОДЕСА-ПОРТ  (ЕКСП.),ЗЕРНО КУКУРУЗЫ,472,135,49.874091,26.083757,46.485545,30.748833
станція ЛЕЛЕКІВКА,станція ОДЕСА-ПОРТ  (ЕКСП.),ЗЕРНО КУКУРУЗЫ,283,84,48.5185204,32.1242249,46.485545,30.748833
станція ЛЕПЕСІВКА,станція ОДЕСА-ПОРТ  (ЕКСП.),ЗЕРНО КУКУРУЗЫ,539,137,49.955968,26.215383,46.485545,30.748833
станція ЛЕПЕСІВКА,станція ОДЕСА-ПОРТ  (ЕКСП.),ПШЕНИЦА,216,137,49.955968,26.215383,46.485545,30.748833
станція ЛИНОВИЦЯ,станція МИКОЛАЇВ-ВАНТАЖНИЙ,ЗЕРНО КУКУРУЗЫ,227,141,50.472523,32.3761449,46.9576791,31.9758924
станція ЛИНОВИЦЯ,станція МИКОЛАЇВ-ВАНТАЖНИЙ  (ЕКСП.),ЗЕРНО КУКУРУЗЫ,2383,123,50.472523,32.3761449,46.9575,31.975556
станція ЛИНОВИЦЯ,станція МИКОЛАЇВ-ВАНТАЖНИЙ  (ЕКСП.),ПШЕНИЦА,241,127,50.472523,32.3761449,46.9575,31.975556
станція ЛИПОВЕЦЬ,станція ОДЕСА-ПОРТ  (ЕКСП.),ЗЕРНО КУКУРУЗЫ,330,130,49.247279,29.229252,46.485545,30.748833
станція ЛИПОВЕЦЬ,станція ЧОРНОМОРСЬКА-ЕКСП.(ДЛЯ ОПЗ),ПШЕНИЦА,208,94,49.247279,29.229252,46.82775,30.76
станція ЛИХАЧОВЕ,станція ЧОРНОМОРСЬК-ПОРТ-ЕКСПОРТ,ПШЕНИЦА,534,298,49.3823544,36.2086193,46.322273,30.629317
станція ЛОЗОВА,станція ЧОРНОМОРСЬК-ПОРТ-ЕКСПОРТ,ПШЕНИЦА,522,278,48.8914134,36.3182357,46.322273,30.629317
станція ЛЮБАШІВКА,станція КСЕНІЄВЕ (ЕКСП.),ЗЕРНО КУКУРУЗЫ,453,56,47.8456541,30.2697823,46.36337,30.62144
станція ЛЮБАШІВКА,станція КСЕНІЄВЕ (ЕКСП.),ПШЕНИЦА,748,70,47.8456541,30.2697823,46.36337,30.62144
станція ЛЮБАШІВКА,станція КСЕНІЄВЕ (ЕКСП.),ЯЧМЕНЬ,269,93,47.8456541,30.2697823,46.36337,30.62144
станція ЛЮБАШІВКА,станція ОДЕСА-ПОРТ  (ЕКСП.),ПШЕНИЦА,271,70,47.8456541,30.2697823,46.485545,30.748833
станція МАЛИНСЬК,станція ЧОРНОМОРСЬКА-ЕКСП.(ДЛЯ ОПЗ),ЗЕРНО КУКУРУЗЫ,256,95,51.0947949,26.5494898,46.82775,30.76
станція МАР’ЯНІВКА,станція МИКОЛАЇВ-ВАНТАЖНИЙ,ЗЕРНО КУКУРУЗЫ,1382,133,49.494859,26.746056,46.9576791,31.9758924
станція МАР’ЯНІВКА,станція МИКОЛАЇВ-ВАНТАЖНИЙ,ПШЕНИЦА,263,133,49.494859,26.746056,46.9576791,31.9758924
станція МИКУЛИНЦІ-СТРУСІВ,станція ЧОРНОМОРСЬКА ( ЕКСП. ДЛЯ ТІС ),ЗЕРНО КУКУРУЗЫ,214,140,49.359976,25.650095,46.82775,30.76
станція МИРОВА,станція ОДЕСА-ПОРТ  (ЕКСП.),ПШЕНИЦА,274,145,47.770639,34.733211,46.485545,30.748833
станція МИРОВА,станція ЧОРНОМОРСЬКА-ЕКСП.(ДЛЯ ОПЗ),ПШЕНИЦА,265,140,47.770639,34.733211,46.82775,30.76
станція МОНАСТИРИЩЕ,станція ОДЕСА-ПОРТ  (ЕКСП.),ЗЕРНО КУКУРУЗЫ,378,118,49.0052,29.715131,46.485545,30.748833
станція НЕМИРІВ,станція ЧОРНОМОРСЬКА ( ЕКСП. ДЛЯ ТІС ),ЗЕРНО КУКУРУЗЫ,210,137,48.980952,28.873608,46.82775,30.76
станція НЕСВІЧ-ВОЛИНСЬКИЙ,станція ЧОРНОМОРСЬК-ПОРТ-ЕКСПОРТ,ПШЕНИЦА,219,145,50.610923,25.156524,46.322273,30.629317
станція НИЗИ,станція КСЕНІЄВЕ (ЕКСП.),ЗЕРНО КУКУРУЗЫ,287,161,50.774178,34.7648369,46.36337,30.62144
станція НІЖИН,станція ЧОРНОМОРСЬК-ПОРТ-ЕКСПОРТ,ЗЕРНО КУКУРУЗЫ,970,275,51.0179091,31.8888883,46.322273,30.629317
станція НОВОГРАД-ВОЛИНСЬКИЙ I,станція ОДЕСА-ПОРТ  (ЕКСП.),ЗЕРНО КУКУРУЗЫ,562,142,50.597831,27.5931013,46.485545,30.748833
станція НОВОГРАД-ВОЛИНСЬКИЙ I,станція ОДЕСА-ПОРТ  (ЕКСП.),ПШЕНИЦА,407,142,50.597831,27.5931013,46.485545,30.748833
станція НОВОГУПАЛІВКА,станція ЖОВТНЕВА  (ЕКСП.),ПШЕНИЦА,383,131,48.024486,35.4851951,46.834899,31.967136
станція НОВОМИРГОРОД,станція МИКОЛАЇВ-ВАНТАЖНИЙ  (ЕКСП.),ЗЕРНО КУКУРУЗЫ,217,110,48.79488,31.6779301,46.9575,31.975556
станція НОВОМИРГОРОД,станція ОДЕСА-ПОРТ  (ЕКСП.),ЗЕРНО КУКУРУЗЫ,1253,84,48.79488,31.6779301,46.485545,30.748833
станція НОВОМИРГОРОД,станція ЧОРНОМОРСЬКА-ЕКСП.(ДЛЯ ОПЗ),ЗЕРНО КУКУРУЗЫ,267,106,48.79488,31.6779301,46.82775,30.76
станція НОВОМИРГОРОД,станція ЧОРНОМОРСЬКА ( ЕКСП. ДЛЯ ТІС ),ЗЕРНО КУКУРУЗЫ,309,107,48.79488,31.6779301,46.82775,30.76
станція НОВООЛЕКСІЇВКА,станція МИКОЛАЇВ-ВАНТАЖНИЙ,ПШЕНИЦА,230,105,46.209257,34.6323769,46.9576791,31.9758924
станція НОВООЛЕКСІЇВКА,станція МИКОЛАЇВ-ВАНТАЖНИЙ  (ЕКСП.),ПШЕНИЦА,309,105,46.209257,34.6323769,46.9575,31.975556
станція НОВООЛЕКСІЇВКА,станція ОДЕСА-ПОРТ  (ЕКСП.),ПШЕНИЦА,308,132,46.209257,34.6323769,46.485545,30.748833
станція НОВОУКРАЇНКА,станція МИКОЛАЇВ-ВАНТАЖНИЙ  (ЕКСП.),ПШЕНИЦА,231,92,48.3321208,31.5167007,46.9575,31.975556
станція НОВОУКРАЇНКА,станція ОДЕСА-ПОРТ  (ЕКСП.),ЗЕРНО КУКУРУЗЫ,963,94,48.3321208,31.5167007,46.485545,30.748833
станція НОВОУКРАЇНКА,станція ОДЕСА-ПОРТ  (ЕКСП.),ПШЕНИЦА,467,70,48.3321208,31.5167007,46.485545,30.748833
станція НОВОУКРАЇНКА,станція ОДЕСА-ПОРТ  (ЕКСП.),ЯЧМЕНЬ,417,70,48.3321208,31.5167007,46.485545,30.748833
станція НОВОУКРАЇНКА,станція ЧОРНОМОРСЬК-ПОРТ-ЕКСПОРТ,ЗЕРНО КУКУРУЗЫ,248,84,48.3321208,31.5167007,46.322273,30.629317
станція НОВОУКРАЇНКА,станція ЧОРНОМОРСЬК-ПОРТ-ЕКСПОРТ,ПШЕНИЦА,249,112,48.3321208,31.5167007,46.322273,30.629317
станція НОВОУКРАЇНКА,станція ЧОРНОМОРСЬКА-ЕКСП.(ДЛЯ ОПЗ),ЗЕРНО КУКУРУЗЫ,338,52,48.3321208,31.5167007,46.82775,30.76
станція НОВОУКРАЇНКА,станція ЧОРНОМОРСЬКА ( ЕКСП. ДЛЯ ТІС ),ЗЕРНО КУКУРУЗЫ,1173,89,48.3321208,31.5167007,46.82775,30.76
станція НОВОУКРАЇНКА,станція ЧОРНОМОРСЬКА ( ЕКСП. ДЛЯ ТІС ),ПШЕНИЦА,230,89,48.3321208,31.5167007,46.82775,30.76
станція НОВОУКРАЇНКА,станція ЧОРНОМОРСЬКА ( ЕКСП. ДЛЯ ТІС ),ЯЧМЕНЬ,262,89,48.3321208,31.5167007,46.82775,30.76
станція ОВРУЧ,станція ОДЕСА-ПОРТ  (ЕКСП.),ПШЕНИЦА,260,140,51.3249995,28.8173906,46.485545,30.748833
станція ОДЕСА-ПОРТ  (ЕКСП.),станція ЖИТОМИР,РИС ПРОЧИЙ,308,115,46.485545,30.748833,50.2687998,28.6975264
станція ОЛЕКСАНДРІЯ,станція ЧОРНОМОРСЬКА-ЕКСП.(ДЛЯ ОПЗ),ЗЕРНО КУКУРУЗЫ,316,107,48.6740048,33.1326611,46.82775,30.76
станція ОЛИКА,станція КСЕНІЄВЕ (ЕКСП.),ПШЕНИЦА,246,131,50.783106,25.741355,46.36337,30.62144
станція ОЛИКА,станція ОДЕСА-ПОРТ  (ЕКСП.),ПШЕНИЦА,650,155,50.783106,25.741355,46.485545,30.748833
станція ОРАТІВ,станція КСЕНІЄВЕ (ЕКСП.),ЗЕРНО КУКУРУЗЫ,270,126,49.175299,29.3915141,46.36337,30.62144
станція ОСНОВА,станція МИКОЛАЇВ-ВАНТАЖНИЙ  (ЕКСП.),ЗЕРНО КУКУРУЗЫ,295,148,49.9395953,36.2330042,46.9575,31.975556
станція ПАВЛИШ,станція ЖОВТНЕВА  (ЕКСП.),ЗЕРНО КУКУРУЗЫ,414,106,48.9119474,33.3385239,46.834899,31.967136
станція ПАВЛИШ,станція МИКОЛАЇВ-ВАНТАЖНИЙ  (ЕКСП.),ЗЕРНО КУКУРУЗЫ,305,102,48.9119474,33.3385239,46.9575,31.975556
станція ПАВЛИШ,станція МИКОЛАЇВ-ВАНТАЖНИЙ  (ЕКСП.),ПШЕНИЦА,401,102,48.9119474,33.3385239,46.9575,31.975556
станція ПАВЛИШ,станція ОДЕСА-ПОРТ  (ЕКСП.),ПШЕНИЦА,228,136.5,48.9119474,33.3385239,46.485545,30.748833
станція ПАВЛИШ,станція ПРИБУЗЬКА  (ЕКСП.),ЗЕРНО КУКУРУЗЫ,551,77,48.9119474,33.3385239,46.862121,32.0406991
станція ПАВЛИШ,станція ЧОРНОМОРСЬК-ПОРТ-ЕКСПОРТ,ЗЕРНО КУКУРУЗЫ,403,131,48.9119474,33.3385239,46.322273,30.629317
станція ПАЛЬМІРА,станція МИКОЛАЇВ-ВАНТАЖНИЙ,ПШЕНИЦА,407,100,49.76097,32.15311,46.9576791,31.9758924
станція ПАНТАЇВКА,станція МИКОЛАЇВ-ВАНТАЖНИЙ  (ЕКСП.),ЗЕРНО КУКУРУЗЫ,254,85,48.6772502,32.8818364,46.9575,31.975556
станція ПАРТИЗАНИ,станція ЖОВТНЕВА  (ЕКСП.),ПШЕНИЦА,492,133,46.329722,34.749722,46.834899,31.967136
станція ПАРТИЗАНИ,станція МИКОЛАЇВ-ВАНТАЖНИЙ  (ЕКСП.),ПШЕНИЦА,709,110,46.329722,34.749722,46.9575,31.975556
станція ПАРТИЗАНИ,станція МИКОЛАЇВ-ВАНТАЖНИЙ  (ЕКСП.),ЯЧМЕНЬ,221,110,46.329722,34.749722,46.9575,31.975556
станція ПАРТИЗАНИ,станція ОДЕСА-ПОРТ  (ЕКСП.),ПШЕНИЦА,228,136,46.329722,34.749722,46.485545,30.748833
станція ПАРТИЗАНИ,станція ЧОРНОМОРСЬКА-ЕКСП.(ДЛЯ ОПЗ),ПШЕНИЦА,306,131,46.329722,34.749722,46.82775,30.76
станція ПЕТРОПАВЛІВКА,станція ЧОРНОМОРСЬК-ПОРТ-ЕКСПОРТ,ПШЕНИЦА,668,274,48.4572195,36.4347301,46.322273,30.629317
станція ПЕТРОПАВЛІВКА,станція ЧОРНОМОРСЬКА ( ЕКСП. ДЛЯ ТІС ),ПШЕНИЦА,292,151,48.4572195,36.4347301,46.82775,30.76
станція ПЕЧАНІВКА,станція ОДЕСА-ПОРТ  (ЕКСП.),ЗЕРНО КУКУРУЗЫ,322,101,50.0752026,27.8005033,46.485545,30.748833
станція ПИРЯТИН,станція ЖОВТНЕВА  (ЕКСП.),ЗЕРНО КУКУРУЗЫ,872,118,50.23819,32.5059299,46.834899,31.967136
станція ПИРЯТИН,станція КСЕНІЄВЕ (ЕКСП.),ЗЕРНО КУКУРУЗЫ,420,146,50.23819,32.5059299,46.36337,30.62144
станція ПИРЯТИН,станція МИКОЛАЇВ-ВАНТАЖНИЙ  (ЕКСП.),ЗЕРНО КУКУРУЗЫ,1587,133,50.23819,32.5059299,46.9575,31.975556
станція ПІДВОЛОЧИСЬК,станція ЧОРНОМОРСЬК-ПОРТ-ЕКСПОРТ,ПШЕНИЦА,337,148,49.5292884,26.138956,46.322273,30.629317
станція ПОДІЛЬСЬК,станція КСЕНІЄВЕ (ЕКСП.),ЗЕРНО КУКУРУЗЫ,457,67,47.748235,29.5294171,46.36337,30.62144
станція ПОДІЛЬСЬК,станція КСЕНІЄВЕ (ЕКСП.),ЯЧМЕНЬ,282,67,47.748235,29.5294171,46.36337,30.62144
станція ПОДІЛЬСЬК,станція ОДЕСА-ПОРТ  (ЕКСП.),ЗЕРНО КУКУРУЗЫ,1782,68,47.748235,29.5294171,46.485545,30.748833
станція ПОДІЛЬСЬК,станція ЧОРНОМОРСЬК-ПОРТ-ЕКСПОРТ,ПШЕНИЦА,301,94,47.748235,29.5294171,46.322273,30.629317
станція ПОДІЛЬСЬК,станція ЧОРНОМОРСЬКА-ЕКСП.(ДЛЯ ОПЗ),ЗЕРНО КУКУРУЗЫ,286,83,47.748235,29.5294171,46.82775,30.76
станція ПОДІЛЬСЬК,станція ЧОРНОМОРСЬКА-ЕКСП.(ДЛЯ ОПЗ),ПШЕНИЦА,413,83,47.748235,29.5294171,46.82775,30.76
станція ПОДІЛЬСЬК,станція ЧОРНОМОРСЬКА ( ЕКСП. ДЛЯ ТІС ),ЗЕРНО КУКУРУЗЫ,817,85,47.748235,29.5294171,46.82775,30.76
станція ПОДІЛЬСЬК,станція ЧОРНОМОРСЬКА ( ЕКСП. ДЛЯ ТІС ),ПШЕНИЦА,1168,85,47.748235,29.5294171,46.82775,30.76
станція ПОМІЧНА,станція ЧОРНОМОРСЬК-ПОРТ-ЕКСПОРТ,ЗЕРНО КУКУРУЗЫ,204,106,48.2412797,31.4081962,46.322273,30.629317
станція ПОПІЛЬНЯ,станція КСЕНІЄВЕ (ЕКСП.),ЗЕРНО КУКУРУЗЫ,289,141,49.9443357,29.4597706,46.36337,30.62144
станція ПОПІЛЬНЯ,станція МИКОЛАЇВ-ВАНТАЖНИЙ  (ЕКСП.),ЗЕРНО КУКУРУЗЫ,863,144,49.9443357,29.4597706,46.9575,31.975556
станція ПОПІЛЬНЯ,станція ЧОРНОМОРСЬКА-ЕКСП.(ДЛЯ ОПЗ),ЗЕРНО КУКУРУЗЫ,362,123,49.9443357,29.4597706,46.82775,30.76
станція ПРИЛУКИ,станція ЖОВТНЕВА  (ЕКСП.),ПШЕНИЦА,377,147,50.5820914,32.3843273,46.834899,31.967136
станція ПРИШИБ,станція ЧОРНОМОРСЬКА ( ЕКСП. ДЛЯ ТІС ),ПШЕНИЦА,292,270,47.25877,35.32558,46.82775,30.76
станція ПУТИВЛЬ,станція КСЕНІЄВЕ (ЕКСП.),ЗЕРНО КУКУРУЗЫ,238,118,51.2029498,33.8452795,46.36337,30.62144
станція РАДИВИЛІВ,станція КСЕНІЄВЕ (ЕКСП.),ЗЕРНО КУКУРУЗЫ,303,152,50.1284748,25.2516423,46.36337,30.62144
станція РАДИВИЛІВ,станція ОДЕСА-ПОРТ  (ЕКСП.),ЗЕРНО КУКУРУЗЫ,266,149,50.1284748,25.2516423,46.485545,30.748833
станція РАДИВИЛІВ,станція ОДЕСА-ПОРТ  (ЕКСП.),ПШЕНИЦА,835,149,50.1284748,25.2516423,46.485545,30.748833
станція РАДИВИЛІВ,станція ЧОРНОМОРСЬК-ПОРТ-ЕКСПОРТ,ЗЕРНО КУКУРУЗЫ,378,130,50.1284748,25.2516423,46.322273,30.629317
станція РАДИВИЛІВ,станція ЧОРНОМОРСЬК-ПОРТ-ЕКСПОРТ,ПШЕНИЦА,233,130,50.1284748,25.2516423,46.322273,30.629317
станція РАУХІВКА,станція ОДЕСА-ПОРТ  (ЕКСП.),ПШЕНИЦА,554,43,47.1697804,30.8316335,46.485545,30.748833
станція РАУХІВКА,станція ОДЕСА-ПОРТ  (ЕКСП.),ЯЧМЕНЬ,212,42.5,47.1697804,30.8316335,46.485545,30.748833
станція РАУХІВКА,станція ЧОРНОМОРСЬКА-ЕКСП.(ДЛЯ ОПЗ),ПШЕНИЦА,293,34,47.1697804,30.8316335,46.82775,30.76
станція РАУХІВКА,станція ЧОРНОМОРСЬКА ( ЕКСП. ДЛЯ ТІС ),ЗЕРНО КУКУРУЗЫ,506,24,47.1697804,30.8316335,46.82775,30.76
станція РАУХІВКА,станція ЧОРНОМОРСЬКА ( ЕКСП. ДЛЯ ТІС ),ПШЕНИЦА,1187,36,47.1697804,30.8316335,46.82775,30.76
станція РАУХІВКА,станція ЧОРНОМОРСЬКА ( ЕКСП. ДЛЯ ТІС ),ЯЧМЕНЬ,1489,36,47.1697804,30.8316335,46.82775,30.76
станція РАХНИ,станція КСЕНІЄВЕ (ЕКСП.),ЗЕРНО КУКУРУЗЫ,771,120,48.7890156,28.47222,46.36337,30.62144
станція РАХНИ,станція КСЕНІЄВЕ (ЕКСП.),ПШЕНИЦА,573,120,48.7890156,28.47222,46.36337,30.62144
станція РАХНИ,станція ОДЕСА-ПОРТ  (ЕКСП.),ЗЕРНО КУКУРУЗЫ,581,90,48.7890156,28.47222,46.485545,30.748833
станція РАХНИ,станція ОДЕСА-ПОРТ  (ЕКСП.),ПШЕНИЦА,694,90,48.7890156,28.47222,46.485545,30.748833
станція РАХНИ,станція ЧОРНОМОРСЬКА ( ЕКСП. ДЛЯ ТІС ),ЗЕРНО КУКУРУЗЫ,301,82,48.7890156,28.47222,46.82775,30.76
станція РАХНИ,станція ЧОРНОМОРСЬКА ( ЕКСП. ДЛЯ ТІС ),ПШЕНИЦА,644,103,48.7890156,28.47222,46.82775,30.76
станція РІВНЕ,станція ОДЕСА-ПОРТ  (ЕКСП.),ЗЕРНО КУКУРУЗЫ,277,124,50.6277112,26.239901,46.485545,30.748833
станція РІВНЕ,станція ОДЕСА-ПОРТ  (ЕКСП.),ПШЕНИЦА,230,122,50.6277112,26.239901,46.485545,30.748833
станція РІВНЕ,станція ЧОРНОМОРСЬК-ПОРТ-ЕКСПОРТ,ЗЕРНО КУКУРУЗЫ,210,154,50.6277112,26.239901,46.322273,30.629317
станція РОГАНЬ,станція ОДЕСА-ПОРТ  (ЕКСП.),СОЛОД В ЗЕРНЕ,2679,156,49.902763,36.431533,46.485545,30.748833
станція РОГАТИН,станція ГУМЕНЦІ,ЗЕРНО КУКУРУЗЫ,216,73,49.3997817,24.6214515,48.770473,26.606396
станція РОГАТИН,станція КСЕНІЄВЕ (ЕКСП.),ЗЕРНО КУКУРУЗЫ,235,102,49.3997817,24.6214515,46.36337,30.62144
станція РОГАТИН,станція ОДЕСА-ПОРТ  (ЕКСП.),ЗЕРНО КУКУРУЗЫ,511,101,49.3997817,24.6214515,46.485545,30.748833
станція РОГАТИН,станція ЧОРНОМОРСЬКА ( ЕКСП. ДЛЯ ТІС ),ЗЕРНО КУКУРУЗЫ,409,128,49.3997817,24.6214515,46.82775,30.76
станція РОЗДІЛЬНА I,станція ОДЕСА-ПОРТ  (ЕКСП.),ПШЕНИЦА,302,45,46.8502,30.07361,46.485545,30.748833
станція РОЗДІЛЬНА I,станція ЧОРНОМОРСЬК-ПОРТ-ЕКСПОРТ,ПШЕНИЦА,273,55,46.8502,30.07361,46.322273,30.629317
станція РОЗДІЛЬНА I,станція ЧОРНОМОРСЬКА ( ЕКСП. ДЛЯ ТІС ),ПШЕНИЦА,266,47,46.8502,30.07361,46.82775,30.76
станція РОКИТНЕ,станція КСЕНІЄВЕ (ЕКСП.),ЗЕРНО КУКУРУЗЫ,242,133,49.6956,30.5090999,46.36337,30.62144
станція РУБАНКА,станція МИКОЛАЇВ-ВАНТАЖНИЙ  (ЕКСП.),ЗЕРНО КУКУРУЗЫ,249,148,50.937647,32.9451719,46.9575,31.975556
станція РУБАНКА,станція РОГАНЬ,ЯЧМЕНЬ,266,110,50.937647,32.9451719,49.902763,36.431533
станція РУБІЖНЕ,станція ЖОВТНЕВА  (ЕКСП.),ПШЕНИЦА,427,125,49.0241813,38.3538418,46.834899,31.967136
станція РУБІЖНЕ,станція МИКОЛАЇВ-ВАНТАЖНИЙ  (ЕКСП.),ПШЕНИЦА,277,136,49.0241813,38.3538418,46.9575,31.975556
станція РУБЛІВКА,станція МИКОЛАЇВ-ВАНТАЖНИЙ  (ЕКСП.),ЗЕРНО КУКУРУЗЫ,343,119,49.2499477,33.3352365,46.9575,31.975556
станція РЯДОВА,станція МИКОЛАЇВ-ВАНТАЖНИЙ  (ЕКСП.),ЗЕРНО КУКУРУЗЫ,222,87,48.229267,33.534595,46.9575,31.975556
станція РЯСНА,станція ОДЕСА-ПОРТ  (ЕКСП.),ПШЕНИЦА,259,145,49.874659,23.957788,46.485545,30.748833
станція САРАТА,станція КСЕНІЄВЕ (ЕКСП.),ПШЕНИЦА,585,63,46.0159204,29.6789749,46.36337,30.62144
станція САРАТА,станція КСЕНІЄВЕ (ЕКСП.),ЯЧМЕНЬ,909,63,46.0159204,29.6789749,46.36337,30.62144
станція САРАТА,станція МИКОЛАЇВ-ВАНТАЖНИЙ  (ЕКСП.),ПШЕНИЦА,210,78,46.0159204,29.6789749,46.9575,31.975556
станція САРАТА,станція ОДЕСА-ПОРТ  (ЕКСП.),ПШЕНИЦА,3394,89,46.0159204,29.6789749,46.485545,30.748833
станція САРАТА,станція ОДЕСА-ПОРТ  (ЕКСП.),ЯЧМЕНЬ,456,89,46.0159204,29.6789749,46.485545,30.748833
станція САРАТА,станція ЧОРНОМОРСЬК-ПОРТ-ЕКСПОРТ,ПШЕНИЦА,402,64,46.0159204,29.6789749,46.322273,30.629317
станція САРАТА,станція ЧОРНОМОРСЬК-ПОРТ-ЕКСПОРТ,ЯЧМЕНЬ,249,64,46.0159204,29.6789749,46.322273,30.629317
станція САРАТА,станція ЧОРНОМОРСЬКА ( ЕКСП. ДЛЯ ТІС ),ПШЕНИЦА,586,76,46.0159204,29.6789749,46.82775,30.76
станція СВАТОВЕ,станція ЖОВТНЕВА  (ЕКСП.),ПШЕНИЦА,488,157,49.40891,38.1644926,46.834899,31.967136
станція СВАТОВЕ,станція КСЕНІЄВЕ (ЕКСП.),ПШЕНИЦА,200,138,49.40891,38.1644926,46.36337,30.62144
станція СВАТОВЕ,станція МИКОЛАЇВ-ВАНТАЖНИЙ,ЗЕРНО КУКУРУЗЫ,789,155,49.40891,38.1644926,46.9576791,31.9758924
станція СВАТОВЕ,станція МИКОЛАЇВ-ВАНТАЖНИЙ,ПШЕНИЦА,5659,155,49.40891,38.1644926,46.9576791,31.9758924
станція СВАТОВЕ,станція МИКОЛАЇВ-ВАНТАЖНИЙ,"СОРГО (ГАОЛЯН,ДЖУГАРА И ДР.)",388,155,49.40891,38.1644926,46.9576791,31.9758924
станція СВАТОВЕ,станція МИКОЛАЇВ-ВАНТАЖНИЙ,ЯЧМЕНЬ,263,155,49.40891,38.1644926,46.9576791,31.9758924
станція СВАТОВЕ,станція МИКОЛАЇВ-ВАНТАЖНИЙ  (ЕКСП.),ЗЕРНО КУКУРУЗЫ,249,155,49.40891,38.1644926,46.9575,31.975556
станція СВАТОВЕ,станція МИКОЛАЇВ-ВАНТАЖНИЙ  (ЕКСП.),ПШЕНИЦА,881,155,49.40891,38.1644926,46.9575,31.975556
станція СВАТОВЕ,станція ОДЕСА-ПОРТ  (ЕКСП.),ПШЕНИЦА,370,156,49.40891,38.1644926,46.485545,30.748833
станція СВАТОВЕ,станція ЧОРНОМОРСЬК-ПОРТ-ЕКСПОРТ,ПШЕНИЦА,1070,165,49.40891,38.1644926,46.322273,30.629317
станція СВІТЛОВОДСЬК,станція ЖОВТНЕВА  (ЕКСП.),ЗЕРНО КУКУРУЗЫ,461,125,49.045692,33.254924,46.834899,31.967136
станція СВІТЛОВОДСЬК,станція МИКОЛАЇВ-ВАНТАЖНИЙ  (ЕКСП.),ЗЕРНО КУКУРУЗЫ,863,121,49.045692,33.254924,46.9575,31.975556
станція СВІТЛОВОДСЬК,станція ОДЕСА-ПОРТ  (ЕКСП.),ЗЕРНО КУКУРУЗЫ,289,131,49.045692,33.254924,46.485545,30.748833
станція СЕРДЮКІВКА,станція ОДЕСА-ПОРТ  (ЕКСП.),ЗЕРНО КУКУРУЗЫ,675,123,49.037918,31.798619,46.485545,30.748833
станція СЕРДЮКІВКА,станція ОДЕСА-ПОРТ  (ЕКСП.),ПШЕНИЦА,284,92,49.037918,31.798619,46.485545,30.748833
станція СЕРДЮКІВКА,станція ЧОРНОМОРСЬКА ( ЕКСП. ДЛЯ ТІС ),ЗЕРНО КУКУРУЗЫ,266,119,49.037918,31.798619,46.82775,30.76
станція СИГНАЇВКА,станція ЖОВТНЕВА  (ЕКСП.),ЗЕРНО КУКУРУЗЫ,223,127,49.0572906,31.4977695,46.834899,31.967136
станція СИГНАЇВКА,станція МИКОЛАЇВ-ВАНТАЖНИЙ  (ЕКСП.),ЗЕРНО КУКУРУЗЫ,2098,123,49.0572906,31.4977695,46.9575,31.975556
станція СИГНАЇВКА,станція МИКОЛАЇВ-ВАНТАЖНИЙ  (ЕКСП.),ПШЕНИЦА,1095,123,49.0572906,31.4977695,46.9575,31.975556
станція СИГНАЇВКА,станція ОДЕСА-ПОРТ  (ЕКСП.),ЗЕРНО КУКУРУЗЫ,339,133,49.0572906,31.4977695,46.485545,30.748833
станція СИГНАЇВКА,станція ЧОРНОМОРСЬК-ПОРТ-ЕКСПОРТ,ЗЕРНО КУКУРУЗЫ,391,147,49.0572906,31.4977695,46.322273,30.629317
станція СІРОГОЗИ,станція ЧОРНОМОРСЬКА ( ЕКСП. ДЛЯ ТІС ),ПШЕНИЦА,312,102,46.94228,34.37462,46.82775,30.76
станція СКАЛА-ПОДІЛЬСЬКА,станція ОДЕСА-ПОРТ  (ЕКСП.),ПШЕНИЦА,220,146,48.842887,26.203063,46.485545,30.748833
станція СКВИРА,станція ОДЕСА-ПОРТ  (ЕКСП.),ЗЕРНО КУКУРУЗЫ,424,145,49.753906,29.65695,46.485545,30.748833
станція СКОРОХОДОВЕ,станція КСЕНІЄВЕ (ЕКСП.),ЗЕРНО КУКУРУЗЫ,220,138,49.7793055,35.073158,46.36337,30.62144
станція СЛАВУТА I,станція ВЕСЕЛИЙ КУТ,СОЛОД В ЗЕРНЕ,268,56,50.32072,26.88511,47.1060754,29.9920901
станція СЛАВУТА I,станція ЧЕРНІГІВ ПІВНІЧНИЙ,СОЛОД В ЗЕРНЕ,428,136,50.32072,26.88511,51.519809,31.248508
станція СЛАВУТА I,станція ЧОРНОМОРСЬК-ПОРТ-ЕКСПОРТ,ЗЕРНО КУКУРУЗЫ,371,141,50.32072,26.88511,46.322273,30.629317
станція СНІГУРІВКА,станція ЧОРНОМОРСЬК-ПОРТ-ЕКСПОРТ,ПШЕНИЦА,208,98,47.0651786,32.7809185,46.322273,30.629317
станція СОКАЛЬ,станція ОДЕСА-ПОРТ  (ЕКСП.),ЗЕРНО КУКУРУЗЫ,245,106,50.4649598,24.2574808,46.485545,30.748833
станція СОКАЛЬ,станція ОДЕСА-ПОРТ  (ЕКСП.),ПШЕНИЦА,908,121,50.4649598,24.2574808,46.485545,30.748833
станція СОКАЛЬ,станція ОДЕСА-ПОРТ  (ЕКСП.),ЯЧМЕНЬ,455,141,50.4649598,24.2574808,46.485545,30.748833
станція СОКАЛЬ,станція ЧОРНОМОРСЬК-ПОРТ-ЕКСПОРТ,ПШЕНИЦА,484,98,50.4649598,24.2574808,46.322273,30.629317
станція СОКАЛЬ,станція ЧОРНОМОРСЬКА ( ЕКСП. ДЛЯ ТІС ),ЗЕРНО КУКУРУЗЫ,216,114,50.4649598,24.2574808,46.82775,30.76
станція СОРОКА,станція ЖОВТНЕВА  (ЕКСП.),ЗЕРНО КУКУРУЗЫ,210,119,49.071387,29.360998,46.834899,31.967136
станція СОРОКА,станція ЧОРНОМОРСЬКА ( ЕКСП. ДЛЯ ТІС ),ЗЕРНО КУКУРУЗЫ,543,143,49.071387,29.360998,46.82775,30.76
станція СТАРОКОСТЯНТИНІВ I,станція ОДЕСА-ПОРТ  (ЕКСП.),ЗЕРНО КУКУРУЗЫ,451,138,49.753,27.1674,46.485545,30.748833
станція СТАРОКОСТЯНТИНІВ I,станція ОДЕСА-ПОРТ  (ЕКСП.),ПШЕНИЦА,291,138,49.753,27.1674,46.485545,30.748833
станція СТАРОКОСТЯНТИНІВ I,станція ЧОРНОМОРСЬКА ( ЕКСП. ДЛЯ ТІС ),ПШЕНИЦА,509,137.5,49.753,27.1674,46.82775,30.76
станція СТАРОКОСТЯНТИНІВ II,станція ЧОРНОМОРСЬК-ПОРТ-ЕКСПОРТ,ПШЕНИЦА,632,148,49.733726,27.2788967,46.322273,30.629317
станція СТАРОКОСТЯНТИНІВ II,станція ЧОРНОМОРСЬКА ( ЕКСП. ДЛЯ ТІС ),ЗЕРНО КУКУРУЗЫ,211,311,49.733726,27.2788967,46.82775,30.76
станція СУМИ,станція МИКОЛАЇВ-ВАНТАЖНИЙ  (ЕКСП.),ЗЕРНО КУКУРУЗЫ,257,158,50.926937,34.8087574,46.9575,31.975556
станція ТАГАНЧА,станція ОДЕСА-ПОРТ  (ЕКСП.),ЗЕРНО КУКУРУЗЫ,268,146,49.5643213,31.26118,46.485545,30.748833
станція ТАЛЬНЕ,станція ОДЕСА-ПОРТ  (ЕКСП.),ЗЕРНО КУКУРУЗЫ,279,127,48.8952,30.7242999,46.485545,30.748833
станція ТОРОПИЛІВКА,станція БІЛОЗІР’Я,ЗЕРНО КУКУРУЗЫ,372,127,50.942266,34.670085,49.308279,31.9509979
станція ТРИКРАТНЕ,станція ОДЕСА-ПОРТ  (ЕКСП.),ПШЕНИЦА,288,97,47.7053,31.30533,46.485545,30.748833
станція ТРОСТЯНЕЦЬ-ПОДІЛЬСЬКИЙ,станція МИКОЛАЇВ-ВАНТАЖНИЙ  (ЕКСП.),ПШЕНИЦА,470,115,48.513961,29.210806,46.9575,31.975556
станція ТРОСТЯНЕЦЬ-ПОДІЛЬСЬКИЙ,станція ОДЕСА-ПОРТ  (ЕКСП.),ПШЕНИЦА,317,122,48.513961,29.210806,46.485545,30.748833
станція ТРОСТЯНЕЦЬ-ПОДІЛЬСЬКИЙ,станція ЧОРНОМОРСЬКА ( ЕКСП. ДЛЯ ТІС ),ЗЕРНО КУКУРУЗЫ,413,104,48.513961,29.210806,46.82775,30.76
станція ТРОСТЯНЕЦЬ-ПОДІЛЬСЬКИЙ,станція ЧОРНОМОРСЬКА ( ЕКСП. ДЛЯ ТІС ),ПШЕНИЦА,212,121.5,48.513961,29.210806,46.82775,30.76
станція УЛАДІВКА,станція ОДЕСА-ПОРТ  (ЕКСП.),ЗЕРНО КУКУРУЗЫ,917,125,49.4996345,28.2276245,46.485545,30.748833
станція ФІСАКИ,станція ЖОВТНЕВА  (ЕКСП.),ПШЕНИЦА,408,126,47.723991,35.534812,46.834899,31.967136
станція ФІСАКИ,станція МИКОЛАЇВ-ВАНТАЖНИЙ  (ЕКСП.),ПШЕНИЦА,269,122,47.723991,35.534812,46.9575,31.975556
станція ФУНДУКЛІЇВКА,станція ЖОВТНЕВА  (ЕКСП.),ЗЕРНО КУКУРУЗЫ,277,99,48.9744331,32.2502089,46.834899,31.967136
станція ФУНДУКЛІЇВКА,станція ЖОВТНЕВА  (ЕКСП.),ПШЕНИЦА,349,99,48.9744331,32.2502089,46.834899,31.967136
станція ФУНДУКЛІЇВКА,станція МИКОЛАЇВ-ВАНТАЖНИЙ  (ЕКСП.),ЗЕРНО КУКУРУЗЫ,212,119,48.9744331,32.2502089,46.9575,31.975556
станція ФУНДУКЛІЇВКА,станція ОДЕСА-ПОРТ  (ЕКСП.),ПШЕНИЦА,264,119,48.9744331,32.2502089,46.485545,30.748833
станція ХАРКІВ-ЛІСКИ,станція ОДЕСА-ПОРТ  (ЕКСП.),ЗЕРНО ГОРОХА,453,152,49.959174,36.238248,46.485545,30.748833
станція ХАРКІВ-СОРТУВАЛЬНИЙ,станція ЖОВТНЕВА  (ЕКСП.),ПШЕНИЦА,292,123,50.030735,36.177962,46.834899,31.967136
станція ХАРКІВ-СОРТУВАЛЬНИЙ,станція ОДЕСА-ПОРТ  (ЕКСП.),ЗЕРНО КУКУРУЗЫ,411,153,50.030735,36.177962,46.485545,30.748833
станція ХАРКІВ-СОРТУВАЛЬНИЙ,станція ОДЕСА-ПОРТ  (ЕКСП.),ПШЕНИЦА,476,153,50.030735,36.177962,46.485545,30.748833
станція ХАЩУВАТЕ,станція ОДЕСА-ПОРТ  (ЕКСП.),ЗЕРНО КУКУРУЗЫ,458,116,48.317237,29.94949,46.485545,30.748833
станція ХАЩУВАТЕ,станція ЧОРНОМОРСЬКА-ЕКСП.(ДЛЯ ОПЗ),ЗЕРНО КУКУРУЗЫ,410,102,48.317237,29.94949,46.82775,30.76
станція ХЛІБОДАРІВКА,станція СУЛА,ПШЕНИЦА,226,145,47.473472,37.406987,50.3987138,33.3989524
станція ХМІЛЬНИК,станція ЖОВТНЕВА  (ЕКСП.),ПШЕНИЦА,275,120,49.5589169,27.9843265,46.834899,31.967136
станція ХМІЛЬНИК,станція КСЕНІЄВЕ (ЕКСП.),ЗЕРНО КУКУРУЗЫ,273,131,49.5589169,27.9843265,46.36337,30.62144
станція ХМІЛЬНИК,станція МИКОЛАЇВ-ВАНТАЖНИЙ  (ЕКСП.),ПШЕНИЦА,232,142,49.5589169,27.9843265,46.9575,31.975556
станція ХМІЛЬНИК,станція ОДЕСА-ПОРТ  (ЕКСП.),ЗЕРНО КУКУРУЗЫ,1211,129,49.5589169,27.9843265,46.485545,30.748833
станція ХМІЛЬНИК,станція ОДЕСА-ПОРТ  (ЕКСП.),ПШЕНИЦА,1224,129,49.5589169,27.9843265,46.485545,30.748833
станція ХМІЛЬНИК,станція ОДЕСА-ПОРТ  (ЕКСП.),ЯЧМЕНЬ,203,129,49.5589169,27.9843265,46.485545,30.748833
станція ХМІЛЬНИК,станція ЧОРНОМОРСЬК-ПОРТ-ЕКСПОРТ,ПШЕНИЦА,269,137,49.5589169,27.9843265,46.322273,30.629317
станція ХМІЛЬНИК,станція ЧОРНОМОРСЬКА ( ЕКСП. ДЛЯ ТІС ),ЗЕРНО КУКУРУЗЫ,1710,145,49.5589169,27.9843265,46.82775,30.76
станція ХМІЛЬНИК,станція ЧОРНОМОРСЬКА ( ЕКСП. ДЛЯ ТІС ),ПШЕНИЦА,620,145,49.5589169,27.9843265,46.82775,30.76
станція ХМІЛЬНИК,станція ЧОРНОМОРСЬКА ( ЕКСП. ДЛЯ ТІС ),ЯЧМЕНЬ,775,145,49.5589169,27.9843265,46.82775,30.76
станція ХОРОЛ,станція ОДЕСА-ПОРТ  (ЕКСП.),ПШЕНИЦА,277,146,49.7844376,33.2073584,46.485545,30.748833
станція ХОРОСТКІВ,станція ОДЕСА-ПОРТ  (ЕКСП.),ЗЕРНО КУКУРУЗЫ,844,134,49.1954754,25.9093771,46.485545,30.748833
станція ХОРОСТКІВ,станція ОДЕСА-ПОРТ  (ЕКСП.),ПШЕНИЦА,549,134,49.1954754,25.9093771,46.485545,30.748833
станція ХОРОСТКІВ,станція ЧОРНОМОРСЬКА ( ЕКСП. ДЛЯ ТІС ),ЗЕРНО КУКУРУЗЫ,412,146,49.1954754,25.9093771,46.82775,30.76
станція ХРИСТИНІВКА,станція МИКОЛАЇВ-ВАНТАЖНИЙ  (ЕКСП.),ЗЕРНО КУКУРУЗЫ,603,126,48.8152048,29.9726289,46.9575,31.975556
станція ХРИСТИНІВКА,станція МИКОЛАЇВ-ВАНТАЖНИЙ  (ЕКСП.),ПШЕНИЦА,392,126,48.8152048,29.9726289,46.9575,31.975556
станція ЧЕРКАСИ,станція ЖОВТНЕВА  (ЕКСП.),ЗЕРНО КУКУРУЗЫ,798,122,49.425949,32.0498809,46.834899,31.967136
станція ЧЕРКАСИ,станція ЖОВТНЕВА  (ЕКСП.),ПШЕНИЦА,750,122,49.425949,32.0498809,46.834899,31.967136
станція ЧЕРКАСИ,станція КСЕНІЄВЕ (ЕКСП.),ЗЕРНО КУКУРУЗЫ,208,137,49.425949,32.0498809,46.36337,30.62144
станція ЧЕРКАСИ,станція МИКОЛАЇВ-ВАНТАЖНИЙ  (ЕКСП.),ЗЕРНО КУКУРУЗЫ,1755,118,49.425949,32.0498809,46.9575,31.975556
станція ЧЕРКАСИ,станція ОДЕСА-ПОРТ  (ЕКСП.),ЗЕРНО КУКУРУЗЫ,750,129,49.425949,32.0498809,46.485545,30.748833
станція ЧЕРНІГІВ ПІВНІЧНИЙ,станція ЖОВТНЕВА  (ЕКСП.),ЗЕРНО КУКУРУЗЫ,351,278,51.519809,31.248508,46.834899,31.967136
станція ЧОРНИЙ ОСТРІВ,станція ОДЕСА-ПОРТ  (ЕКСП.),ЯЧМЕНЬ,219,101,49.452562,24.268548,46.485545,30.748833
станція ЧОТИРБОКИ,станція ЧОРНОМОРСЬКА ( ЕКСП. ДЛЯ ТІС ),ПШЕНИЦА,228,131,50.028124,27.011875,46.82775,30.76
станція ЧУДНІВ-ВОЛИНСЬКИЙ,станція ЧОРНОМОРСЬКА-ЕКСП.(ДЛЯ ОПЗ),ЗЕРНО КУКУРУЗЫ,290,141,50.01904,28.14394,46.82775,30.76
станція ШАРІВКА,станція ЖОВТНЕВА  (ЕКСП.),ЗЕРНО КУКУРУЗЫ,226,71,48.5013842,32.7950561,46.834899,31.967136
станція ШАРІВКА,станція ЖОВТНЕВА  (ЕКСП.),ПШЕНИЦА,350,43,48.5013842,32.7950561,46.834899,31.967136
станція ШАРІВКА,станція МИКОЛАЇВ-ВАНТАЖНИЙ  (ЕКСП.),ЗЕРНО КУКУРУЗЫ,369,85,48.5013842,32.7950561,46.9575,31.975556
станція ШАРІВКА,станція ЧОРНОМОРСЬК-ПОРТ-ЕКСПОРТ,ЗЕРНО КУКУРУЗЫ,424,122,48.5013842,32.7950561,46.322273,30.629317
станція ШАРІВКА,станція ЧОРНОМОРСЬКА ( ЕКСП. ДЛЯ ТІС ),ПШЕНИЦА,323,105,48.5013842,32.7950561,46.82775,30.76
станція ШПОЛА,станція МИКОЛАЇВ-ВАНТАЖНИЙ  (ЕКСП.),ЗЕРНО КУКУРУЗЫ,356,126,48.9953906,31.3974093,46.9575,31.975556
станція ШПОЛА,станція МИКОЛАЇВ-ВАНТАЖНИЙ  (ЕКСП.),ПШЕНИЦА,544,95,48.9953906,31.3974093,46.9575,31.975556
станція ШПОЛА,станція ОДЕСА-ПОРТ  (ЕКСП.),ЗЕРНО КУКУРУЗЫ,1116,135,48.9953906,31.3974093,46.485545,30.748833
станція ШПОЛА,станція ОДЕСА-ПОРТ  (ЕКСП.),ПШЕНИЦА,399,142,48.9953906,31.3974093,46.485545,30.748833
станція ЩАСЛИВА,станція ЖОВТНЕВА  (ЕКСП.),ЗЕРНО КУКУРУЗЫ,715,108,48.594389,33.394444,46.834899,31.967136
станція ЩАСЛИВА,станція ЖОВТНЕВА  (ЕКСП.),ПШЕНИЦА,459,108,48.594389,33.394444,46.834899,31.967136
станція ЩАСЛИВА,станція МИКОЛАЇВ-ВАНТАЖНИЙ  (ЕКСП.),ЗЕРНО КУКУРУЗЫ,535,104,48.594389,33.394444,46.9575,31.975556
станція ЩАСЛИВА,станція МИКОЛАЇВ-ВАНТАЖНИЙ  (ЕКСП.),ПШЕНИЦА,317,104,48.594389,33.394444,46.9575,31.975556
станція ЩАСЛИВА,станція ОДЕСА-ПОРТ  (ЕКСП.),ПШЕНИЦА,563,119,48.594389,33.394444,46.485545,30.748833
станція ЩАСЛИВА,станція ЧОРНОМОРСЬК-ПОРТ-ЕКСПОРТ,ЗЕРНО КУКУРУЗЫ,460,132,48.594389,33.394444,46.322273,30.629317
станція ЯГОТИН,станція РОГАНЬ,ЯЧМЕНЬ,277,103,50.2379455,31.7959967,49.902763,36.431533
станція ЯРЕСЬКИ,станція ЖОВТНЕВА  (ЕКСП.),ЗЕРНО КУКУРУЗЫ,353,128,49.81517,33.88322,46.834899,31.967136
станція ЯРЕСЬКИ,станція КСЕНІЄВЕ (ЕКСП.),ЗЕРНО КУКУРУЗЫ,282,139,49.81517,33.88322,46.36337,30.62144
станція ЯРЕСЬКИ,станція КСЕНІЄВЕ (ЕКСП.),ПШЕНИЦА,256,139,49.81517,33.88322,46.36337,30.62144
станція ЯРМОЛИНЦІ,станція ОДЕСА-ПОРТ  (ЕКСП.),ЗЕРНО ГОРОХА,221,106,49.1788408,26.8037654,46.485545,30.748833
станція ЯРМОЛИНЦІ,станція ОДЕСА-ПОРТ  (ЕКСП.),ПШЕНИЦА,369,133,49.1788408,26.8037654,46.485545,30.748833
станція ЯРМОЛИНЦІ,станція ЧОРНОМОРСЬКА ( ЕКСП. ДЛЯ ТІС ),ПШЕНИЦА,210,100,49.1788408,26.8037654,46.82775,30.76
станція ЯРОШЕНКА,станція КСЕНІЄВЕ (ЕКСП.),ЗЕРНО КУКУРУЗЫ,282,127,48.9018793,28.2678126,46.36337,30.62144
станція ЯРОШЕНКА,станція ОДЕСА-ПОРТ  (ЕКСП.),ЗЕРНО КУКУРУЗЫ,860,96,48.9018793,28.2678126,46.485545,30.748833
станція ЯРОШЕНКА,станція ОДЕСА-ПОРТ  (ЕКСП.),ПШЕНИЦА,1337,128,48.9018793,28.2678126,46.485545,30.748833
станція ЯРОШЕНКА,станція ОДЕСА-ПОРТ  (ЕКСП.),ЯЧМЕНЬ,383,128,48.9018793,28.2678126,46.485545,30.748833
станція ЯРОШЕНКА,станція ЧОРНОМОРСЬК-ПОРТ-ЕКСПОРТ,ПШЕНИЦА,385,101,48.9018793,28.2678126,46.322273,30.629317
станція ЯРОШЕНКА,станція ЧОРНОМОРСЬКА ( ЕКСП. ДЛЯ ТІС ),ПШЕНИЦА,228,108,48.9018793,28.2678126,46.82775,30.76
