sender,receiver,cargo_name,no_wagons,mdn_speed,lat_sender,lon_sender,lat_receiver,lon_receiver
станція АРОМАТНА,станція КУРАХІВКА,УГОЛЬ КАМЕННЫЙ МАРКИ Г-ГАЗОВЫЙ,352,82,48.628473,35.888025,48.035687,37.374858
станція АРОМАТНА,станція СВІТЛОДАРСЬКЕ,УГОЛЬ КАМЕННЫЙ МАРКИ Г-ГАЗОВЫЙ,2724,127,48.628473,35.888025,48.460125,38.170116
станція АРОМАТНА,станція ТРИПІЛЛЯ-ДНІПРОВСЬКЕ,УГОЛЬ КАМЕННЫЙ МАРКИ Г-ГАЗОВЫЙ,43,193,48.628473,35.888025,50.1397982,30.7534098
станція БЕРЕГОВА  (ЕКСП.),станція ДАРНИЦЯ,УГОЛЬ КАМЕННЫЙ МАРКИ Т-ТОЩИЙ,245,751,46.632276,31.044189,50.430674,30.643448
станція БЕРЕГОВА  (ЕКСП.),станція МАРІУПОЛЬ-СОРТУВАЛЬНИЙ,"УГОЛЬ КАМЕННЫЙ,НЕ ПОИМЕНОВАННЫЙ В АЛФАВИТЕ",47,203,46.632276,31.044189,47.20838,37.5633199
станція БОГУСЛАВСЬКИЙ,станція КРИВИЙ ТОРЕЦЬ,УГОЛЬ КАМЕННЫЙ МАРКИ Г-ГАЗОВЫЙ,41,117,48.444444,36.026667,48.409766,37.78366
станція ДАР’ЇВКА,станція ГОРОДНІЙ,АНТРАЦИТ,105,35.5,48.990905,31.3552719,48.771438,39.2796221
станція ДАР’ЇВКА,станція ЕЛЕКТРИЧНА,АНТРАЦИТ,47,51,48.990905,31.3552719,48.867694,37.755615
станція ДАР’ЇВКА,станція ФАЩІВКА,АНТРАЦИТ,149,40,48.990905,31.3552719,48.271485,38.617803
станція ДАР’ЇВКА,станція ЧЕРНІГІВ,АНТРАЦИТ,58,82,48.990905,31.3552719,51.4855,31.2666
станція ДОБРОПІЛЛЯ,станція ДОБРОТВІР,УГОЛЬ КАМЕННЫЙ МАРКИ Г-ГАЗОВЫЙ,41,446,48.4481566,37.0757679,50.20584,24.386969
станція ДОБРОПІЛЛЯ,станція САРТАНА,КОНЦЕНТРАТ УГОЛЬНЫЙ,46,99,48.4481566,37.0757679,47.1536589,37.5740898
станція ДОБРОПІЛЛЯ,станція СВІТЛОДАРСЬКЕ,УГОЛЬ КАМЕННЫЙ МАРКИ Г-ГАЗОВЫЙ,137,173,48.4481566,37.0757679,48.460125,38.170116
станція ДОБРОПІЛЛЯ,станція ЯМНИЦЯ,УГОЛЬ КАМЕННЫЙ МАРКИ Г-ГАЗОВЫЙ,41,117,48.4481566,37.0757679,48.9855201,24.7113369
станція ЗБІРНА,станція ДАРНИЦЯ,АНТРАЦИТ,216,149,48.486559,39.09406,50.430674,30.643448
станція ЗБІРНА,станція ЧЕРНІГІВ,АНТРАЦИТ,113,217,48.486559,39.09406,51.4855,31.2666
станція ІЗОВ (ЕКСП. ПКП),станція ДОБРОТВІР,"УГОЛЬ КАМЕННЫЙ,НЕ ПОИМЕНОВАННЫЙ В АЛФАВИТЕ",451,39,50.828474,24.059367,50.20584,24.386969
станція КАЛЬМІУС,станція АВДІЇВКА,УГОЛЬ КАМЕННЫЙ МАРКИ К-КОКСОВЫЙ,174,7,48.063889,37.881389,48.148889,37.733333
станція КАЛЬМІУС,станція МАКІЇВКА,УГОЛЬ КАМЕННЫЙ МАРКИ К-КОКСОВЫЙ,62,30,48.063889,37.881389,48.007681,37.9815461
станція КАРАХАШ,станція ЕЛЕКТРИЧНА,АНТРАЦИТ,104,61.5,48.132861,39.087217,48.867694,37.755615
станція КАРАХАШ,станція ТРИПІЛЛЯ-ДНІПРОВСЬКЕ,АНТРАЦИТ,41,150,48.132861,39.087217,50.1397982,30.7534098
станція КИПУЧА,станція ЕЛЕКТРИЧНА,АНТРАЦИТ,43,61,48.439332,38.699008,48.867694,37.755615
станція КРАСНИЙ ЛУЧ,станція ЕЛЕКТРИЧНА,АНТРАЦИТ,50,44,48.140955,38.9261811,48.867694,37.755615
станція КРИВИЙ ТОРЕЦЬ,станція ГОРЛІВКА,УГОЛЬ КАМЕННЫЙ МАРКИ Г-ГАЗОВЫЙ,100,36.5,48.409766,37.78366,48.311208,38.044173
станція КРИВИЙ ТОРЕЦЬ,станція СВІТЛОДАРСЬКЕ,"УГОЛЬ КАМЕННЫЙ,НЕ ПОИМЕНОВАННЫЙ В АЛФАВИТЕ",130,32,48.409766,37.78366,48.460125,38.170116
станція МАКІЇВКА,станція ЕЛЕКТРИЧНА,АНТРАЦИТ,141,108,48.007681,37.9815461,48.867694,37.755615
станція МИКОЛАЇВКА-ДОНЕЦЬКА,станція БУРШТИН,УГОЛЬ КАМЕННЫЙ МАРКИ Г-ГАЗОВЫЙ,1789,639,48.37885,36.3491541,49.217461,24.6477491
станція МИКОЛАЇВКА-ДОНЕЦЬКА,станція КРИВИЙ ТОРЕЦЬ,УГОЛЬ КАМЕННЫЙ МАРКИ Г-ГАЗОВЫЙ,47,85,48.37885,36.3491541,48.409766,37.78366
станція МИКОЛАЇВКА-ДОНЕЦЬКА,станція КУРАХІВКА,УГОЛЬ КАМЕННЫЙ МАРКИ Г-ГАЗОВЫЙ,238,54,48.37885,36.3491541,48.035687,37.374858
станція МИКОЛАЇВКА-ДОНЕЦЬКА,станція РОТИ,УГОЛЬ КАМЕННЫЙ МАРКИ Г-ГАЗОВЫЙ,43,98,48.37885,36.3491541,48.517778,38.221389
станція МОСТИСЬКА II (ЕКСП. ПКП),станція БАТУРИНСЬКА,УГОЛЬ КАМЕННЫЙ СИЛЕЗСКИЙ (ПОЛЬСКИЙ),1744,215,49.8166178,23.0325224,47.872783,33.48381
станція МОСТИСЬКА II (ЕКСП. ПКП),станція ГУМЕНЦІ,"УГОЛЬ КАМЕННЫЙ,НЕ ПОИМЕНОВАННЫЙ В АЛФАВИТЕ",210,146,49.8166178,23.0325224,48.770473,26.606396
станція МОСТИСЬКА II (ЕКСП. ПКП),станція КРИВИЙ РІГ-ГОЛОВНИЙ,КОНЦЕНТРАТ УГОЛЬНЫЙ,60,152,49.8166178,23.0325224,47.9123,33.451545
станція МОСТИСЬКА II (ЕКСП. ПКП),станція ЯМНИЦЯ,УГОЛЬ КАМЕННЫЙ СИЛЕЗСКИЙ (ПОЛЬСКИЙ),872,55,49.8166178,23.0325224,48.9855201,24.7113369
станція НИЖНЬОКРИНКА,станція ЕЛЕКТРИЧНА,УГОЛЬ КАМЕННЫЙ МАРКИ Т-ТОЩИЙ,2434,88,48.129516,38.208348,48.867694,37.755615
станція НИЖНЬОКРИНКА,станція ЛИМАН,УГОЛЬ КАМЕННЫЙ МАРКИ Т-ТОЩИЙ,378,135,48.129516,38.208348,48.9644789,37.8275288
станція НОВОГРОДІВКА,станція ЦУКУРИХА,УГОЛЬ КАМЕННЫЙ МАРКИ Г-ГАЗОВЫЙ,41,5,48.189131,37.334021,48.084594,37.307092
станція ПЕЛАГІЇВСЬКИЙ,станція ЕЛЕКТРИЧНА,АНТРАЦИТ,46,49,48.092167,38.594515,48.867694,37.755615
станція ПЕТРОВЕНЬКИ,станція ДАРНИЦЯ,АНТРАЦИТ,1730,217,48.286289,38.843062,50.430674,30.643448
станція ПЕТРОВЕНЬКИ,станція СУМИ,АНТРАЦИТ,144,133,48.286289,38.843062,50.926937,34.8087574
станція ПЕТРОВЕНЬКИ,станція ЧЕРНІГІВ,АНТРАЦИТ,1197,168,48.286289,38.843062,51.4855,31.2666
станція ПІВДЕННОДОНБАСЬКА,станція НОВОГРОДІВКА,УГОЛЬ КАМЕННЫЙ МАРКИ Г-ГАЗОВЫЙ,41,112,47.751667,37.509722,48.189131,37.334021
станція ПІВДЕННОДОНБАСЬКА,станція НОВОГРОДІВКА,"УГОЛЬ КАМЕННЫЙ,НЕ ПОИМЕНОВАННЫЙ В АЛФАВИТЕ",43,56,47.751667,37.509722,48.189131,37.334021
станція ПОКРОВСЬК,станція ЕНЕРГОДАР,КОНЦЕНТРАТ УГОЛЬНЫЙ,47,135,48.285102,37.1816185,47.494636,34.64672
станція ПОКРОВСЬК,станція СВІТЛОДАРСЬКЕ,КОНЦЕНТРАТ УГОЛЬНЫЙ,6113,163,48.285102,37.1816185,48.460125,38.170116
станція ПОСТНИКОВЕ,станція ЕЛЕКТРИЧНА,УГОЛЬ КАМЕННЫЙ МАРКИ Т-ТОЩИЙ,86,132.5,48.040808,38.49543,48.867694,37.755615
станція ПОСТНИКОВЕ,станція ЧУГУЇВ,УГОЛЬ КАМЕННЫЙ МАРКИ Т-ТОЩИЙ,60,60,48.040808,38.49543,49.8197326,36.6729053
станція ПРАВДА,станція ГУМЕНЦІ,"УГОЛЬ КАМЕННЫЙ,НЕ ПОИМЕНОВАННЫЙ В АЛФАВИТЕ",43,235,48.517983,34.658394,48.770473,26.606396
станція РОДИНСЬКА,станція АВДІЇВКА,УГОЛЬ КАМЕННЫЙ МАРКИ Ж-ЖИРНЫЙ,131,31,48.362572,37.198645,48.148889,37.733333
станція РОДИНСЬКА,станція БУРШТИН,УГОЛЬ КАМЕННЫЙ МАРКИ Г-ГАЗОВЫЙ,384,453,48.362572,37.198645,49.217461,24.6477491
станція РОДИНСЬКА,станція ДОБРОТВІР,УГОЛЬ КАМЕННЫЙ МАРКИ Г-ГАЗОВЫЙ,43,439,48.362572,37.198645,50.20584,24.386969
станція РОДИНСЬКА,станція ЛАДИЖИН,УГОЛЬ КАМЕННЫЙ МАРКИ Г-ГАЗОВЫЙ,95,196,48.362572,37.198645,48.609462,29.1503679
станція РОДИНСЬКА,станція САРТАНА,УГОЛЬ КАМЕННЫЙ МАРКИ Ж-ЖИРНЫЙ,41,125,48.362572,37.198645,47.1536589,37.5740898
станція СЛОВ’ЯНОСЕРБСЬК,станція ЕЛЕКТРИЧНА,УГОЛЬ КАМЕННЫЙ МАРКИ Т-ТОЩИЙ,44,68,48.546957,38.9143369,48.867694,37.755615
станція СЛОВ’ЯНОСЕРБСЬК,станція ЧЕРКАСИ,УГОЛЬ КАМЕННЫЙ МАРКИ Г-ГАЗОВЫЙ,52,122,48.546957,38.9143369,49.425949,32.0498809
станція СОСНІВКА,станція БУРШТИН,УГОЛЬ КАМЕННЫЙ МАРКИ Г-ГАЗОВЫЙ,41,60,50.2918113,24.263036,49.217461,24.6477491
станція УДАЧНА,станція МАКІЇВКА,КОНЦЕНТРАТ УГОЛЬНЫЙ,44,25,48.237717,36.99034,48.007681,37.9815461
станція УДАЧНА,станція САРТАНА,КОНЦЕНТРАТ УГОЛЬНЫЙ,1419,87,48.237717,36.99034,47.1536589,37.5740898
станція ЧОРНОМОРСЬК-ПОРТ-ЕКСПОРТ,станція АВДІЇВКА,"УГОЛЬ КАМЕННЫЙ,НЕ ПОИМЕНОВАННЫЙ В АЛФАВИТЕ",185,210.5,46.322273,30.629317,48.148889,37.733333
станція ЧОРНОМОРСЬК-ПОРТ-ЕКСПОРТ,станція ЗАПОРІЖЖЯ-КАМ’ЯНСЬКЕ,"УГОЛЬ КАМЕННЫЙ,НЕ ПОИМЕНОВАННЫЙ В АЛФАВИТЕ",51,65,46.322273,30.629317,48.4808925,34.6462622
станція ЧОРНОМОРСЬК-ПОРТ-ЕКСПОРТ,станція ПРАВДА,"УГОЛЬ КАМЕННЫЙ,НЕ ПОИМЕНОВАННЫЙ В АЛФАВИТЕ",49,170,46.322273,30.629317,48.517983,34.658394
станція ЧОРНОМОРСЬКА,станція АВДІЇВКА,"УГОЛЬ КАМЕННЫЙ,НЕ ПОИМЕНОВАННЫЙ В АЛФАВИТЕ",50,868,46.82775,30.76,48.148889,37.733333
станція ЧОРНОМОРСЬКА ( ЕКСП. ДЛЯ ТІС ),станція ЗАПОРІЖЖЯ-ЛІВЕ,УГОЛЬ КАМЕННЫЙ МАРКИ СС-СЛАБОСПЕКАЮЩИЙСЯ,1257,730,46.82775,30.76,47.86944,35.1917334
станція ЧОРНОМОРСЬКА ( ЕКСП. ДЛЯ ТІС ),станція ЛАДИЖИН,"УГОЛЬ КАМЕННЫЙ,НЕ ПОИМЕНОВАННЫЙ В АЛФАВИТЕ",100,139,46.82775,30.76,48.609462,29.1503679
станція ЧОРНОМОРСЬКА ( ЕКСП. ДЛЯ ТІС ),станція МАРІУПОЛЬ-СОРТУВАЛЬНИЙ,"УГОЛЬ КАМЕННЫЙ,НЕ ПОИМЕНОВАННЫЙ В АЛФАВИТЕ",150,505,46.82775,30.76,47.20838,37.5633199
станція ЧОРНОМОРСЬКА ( ЕКСП. ДЛЯ ТІС ),станція ТРИПІЛЛЯ-ДНІПРОВСЬКЕ,"УГОЛЬ КАМЕННЫЙ,НЕ ПОИМЕНОВАННЫЙ В АЛФАВИТЕ",502,226.5,46.82775,30.76,50.1397982,30.7534098
станція ЧОРНОМОРСЬКА (ДЛЯ ТІС),станція УДАЧНА,КОНЦЕНТРАТ УГОЛЬНЫЙ,315,801,46.82775,30.76,48.237717,36.99034
станція ЧУМАКОВЕ,станція КОМУНАРСЬК,УГОЛЬ КАМЕННЫЙ МАРКИ Т-ТОЩИЙ,46,63,47.973896,37.889423,48.483418,38.778808
станція ЧУМАКОВЕ,станція КРИВИЙ ТОРЕЦЬ,"УГОЛЬ КАМЕННЫЙ,НЕ ПОИМЕНОВАННЫЙ В АЛФАВИТЕ",41,29,47.973896,37.889423,48.409766,37.78366
станція ЧУМАКОВЕ,станція ЛИМАН,УГОЛЬ КАМЕННЫЙ МАРКИ Т-ТОЩИЙ,45,143,47.973896,37.889423,48.9644789,37.8275288
станція ЩОТОВЕ,станція ДАРНИЦЯ,АНТРАЦИТ,100,151,48.172945,39.126366,50.430674,30.643448
станція ЯНІВСЬКИЙ (РЗД),станція ЕЛЕКТРИЧНА,АНТРАЦИТ,45,114,48.153274,38.782219,48.867694,37.755615
