sender,receiver,cargo_name,no_wagons,mdn_speed,lat_sender,lon_sender,lat_receiver,lon_receiver
станція АРЦИЗ,станція ОДЕСА-ПОРТ  (ЕКСП.),ПШЕНИЦА,51,51,45.9968241,29.4199425,46.485545,30.748833
станція АРЦИЗ,станція ЧОРНОМОРСЬК-ПОРТ-ЕКСПОРТ,ПШЕНИЦА,103,117,45.9968241,29.4199425,46.322273,30.629317
станція БАЛИН,станція КСЕНІЄВЕ (ЕКСП.),ЗЕРНО КУКУРУЗЫ,204,131.5,48.90661,26.6346,46.36337,30.62144
станція БАЛІВКА,станція ЖОВТНЕВА  (ЕКСП.),ПШЕНИЦА,152,137,48.592971,34.84023,46.834899,31.967136
станція БАЛТА,станція КСЕНІЄВЕ (ЕКСП.),ЗЕРНО КУКУРУЗЫ,1137,93.5,47.874574,29.625154,46.36337,30.62144
станція БАЛТА,станція КСЕНІЄВЕ (ЕКСП.),ПШЕНИЦА,308,65.5,47.874574,29.625154,46.36337,30.62144
станція БАЛТА,станція ОДЕСА-ПОРТ  (ЕКСП.),ЗЕРНО КУКУРУЗЫ,835,113,47.874574,29.625154,46.485545,30.748833
станція БАЛТА,станція ЧОРНОМОРСЬК-ПОРТ,ЗЕРНО КУКУРУЗЫ,108,45,47.874574,29.625154,46.32227,30.62932
станція БАЛТА,станція ЧОРНОМОРСЬК-ПОРТ,ПШЕНИЦА,106,165,47.874574,29.625154,46.32227,30.62932
станція БАЛТА,станція ЧОРНОМОРСЬК-ПОРТ-ЕКСПОРТ,ЗЕРНО КУКУРУЗЫ,191,124,47.874574,29.625154,46.322273,30.629317
станція БАЛТА,станція ЧОРНОМОРСЬКА-ЕКСП.(ДЛЯ ОПЗ),ЗЕРНО КУКУРУЗЫ,208,113.5,47.874574,29.625154,46.82775,30.76
станція БАЛТА,станція ЧОРНОМОРСЬКА ( ЕКСП. ДЛЯ ТІС ),ЗЕРНО КУКУРУЗЫ,522,115.5,47.874574,29.625154,46.82775,30.76
станція БАР,станція КСЕНІЄВЕ (ЕКСП.),ЗЕРНО КУКУРУЗЫ,206,180,49.036101,27.722638,46.36337,30.62144
станція БАР,станція КСЕНІЄВЕ (ЕКСП.),ПШЕНИЦА,54,144,49.036101,27.722638,46.36337,30.62144
станція БАР,станція ЧОРНОМОРСЬК-ПОРТ-ЕКСПОРТ,ЗЕРНО КУКУРУЗЫ,418,121,49.036101,27.722638,46.322273,30.629317
станція БАР,станція ЧОРНОМОРСЬК-ПОРТ-ЕКСПОРТ,ПШЕНИЦА,267,151,49.036101,27.722638,46.322273,30.629317
станція БАР,станція ЧОРНОМОРСЬКА ( ЕКСП. ДЛЯ ТІС ),ЗЕРНО КУКУРУЗЫ,2569,161,49.036101,27.722638,46.82775,30.76
станція БАР,станція ЧОРНОМОРСЬКА ( ЕКСП. ДЛЯ ТІС ),ПШЕНИЦА,1106,161,49.036101,27.722638,46.82775,30.76
станція БАХМАЧ-ПАСАЖИРСЬКИЙ,станція МИКОЛАЇВ-ВАНТАЖНИЙ  (ЕКСП.),ЗЕРНО КУКУРУЗЫ,100,447.5,51.1877688,32.8412497,46.9575,31.975556
станція БАХМАЧ-ПАСАЖИРСЬКИЙ,станція ЧОРНОМОРСЬК-ПОРТ-ЕКСПОРТ,ЗЕРНО КУКУРУЗЫ,206,190,51.1877688,32.8412497,46.322273,30.629317
станція БЕРЕЗОВИЦЯ-ОСТРІВ,станція ЧОРНОМОРСЬК-ПОРТ-ЕКСПОРТ,ЗЕРНО КУКУРУЗЫ,54,652,49.490776,25.605512,46.322273,30.629317
станція БІЛА ЦЕРКВА,станція ЧОРНОМОРСЬК-ПОРТ-ЕКСПОРТ,ЗЕРНО КУКУРУЗЫ,147,165,49.8119045,30.1097162,46.322273,30.629317
станція БІЛА ЦЕРКВА,станція ЧОРНОМОРСЬКА-ЕКСП.(ДЛЯ ОПЗ),ЯЧМЕНЬ,54,92,49.8119045,30.1097162,46.82775,30.76
станція БІЛИЙ КОЛОДЯЗЬ,станція МИКОЛАЇВ-ВАНТАЖНИЙ  (ЕКСП.),ПШЕНИЦА,54,67,50.204024,37.103261,46.9575,31.975556
станція БІЛИЙ КОЛОДЯЗЬ,станція ОДЕСА-ПОРТ  (ЕКСП.),ЯЧМЕНЬ,108,202.5,50.204024,37.103261,46.485545,30.748833
станція БІЛИЙ КОЛОДЯЗЬ,станція ЧОРНОМОРСЬК-ПОРТ-ЕКСПОРТ,ПШЕНИЦА,204,213.5,50.204024,37.103261,46.322273,30.629317
станція БІЛИЙ КОЛОДЯЗЬ,станція ЧОРНОМОРСЬКА ( ЕКСП. ДЛЯ ТІС ),ПШЕНИЦА,51,160,50.204024,37.103261,46.82775,30.76
станція БІЛОВОДИ,станція ЖОВТНЕВА  (ЕКСП.),ПШЕНИЦА,54,182,51.1722401,34.9760976,46.834899,31.967136
станція БІЛОВОДИ,станція МИКОЛАЇВ-ВАНТАЖНИЙ  (ЕКСП.),ЗЕРНО КУКУРУЗЫ,1866,178,51.1722401,34.9760976,46.9575,31.975556
станція БІЛОВОДИ,станція МИКОЛАЇВ-ВАНТАЖНИЙ  (ЕКСП.),ПШЕНИЦА,162,133,51.1722401,34.9760976,46.9575,31.975556
станція БІЛОВОДИ,станція ОДЕСА-ПОРТ  (ЕКСП.),ЗЕРНО КУКУРУЗЫ,54,139,51.1722401,34.9760976,46.485545,30.748833
станція БІЛОПІЛЛЯ,станція ЖОВТНЕВА  (ЕКСП.),ЗЕРНО КУКУРУЗЫ,250,170,51.1421206,34.2717682,46.834899,31.967136
станція БІЛОПІЛЛЯ,станція МИКОЛАЇВ-ВАНТАЖНИЙ  (ЕКСП.),ЗЕРНО КУКУРУЗЫ,610,209,51.1421206,34.2717682,46.9575,31.975556
станція БІЛОПІЛЛЯ,станція МИКОЛАЇВ-ВАНТАЖНИЙ  (ЕКСП.),ПШЕНИЦА,52,209,51.1421206,34.2717682,46.9575,31.975556
станція БІЛОПІЛЛЯ,станція ЧОРНОМОРСЬК-ПОРТ,ЗЕРНО КУКУРУЗЫ,54,91,51.1421206,34.2717682,46.32227,30.62932
станція БОБРОВИЦЯ,станція ЖОВТНЕВА  (ЕКСП.),ЗЕРНО КУКУРУЗЫ,83,131,50.763995,31.3713796,46.834899,31.967136
станція БОБРОВИЦЯ,станція ОДЕСА-ПОРТ  (ЕКСП.),ЗЕРНО КУКУРУЗЫ,54,74,50.763995,31.3713796,46.485545,30.748833
станція БОРИСПІЛЬ,станція ЧОРНОМОРСЬКА-ЕКСП.(ДЛЯ ОПЗ),ЗЕРНО КУКУРУЗЫ,91,223,50.3766975,30.9448324,46.82775,30.76
станція БУРЛУК,станція ОДЕСА-ПОРТ  (ЕКСП.),ЯЧМЕНЬ,49,187,50.035058,37.403634,46.485545,30.748833
станція БУЧАЧ,станція КСЕНІЄВЕ (ЕКСП.),ЗЕРНО КУКУРУЗЫ,156,186,49.064831,25.3817159,46.36337,30.62144
станція БУЧАЧ,станція КСЕНІЄВЕ (ЕКСП.),ЯЧМЕНЬ,353,149,49.064831,25.3817159,46.36337,30.62144
станція БУЧАЧ,станція ОДЕСА-ПОРТ  (ЕКСП.),ЗЕРНО КУКУРУЗЫ,485,69.5,49.064831,25.3817159,46.485545,30.748833
станція БУЧАЧ,станція ОДЕСА-ПОРТ  (ЕКСП.),ПШЕНИЦА,1007,146,49.064831,25.3817159,46.485545,30.748833
станція БУЧАЧ,станція ЧОРНОМОРСЬК-ПОРТ,ПШЕНИЦА,49,128,49.064831,25.3817159,46.32227,30.62932
станція БУЧАЧ,станція ЧОРНОМОРСЬК-ПОРТ-ЕКСПОРТ,ЗЕРНО КУКУРУЗЫ,105,95.5,49.064831,25.3817159,46.322273,30.629317
станція БУЧАЧ,станція ЧОРНОМОРСЬКА-ЕКСП.(ДЛЯ ОПЗ),ЯЧМЕНЬ,45,113,49.064831,25.3817159,46.82775,30.76
станція БУЧАЧ,станція ЧОРНОМОРСЬКА ( ЕКСП. ДЛЯ ТІС ),ЗЕРНО КУКУРУЗЫ,439,133,49.064831,25.3817159,46.82775,30.76
станція ВАРВАРІВКА,станція МИКОЛАЇВ-ВАНТАЖНИЙ,ЗЕРНО КУКУРУЗЫ,54,83,48.7048,35.98577,46.9576791,31.9758924
станція ВАРВАРІВКА,станція ЧОРНОМОРСЬК-ПОРТ,ПШЕНИЦА,54,98,48.7048,35.98577,46.32227,30.62932
станція ВАСКАУЦИ,станція ОДЕСА-ПОРТ  (ЕКСП.),ПШЕНИЦА,49,51,48.465725,27.138708,46.485545,30.748833
станція ВАСКАУЦИ,станція ЧОРНОМОРСЬКА ( ЕКСП. ДЛЯ ТІС ),ПШЕНИЦА,46,74,48.465725,27.138708,46.82775,30.76
станція ВЕСЕЛИЙ КУТ,станція ЧОРНОМОРСЬК-ПОРТ-ЕКСПОРТ,ЗЕРНО КУКУРУЗЫ,96,49.5,47.1060754,29.9920901,46.322273,30.629317
станція ВЕСЕЛИЙ КУТ,станція ЧОРНОМОРСЬК-ПОРТ-ЕКСПОРТ,СОЛОД В ЗЕРНЕ,306,71,47.1060754,29.9920901,46.322273,30.629317
станція ВЕСЕЛИЙ ПОДІЛ,станція ЖОВТНЕВА  (ЕКСП.),ЗЕРНО КУКУРУЗЫ,108,171,49.6031947,33.1876332,46.834899,31.967136
станція ВЕСЕЛИЙ ПОДІЛ,станція МИКОЛАЇВ-ВАНТАЖНИЙ  (ЕКСП.),ЗЕРНО КУКУРУЗЫ,54,100,49.6031947,33.1876332,46.9575,31.975556
станція ВИРІВКА,станція ЖОВТНЕВА  (ЕКСП.),ПШЕНИЦА,50,169,51.26295,33.173564,46.834899,31.967136
станція ВИРІВКА,станція МИКОЛАЇВ-ВАНТАЖНИЙ  (ЕКСП.),ПШЕНИЦА,47,167,51.26295,33.173564,46.9575,31.975556
станція ВИРІВКА,станція ОДЕСА-ПОРТ  (ЕКСП.),ЗЕРНО КУКУРУЗЫ,199,200,51.26295,33.173564,46.485545,30.748833
станція ВИРІВКА,станція ЧОРНОМОРСЬКА-ЕКСП.(ДЛЯ ОПЗ),ЗЕРНО КУКУРУЗЫ,42,158,51.26295,33.173564,46.82775,30.76
станція ВИРІВКА,станція ЧОРНОМОРСЬКА ( ЕКСП. ДЛЯ ТІС ),ЗЕРНО КУКУРУЗЫ,97,717.5,51.26295,33.173564,46.82775,30.76
станція ВІЙТІВЦІ,станція КСЕНІЄВЕ (ЕКСП.),ПШЕНИЦА,54,77,49.497128,26.445956,46.36337,30.62144
станція ВІЙТІВЦІ,станція ОДЕСА-ПОРТ  (ЕКСП.),ПШЕНИЦА,54,106,49.497128,26.445956,46.485545,30.748833
станція ВІЙТІВЦІ,станція ЧОРНОМОРСЬК-ПОРТ-ЕКСПОРТ,ПШЕНИЦА,51,94,49.497128,26.445956,46.322273,30.629317
станція ВІЙТІВЦІ,станція ЧОРНОМОРСЬКА-ЕКСП.(ДЛЯ ОПЗ),ЗЕРНО КУКУРУЗЫ,54,53,49.497128,26.445956,46.82775,30.76
станція ВІЙТІВЦІ,станція ЧОРНОМОРСЬКА ( ЕКСП. ДЛЯ ТІС ),ПШЕНИЦА,51,85,49.497128,26.445956,46.82775,30.76
станція ВІКТОРІЯ,станція КСЕНІЄВЕ (ЕКСП.),ЗЕРНО КУКУРУЗЫ,52,188,49.168466,26.6001879,46.36337,30.62144
станція ВІКТОРІЯ,станція ЧОРНОМОРСЬК-ПОРТ-ЕКСПОРТ,ПШЕНИЦА,54,73,49.168466,26.6001879,46.322273,30.629317
станція ВІЛЬНОГІРСЬК,станція ЧОРНОМОРСЬКА-ЕКСП.(ДЛЯ ОПЗ),ЗЕРНО КУКУРУЗЫ,41,130,48.4649743,34.0136594,46.82775,30.76
станція ВІННИЦЯ,станція КСЕНІЄВЕ (ЕКСП.),ПШЕНИЦА,54,74,49.239428,28.5106651,46.36337,30.62144
станція ВІННИЦЯ,станція МИКОЛАЇВ-ВАНТАЖНИЙ  (ЕКСП.),ПШЕНИЦА,53,199,49.239428,28.5106651,46.9575,31.975556
станція ВІННИЦЯ,станція ОДЕСА-ПОРТ  (ЕКСП.),ЗЕРНО КУКУРУЗЫ,467,147,49.239428,28.5106651,46.485545,30.748833
станція ВІННИЦЯ,станція ЧОРНОМОРСЬК-ПОРТ,ЗЕРНО КУКУРУЗЫ,418,50,49.239428,28.5106651,46.32227,30.62932
станція ВІННИЦЯ,станція ЧОРНОМОРСЬКА-ЕКСП.(ДЛЯ ОПЗ),ЗЕРНО КУКУРУЗЫ,52,165,49.239428,28.5106651,46.82775,30.76
станція ВІННИЦЯ,станція ЧОРНОМОРСЬКА ( ЕКСП. ДЛЯ ТІС ),ПШЕНИЦА,51,100,49.239428,28.5106651,46.82775,30.76
станція ВЛАСІВКА,станція ЧОРНОМОРСЬКА ( ЕКСП. ДЛЯ ТІС ),ЗЕРНО КУКУРУЗЫ,53,180,49.592096,35.7162969,46.82775,30.76
станція ВОЛОДИМИР-ВОЛИНСЬКИЙ,станція ЧОРНОМОРСЬК-ПОРТ,ПШЕНИЦА,53,78,50.8450086,24.3352242,46.32227,30.62932
станція ВОЛОДИМИР-ВОЛИНСЬКИЙ,станція ЧОРНОМОРСЬК-ПОРТ-ЕКСПОРТ,ПШЕНИЦА,109,124.5,50.8450086,24.3352242,46.322273,30.629317
станція ВОЛОДИМИР-ВОЛИНСЬКИЙ,станція ЧОРНОМОРСЬКА ( ЕКСП. ДЛЯ ТІС ),ПШЕНИЦА,104,189,50.8450086,24.3352242,46.82775,30.76
станція ВОРОНОВИЦЯ,станція КСЕНІЄВЕ (ЕКСП.),ЗЕРНО КУКУРУЗЫ,213,157,49.12341,28.712317,46.36337,30.62144
станція ВОРОНОВИЦЯ,станція КСЕНІЄВЕ (ЕКСП.),ЯЧМЕНЬ,50,157,49.12341,28.712317,46.36337,30.62144
станція ВОРОНОВИЦЯ,станція ЧОРНОМОРСЬК-ПОРТ,ЗЕРНО КУКУРУЗЫ,302,185,49.12341,28.712317,46.32227,30.62932
станція ВОРОНОВИЦЯ,станція ЧОРНОМОРСЬК-ПОРТ,ПШЕНИЦА,210,44,49.12341,28.712317,46.32227,30.62932
станція ВОРОНОВИЦЯ,станція ЧОРНОМОРСЬКА-ЕКСП.(ДЛЯ ОПЗ),ЗЕРНО КУКУРУЗЫ,269,173,49.12341,28.712317,46.82775,30.76
станція ВОРОНОВИЦЯ,станція ЧОРНОМОРСЬКА ( ЕКСП. ДЛЯ ТІС ),ЗЕРНО КУКУРУЗЫ,1112,174,49.12341,28.712317,46.82775,30.76
станція ВОРОНОВИЦЯ,станція ЧОРНОМОРСЬКА ( ЕКСП. ДЛЯ ТІС ),ПШЕНИЦА,54,104,49.12341,28.712317,46.82775,30.76
станція ГАДЯЧ ІМ. СЕРГІЄНКА МИКОЛИ ІВАНОВИЧА,станція ЖОВТНЕВА  (ЕКСП.),ЗЕРНО КУКУРУЗЫ,773,137,50.3678365,33.9796724,46.834899,31.967136
станція ГАДЯЧ ІМ. СЕРГІЄНКА МИКОЛИ ІВАНОВИЧА,станція ОДЕСА-ПОРТ  (ЕКСП.),ЗЕРНО КУКУРУЗЫ,94,140,50.3678365,33.9796724,46.485545,30.748833
станція ГАЙСИН,станція ОДЕСА-ПОРТ  (ЕКСП.),ПШЕНИЦА,144,92,48.795178,29.39161,46.485545,30.748833
станція ГАЙСИН,станція ЧОРНОМОРСЬК-ПОРТ,ПШЕНИЦА,46,97,48.795178,29.39161,46.32227,30.62932
станція ГАЙСИН,станція ЧОРНОМОРСЬК-ПОРТ,ЯЧМЕНЬ,52,58,48.795178,29.39161,46.32227,30.62932
станція ГАЙСИН,станція ЧОРНОМОРСЬКА-ЕКСП.(ДЛЯ ОПЗ),ЗЕРНО КУКУРУЗЫ,46,33,48.795178,29.39161,46.82775,30.76
станція ГАЙСИН,станція ЧОРНОМОРСЬКА ( ЕКСП. ДЛЯ ТІС ),ПШЕНИЦА,97,105.5,48.795178,29.39161,46.82775,30.76
станція ГАЛКА,станція МИКОЛАЇВ-ВАНТАЖНИЙ  (ЕКСП.),ЗЕРНО КУКУРУЗЫ,2101,199,50.706484,32.191208,46.9575,31.975556
станція ГАЛКА,станція МИКОЛАЇВ-ВАНТАЖНИЙ  (ЕКСП.),ПШЕНИЦА,50,199,50.706484,32.191208,46.9575,31.975556
станція ГАЛКА,станція ОДЕСА-ПОРТ  (ЕКСП.),ЗЕРНО КУКУРУЗЫ,107,253,50.706484,32.191208,46.485545,30.748833
станція ГАЛКА,станція ЧОРНОМОРСЬКА-ЕКСП.(ДЛЯ ОПЗ),ЗЕРНО КУКУРУЗЫ,108,164,50.706484,32.191208,46.82775,30.76
станція ГАННІВКА,станція ЖОВТНЕВА  (ЕКСП.),ЗЕРНО КУКУРУЗЫ,404,128,49.2370426,33.9002971,46.834899,31.967136
станція ГАННІВКА,станція ЖОВТНЕВА  (ЕКСП.),ПШЕНИЦА,51,128,49.2370426,33.9002971,46.834899,31.967136
станція ГАННІВКА,станція КСЕНІЄВЕ (ЕКСП.),ЗЕРНО КУКУРУЗЫ,322,189,49.2370426,33.9002971,46.36337,30.62144
станція ГАННІВКА,станція КСЕНІЄВЕ (ЕКСП.),ПШЕНИЦА,52,189,49.2370426,33.9002971,46.36337,30.62144
станція ГАННІВКА,станція ОДЕСА-ПОРТ  (ЕКСП.),ЗЕРНО КУКУРУЗЫ,54,134,49.2370426,33.9002971,46.485545,30.748833
станція ГАННІВКА,станція ЧОРНОМОРСЬКА-ЕКСП.(ДЛЯ ОПЗ),ЗЕРНО КУКУРУЗЫ,51,103,49.2370426,33.9002971,46.82775,30.76
станція ГЛОБИНЕ,станція БІЛГОРОД-ДНІСТРОВСКИЙ  (ЕКСП.),ЗЕРНО КУКУРУЗЫ,44,70,49.399085,33.2271859,46.1851723,30.3377686
станція ГЛОБИНЕ,станція ЖОВТНЕВА  (ЕКСП.),ЗЕРНО КУКУРУЗЫ,320,129,49.399085,33.2271859,46.834899,31.967136
станція ГЛОБИНЕ,станція КСЕНІЄВЕ (ЕКСП.),ЗЕРНО КУКУРУЗЫ,53,114,49.399085,33.2271859,46.36337,30.62144
станція ГЛОБИНЕ,станція МИКОЛАЇВ-ВАНТАЖНИЙ,ПШЕНИЦА,108,156.5,49.399085,33.2271859,46.9576791,31.9758924
станція ГЛОБИНЕ,станція МИКОЛАЇВ-ВАНТАЖНИЙ  (ЕКСП.),ЗЕРНО КУКУРУЗЫ,568,125,49.399085,33.2271859,46.9575,31.975556
станція ГЛОБИНЕ,станція ЧОРНОМОРСЬК-ПОРТ,ЗЕРНО КУКУРУЗЫ,215,56.5,49.399085,33.2271859,46.32227,30.62932
станція ГЛОБИНЕ,станція ЧОРНОМОРСЬК-ПОРТ-ЕКСПОРТ,ЗЕРНО КУКУРУЗЫ,308,198,49.399085,33.2271859,46.322273,30.629317
станція ГЛОБИНЕ,станція ЧОРНОМОРСЬКА-ЕКСП.(ДЛЯ ОПЗ),ЗЕРНО КУКУРУЗЫ,54,104,49.399085,33.2271859,46.82775,30.76
станція ГЛОБИНЕ,станція ЧОРНОМОРСЬКА ( ЕКСП. ДЛЯ ТІС ),ЗЕРНО КУКУРУЗЫ,54,52,49.399085,33.2271859,46.82775,30.76
станція ГЛОБИНЕ,станція ЧОРНОМОРСЬКА ( ЕКСП. ДЛЯ ТІС ),ПШЕНИЦА,46,104,49.399085,33.2271859,46.82775,30.76
станція ГЛУХІВ,станція КСЕНІЄВЕ (ЕКСП.),ЗЕРНО КУКУРУЗЫ,157,144,51.679907,33.938458,46.36337,30.62144
станція ГЛУХІВ,станція КСЕНІЄВЕ (ЕКСП.),ЯЧМЕНЬ,103,168,51.679907,33.938458,46.36337,30.62144
станція ГЛУХІВ,станція МИКОЛАЇВ,ПШЕНИЦА,51,186,51.679907,33.938458,46.9576791,31.9758924
станція ГЛУХІВ,станція МИКОЛАЇВ-ВАНТАЖНИЙ  (ЕКСП.),ЗЕРНО КУКУРУЗЫ,211,211.5,51.679907,33.938458,46.9575,31.975556
станція ГЛУХІВ,станція МИКОЛАЇВ-ВАНТАЖНИЙ  (ЕКСП.),ПШЕНИЦА,102,109.5,51.679907,33.938458,46.9575,31.975556
станція ГЛУХІВ,станція ОДЕСА-ПОРТ  (ЕКСП.),ЗЕРНО КУКУРУЗЫ,53,199,51.679907,33.938458,46.485545,30.748833
станція ГОРОДЕНКА-ЗАВОД,станція КСЕНІЄВЕ (ЕКСП.),ПШЕНИЦА,52,827,48.6823182,25.476688,46.36337,30.62144
станція ГРАКОВЕ,станція ОДЕСА-ПОРТ  (ЕКСП.),ЗЕРНО КУКУРУЗЫ,53,204,49.7292217,36.8648588,46.485545,30.748833
станція ГУЛЯЙПОЛЕ,станція ЖОВТНЕВА  (ЕКСП.),ПШЕНИЦА,195,195,47.648025,36.165866,46.834899,31.967136
станція ГУЛЯЙПОЛЕ,станція ЧОРНОМОРСЬК-ПОРТ-ЕКСПОРТ,ПШЕНИЦА,54,66,47.648025,36.165866,46.322273,30.629317
станція ДЕНГОФІВКА,станція МИКОЛАЇВ-ВАНТАЖНИЙ,ЗЕРНО КУКУРУЗЫ,367,185,49.306974,29.807379,46.9576791,31.9758924
станція ДЕНГОФІВКА,станція МИКОЛАЇВ-ВАНТАЖНИЙ,ПШЕНИЦА,265,185,49.306974,29.807379,46.9576791,31.9758924
станція ДЕНГОФІВКА,станція МИКОЛАЇВ-ВАНТАЖНИЙ,ЯЧМЕНЬ,54,123,49.306974,29.807379,46.9576791,31.9758924
станція ДЕНГОФІВКА,станція МИКОЛАЇВ-ВАНТАЖНИЙ  (ЕКСП.),ПШЕНИЦА,51,185,49.306974,29.807379,46.9575,31.975556
станція ДЕРАЖНЯ,станція ЧОРНОМОРСЬК-ПОРТ-ЕКСПОРТ,ЗЕРНО КУКУРУЗЫ,106,278.5,49.26728,27.4305996,46.322273,30.629317
станція ДЕРЕНІВКА,станція ОДЕСА-ПОРТ  (ЕКСП.),ПШЕНИЦА,53,164,49.239925,25.770231,46.485545,30.748833
станція ДОЧ,станція ОДЕСА-ПОРТ  (ЕКСП.),ЗЕРНО КУКУРУЗЫ,46,220,51.31604,32.579195,46.485545,30.748833
станція ДРАБОВЕ-БАРЯТИНСЬКЕ,станція КСЕНІЄВЕ (ЕКСП.),ЗЕРНО КУКУРУЗЫ,100,147.5,49.9594926,32.3045112,46.36337,30.62144
станція ДРАБОВЕ-БАРЯТИНСЬКЕ,станція МИКОЛАЇВ-ВАНТАЖНИЙ  (ЕКСП.),ПШЕНИЦА,162,142,49.9594926,32.3045112,46.9575,31.975556
станція ДРАБОВЕ-БАРЯТИНСЬКЕ,станція ЧОРНОМОРСЬК-ПОРТ,ЗЕРНО КУКУРУЗЫ,145,92,49.9594926,32.3045112,46.32227,30.62932
станція ДРАБОВЕ-БАРЯТИНСЬКЕ,станція ЧОРНОМОРСЬКА ( ЕКСП. ДЛЯ ТІС ),ПШЕНИЦА,54,144,49.9594926,32.3045112,46.82775,30.76
станція ДУБНО,станція ГУМЕНЦІ,ЗЕРНО КУКУРУЗЫ,151,133,50.3867622,25.7527362,48.770473,26.606396
станція ДУБНО,станція ГУМЕНЦІ,ПШЕНИЦА,96,132.5,50.3867622,25.7527362,48.770473,26.606396
станція ДУБОВ’ЯЗІВКА,станція ЖОВТНЕВА  (ЕКСП.),ЗЕРНО КУКУРУЗЫ,108,146.5,51.1296375,33.3778584,46.834899,31.967136
станція ДУБОВ’ЯЗІВКА,станція КСЕНІЄВЕ (ЕКСП.),ЗЕРНО КУКУРУЗЫ,43,152,51.1296375,33.3778584,46.36337,30.62144
станція ДУБОВ’ЯЗІВКА,станція ЧОРНОМОРСЬКА ( ЕКСП. ДЛЯ ТІС ),ЗЕРНО КУКУРУЗЫ,51,138,51.1296375,33.3778584,46.82775,30.76
станція ЖАШКІВ,станція ЧОРНОМОРСЬК-ПОРТ,ЗЕРНО КУКУРУЗЫ,54,674,49.243053,30.097353,46.32227,30.62932
станція ЖАШКІВ,станція ЧОРНОМОРСЬК-ПОРТ-ЕКСПОРТ,ЗЕРНО КУКУРУЗЫ,44,168,49.243053,30.097353,46.322273,30.629317
станція ЖМЕРИНКА,станція КСЕНІЄВЕ (ЕКСП.),ПШЕНИЦА,53,134,49.0346627,28.1115142,46.36337,30.62144
станція ЖМЕРИНКА,станція ЧОРНОМОРСЬК-ПОРТ-ЕКСПОРТ,ЗЕРНО КУКУРУЗЫ,373,106,49.0346627,28.1115142,46.322273,30.629317
станція ЖМЕРИНКА,станція ЧОРНОМОРСЬК-ПОРТ-ЕКСПОРТ,ПШЕНИЦА,54,85,49.0346627,28.1115142,46.322273,30.629317
станція ЖМЕРИНКА,станція ЧОРНОМОРСЬКА ( ЕКСП. ДЛЯ ТІС ),ЗЕРНО КУКУРУЗЫ,1453,189,49.0346627,28.1115142,46.82775,30.76
станція ЗАКУПНЕ,станція КСЕНІЄВЕ (ЕКСП.),ЗЕРНО КУКУРУЗЫ,247,197,49.108364,26.317903,46.36337,30.62144
станція ЗАКУПНЕ,станція ОДЕСА-ПОРТ  (ЕКСП.),ПШЕНИЦА,106,346.5,49.108364,26.317903,46.485545,30.748833
станція ЗАКУПНЕ,станція ОДЕСА-ПОРТ  (ЕКСП.),ЯЧМЕНЬ,101,216.5,49.108364,26.317903,46.485545,30.748833
станція ЗАКУПНЕ,станція ЧОРНОМОРСЬК-ПОРТ,ПШЕНИЦА,107,44.5,49.108364,26.317903,46.32227,30.62932
станція ЗАКУПНЕ,станція ЧОРНОМОРСЬК-ПОРТ-ЕКСПОРТ,ЗЕРНО КУКУРУЗЫ,52,123,49.108364,26.317903,46.322273,30.629317
станція ЗАКУПНЕ,станція ЧОРНОМОРСЬК-ПОРТ-ЕКСПОРТ,ПШЕНИЦА,105,53,49.108364,26.317903,46.322273,30.629317
станція ЗАКУПНЕ,станція ЧОРНОМОРСЬКА ( ЕКСП. ДЛЯ ТІС ),ЗЕРНО КУКУРУЗЫ,210,161,49.108364,26.317903,46.82775,30.76
станція ЗАКУПНЕ,станція ЧОРНОМОРСЬКА ( ЕКСП. ДЛЯ ТІС ),ПШЕНИЦА,53,71,49.108364,26.317903,46.82775,30.76
станція ЗДОЛБУНІВ,станція ОДЕСА-ПОРТ  (ЕКСП.),ЗЕРНО КУКУРУЗЫ,140,721,50.5068585,26.26955,46.485545,30.748833
станція ЗДОЛБУНІВ,станція ЧОРНОМОРСЬКА ( ЕКСП. ДЛЯ ТІС ),ПШЕНИЦА,54,196,50.5068585,26.26955,46.82775,30.76
станція ІЗЮМ,станція КСЕНІЄВЕ (ЕКСП.),ПШЕНИЦА,51,229,49.216,37.3011,46.36337,30.62144
станція ІЧНЯ,станція МИКОЛАЇВ,ЗЕРНО КУКУРУЗЫ,109,361,50.8423681,32.4079752,46.9576791,31.9758924
станція ІЧНЯ,станція МИКОЛАЇВ-ВАНТАЖНИЙ  (ЕКСП.),ПШЕНИЦА,162,203,50.8423681,32.4079752,46.9575,31.975556
станція ІЧНЯ,станція ЧОРНОМОРСЬК-ПОРТ,ЗЕРНО КУКУРУЗЫ,42,188,50.8423681,32.4079752,46.32227,30.62932
станція КАБАННЕ,станція МИКОЛАЇВ-ВАНТАЖНИЙ  (ЕКСП.),ПШЕНИЦА,48,194,49.22686,38.21578,46.9575,31.975556
станція КАМ’ЯНЕЦЬ-ПОДІЛЬСЬКИЙ,станція МИКОЛАЇВ-ВАНТАЖНИЙ,ЯЧМЕНЬ,48,48,48.6880686,26.6015963,46.9576791,31.9758924
станція КАМ’ЯНЕЦЬ-ПОДІЛЬСЬКИЙ,станція МИКОЛАЇВ-ВАНТАЖНИЙ  (ЕКСП.),ЗЕРНО КУКУРУЗЫ,152,482,48.6880686,26.6015963,46.9575,31.975556
станція КАМ’ЯНЕЦЬ-ПОДІЛЬСЬКИЙ,станція МИКОЛАЇВ-ВАНТАЖНИЙ  (ЕКСП.),ПШЕНИЦА,152,482,48.6880686,26.6015963,46.9575,31.975556
станція КАМ’ЯНЕЦЬ-ПОДІЛЬСЬКИЙ,станція МИКОЛАЇВ-ВАНТАЖНИЙ  (ЕКСП.),ЯЧМЕНЬ,54,482,48.6880686,26.6015963,46.9575,31.975556
станція КАМКА,станція ЖОВТНЕВА  (ЕКСП.),ЗЕРНО КУКУРУЗЫ,53,185,51.8637669,31.7805113,46.834899,31.967136
станція КАПІТАНІВКА,станція ОДЕСА-ПОРТ  (ЕКСП.),ПШЕНИЦА,210,146,48.915932,31.6996218,46.485545,30.748833
станція КАПІТАНІВКА,станція ЧОРНОМОРСЬК-ПОРТ,ПШЕНИЦА,54,101,48.915932,31.6996218,46.32227,30.62932
станція КАРЛІВКА,станція ЧОРНОМОРСЬК-ПОРТ,ЗЕРНО КУКУРУЗЫ,54,143,49.455277,35.127453,46.32227,30.62932
станція КАРЛІВКА,станція ЧОРНОМОРСЬКА ( ЕКСП. ДЛЯ ТІС ),ЗЕРНО КУКУРУЗЫ,53,108,49.455277,35.127453,46.82775,30.76
станція КНЯЖЕВЕ,станція ЧОРНОМОРСЬКА-ЕКСП.(ДЛЯ ОПЗ),ЗЕРНО КУКУРУЗЫ,54,27,48.471882,28.81294,46.82775,30.76
станція КНЯЖЕВЕ,станція ЧОРНОМОРСЬКА ( ЕКСП. ДЛЯ ТІС ),ПШЕНИЦА,54,91,48.471882,28.81294,46.82775,30.76
станція КОЗОВА,станція ОДЕСА-ПОРТ  (ЕКСП.),ПШЕНИЦА,90,109,49.4296637,25.1642181,46.485545,30.748833
станція КОЗОВА,станція ЧОРНОМОРСЬК-ПОРТ,ПШЕНИЦА,53,62,49.4296637,25.1642181,46.32227,30.62932
станція КОРИСТІВКА,станція ЖОВТНЕВА  (ЕКСП.),ЗЕРНО КУКУРУЗЫ,44,143,48.7319283,33.066253,46.834899,31.967136
станція КОРИСТІВКА,станція ЧОРНОМОРСЬК-ПОРТ,ЗЕРНО КУКУРУЗЫ,44,82,48.7319283,33.066253,46.32227,30.62932
станція КОРОЛІВКА,станція МИКОЛАЇВ-ВАНТАЖНИЙ  (ЕКСП.),ЗЕРНО КУКУРУЗЫ,54,150,48.579343,33.224713,46.9575,31.975556
станція КОРСУНЬ,станція КСЕНІЄВЕ (ЕКСП.),ПШЕНИЦА,161,148,49.4300146,31.3117628,46.36337,30.62144
станція КОРСУНЬ,станція ЧОРНОМОРСЬК-ПОРТ,ЗЕРНО КУКУРУЗЫ,53,47,49.4300146,31.3117628,46.32227,30.62932
станція КРАСИЛІВ,станція КСЕНІЄВЕ (ЕКСП.),ЗЕРНО КУКУРУЗЫ,54,54,49.6698356,27.0131238,46.36337,30.62144
станція КРАСНЕ,станція КСЕНІЄВЕ (ЕКСП.),ЗЕРНО КУКУРУЗЫ,197,659,49.9172135,24.6159582,46.36337,30.62144
станція КРАСНЕ,станція КСЕНІЄВЕ (ЕКСП.),ПШЕНИЦА,162,177,49.9172135,24.6159582,46.36337,30.62144
станція КРАСНЕ,станція КСЕНІЄВЕ (ЕКСП.),ЯЧМЕНЬ,51,177,49.9172135,24.6159582,46.36337,30.62144
станція КРАСНЕ,станція ОДЕСА-ПОРТ  (ЕКСП.),ПШЕНИЦА,215,203,49.9172135,24.6159582,46.485545,30.748833
станція КРАСНЕ,станція ЧОРНОМОРСЬК-ПОРТ-ЕКСПОРТ,ЗЕРНО КУКУРУЗЫ,309,592,49.9172135,24.6159582,46.322273,30.629317
станція КРАСНЕ,станція ЧОРНОМОРСЬК-ПОРТ-ЕКСПОРТ,ПШЕНИЦА,313,183,49.9172135,24.6159582,46.322273,30.629317
станція КРАСНЕ,станція ЧОРНОМОРСЬКА-ЕКСП.(ДЛЯ ОПЗ),ЗЕРНО КУКУРУЗЫ,100,170,49.9172135,24.6159582,46.82775,30.76
станція КРАСНОГРАД,станція ЧОРНОМОРСЬК-ПОРТ-ЕКСПОРТ,ЗЕРНО КУКУРУЗЫ,42,188,49.3606597,35.4455103,46.322273,30.629317
станція КРАСНОПАВЛІВКА,станція МИКОЛАЇВ-ВАНТАЖНИЙ,ПШЕНИЦА,44,129,49.1403045,36.3217788,46.9576791,31.9758924
станція КРЕМЕНЧУК,станція МИКОЛАЇВ-ВАНТАЖНИЙ  (ЕКСП.),ЗЕРНО КУКУРУЗЫ,53,83,49.0678972,33.4277227,46.9575,31.975556
станція КРИЖОПІЛЬ,станція ОДЕСА-ПОРТ  (ЕКСП.),ЗЕРНО КУКУРУЗЫ,150,60,48.3793207,28.8652,46.485545,30.748833
станція КРОЛЕВЕЦЬ,станція ЧОРНОМОРСЬК-ПОРТ-ЕКСПОРТ,ЗЕРНО КУКУРУЗЫ,101,229,51.5513099,33.3628093,46.322273,30.629317
станція ЛИНОВИЦЯ,станція МИКОЛАЇВ-ВАНТАЖНИЙ  (ЕКСП.),ЗЕРНО КУКУРУЗЫ,318,141,50.472523,32.3761449,46.9575,31.975556
станція ЛИХАЧОВЕ,станція ОДЕСА-ПОРТ  (ЕКСП.),ПШЕНИЦА,52,139,49.3823544,36.2086193,46.485545,30.748833
станція ЛИХАЧОВЕ,станція ЧОРНОМОРСЬКА ( ЕКСП. ДЛЯ ТІС ),ЯЧМЕНЬ,55,165,49.3823544,36.2086193,46.82775,30.76
станція МАР’ЯНІВКА,станція ВРАДІЇВКА,ПШЕНИЦА,54,177,49.494859,26.746056,47.87692,30.58557
станція МАР’ЯНІВКА,станція КРЕМЕНЧУК,ПШЕНИЦА,54,99,49.494859,26.746056,49.0678972,33.4277227
станція МЕНА,станція ЧОРНОМОРСЬК-ПОРТ-ЕКСПОРТ,ЗЕРНО КУКУРУЗЫ,105,130,51.5325603,32.2348727,46.322273,30.629317
станція МИРГОРОД,станція ЖОВТНЕВА  (ЕКСП.),ЗЕРНО КУКУРУЗЫ,462,161,49.9496173,33.6299724,46.834899,31.967136
станція МИРГОРОД,станція КСЕНІЄВЕ (ЕКСП.),ЗЕРНО КУКУРУЗЫ,107,157.5,49.9496173,33.6299724,46.36337,30.62144
станція МИРГОРОД,станція МИКОЛАЇВ-ВАНТАЖНИЙ  (ЕКСП.),ЗЕРНО КУКУРУЗЫ,1545,158,49.9496173,33.6299724,46.9575,31.975556
станція МИРГОРОД,станція ОДЕСА-ПОРТ  (ЕКСП.),ЗЕРНО КУКУРУЗЫ,947,212,49.9496173,33.6299724,46.485545,30.748833
станція МИРГОРОД,станція ЧОРНОМОРСЬКА-ЕКСП.(ДЛЯ ОПЗ),ЗЕРНО КУКУРУЗЫ,108,231.5,49.9496173,33.6299724,46.82775,30.76
станція МИРОПІЛЬ,станція МИКОЛАЇВ,ЗЕРНО КУКУРУЗЫ,103,232.5,50.09977,27.66868,46.9576791,31.9758924
станція МИХАЙЛЕНКИ,станція ЧОРНОМОРСЬК-ПОРТ-ЕКСПОРТ,ЗЕРНО КУКУРУЗЫ,54,147,49.9712662,28.293328,46.322273,30.629317
станція МОСТИСЬКА II,станція ОДЕСА-ПОРТ  (ЕКСП.),ЗЕРНО КУКУРУЗЫ,107,226.5,49.8166178,23.0325224,46.485545,30.748833
станція МОСТИСЬКА II,станція ЧОРНОМОРСЬК-ПОРТ,ПШЕНИЦА,93,115,49.8166178,23.0325224,46.32227,30.62932
станція МОСТИСЬКА II,станція ЧОРНОМОРСЬК-ПОРТ,ЯЧМЕНЬ,45,173,49.8166178,23.0325224,46.32227,30.62932
станція МОСТИСЬКА II,станція ЧОРНОМОРСЬК-ПОРТ-ЕКСПОРТ,ЗЕРНО КУКУРУЗЫ,51,34,49.8166178,23.0325224,46.322273,30.629317
станція НІЖИН,станція КСЕНІЄВЕ (ЕКСП.),ЗЕРНО КУКУРУЗЫ,156,160,51.0179091,31.8888883,46.36337,30.62144
станція НІЖИН,станція ОДЕСА-ПОРТ  (ЕКСП.),ЗЕРНО КУКУРУЗЫ,52,131,51.0179091,31.8888883,46.485545,30.748833
станція НІЖИН,станція ЧОРНОМОРСЬК-ПОРТ,ЗЕРНО КУКУРУЗЫ,45,137,51.0179091,31.8888883,46.32227,30.62932
станція НІЖИН,станція ЧОРНОМОРСЬК-ПОРТ-ЕКСПОРТ,ЗЕРНО КУКУРУЗЫ,1041,620,51.0179091,31.8888883,46.322273,30.629317
станція НОВІ САНЖАРИ,станція ОДЕСА-ПОРТ  (ЕКСП.),ЗЕРНО КУКУРУЗЫ,46,193,49.3279388,34.4040708,46.485545,30.748833
станція НОСІВКА,станція МИКОЛАЇВ,ЗЕРНО КУКУРУЗЫ,52,704,50.9041989,31.6053645,46.9576791,31.9758924
станція НОСІВКА,станція ЧОРНОМОРСЬКА-ЕКСП.(ДЛЯ ОПЗ),ЗЕРНО КУКУРУЗЫ,52,829,50.9041989,31.6053645,46.82775,30.76
станція ОВРУЧ,станція МИКОЛАЇВ-ВАНТАЖНИЙ,ПШЕНИЦА,52,191,51.3249995,28.8173906,46.9576791,31.9758924
станція ОВРУЧ,станція ОДЕСА-ПОРТ  (ЕКСП.),ПШЕНИЦА,102,224.5,51.3249995,28.8173906,46.485545,30.748833
станція ОВРУЧ,станція ЧОРНОМОРСЬК-ПОРТ-ЕКСПОРТ,ПШЕНИЦА,53,73,51.3249995,28.8173906,46.322273,30.629317
станція ОВРУЧ,станція ЧОРНОМОРСЬКА ( ЕКСП. ДЛЯ ТІС ),ЗЕРНО КУКУРУЗЫ,53,227,51.3249995,28.8173906,46.82775,30.76
станція ОДНОРОБІВКА,станція КСЕНІЄВЕ (ЕКСП.),ПШЕНИЦА,54,143,50.417404,35.858876,46.36337,30.62144
станція ОДНОРОБІВКА,станція ЧОРНОМОРСЬКА ( ЕКСП. ДЛЯ ТІС ),ПШЕНИЦА,49,163,50.417404,35.858876,46.82775,30.76
станція ОЛИКА,станція КСЕНІЄВЕ (ЕКСП.),ЗЕРНО КУКУРУЗЫ,53,158,50.783106,25.741355,46.36337,30.62144
станція ОЛИКА,станція ЧОРНОМОРСЬК-ПОРТ,ПШЕНИЦА,44,58,50.783106,25.741355,46.32227,30.62932
станція ОЛИКА,станція ЧОРНОМОРСЬК-ПОРТ,ЯЧМЕНЬ,53,162,50.783106,25.741355,46.32227,30.62932
станція ОЛИКА,станція ЧОРНОМОРСЬК-ПОРТ-ЕКСПОРТ,ЗЕРНО КУКУРУЗЫ,44,162,50.783106,25.741355,46.322273,30.629317
станція ОЛИКА,станція ЧОРНОМОРСЬК-ПОРТ-ЕКСПОРТ,ПШЕНИЦА,108,132.5,50.783106,25.741355,46.322273,30.629317
станція ОЛИКА,станція ЧОРНОМОРСЬКА-ЕКСП.(ДЛЯ ОПЗ),ЗЕРНО КУКУРУЗЫ,53,119,50.783106,25.741355,46.82775,30.76
станція ОЛИКА,станція ЧОРНОМОРСЬКА ( ЕКСП. ДЛЯ ТІС ),ПШЕНИЦА,53,140,50.783106,25.741355,46.82775,30.76
станція ПАЛЬМІРА,станція МИКОЛАЇВ-ВАНТАЖНИЙ,ЗЕРНО КУКУРУЗЫ,586,100,49.76097,32.15311,46.9576791,31.9758924
станція ПАЛЬМІРА,станція МИКОЛАЇВ-ВАНТАЖНИЙ,ПШЕНИЦА,109,133,49.76097,32.15311,46.9576791,31.9758924
станція ПЕРЕЯСЛАВСЬКА,станція ОДЕСА-ПОРТ  (ЕКСП.),ЗЕРНО КУКУРУЗЫ,721,170,50.2639559,31.6561389,46.485545,30.748833
станція ПИРЯТИН,станція ЖОВТНЕВА  (ЕКСП.),ЗЕРНО КУКУРУЗЫ,105,327.5,50.23819,32.5059299,46.834899,31.967136
станція ПИРЯТИН,станція МИКОЛАЇВ-ВАНТАЖНИЙ  (ЕКСП.),ЗЕРНО КУКУРУЗЫ,96,187,50.23819,32.5059299,46.9575,31.975556
станція ПОДІЛЬСЬК,станція КСЕНІЄВЕ (ЕКСП.),ЗЕРНО КУКУРУЗЫ,159,67,47.748235,29.5294171,46.36337,30.62144
станція ПОДІЛЬСЬК,станція ОДЕСА-ПОРТ  (ЕКСП.),ЗЕРНО КУКУРУЗЫ,84,62,47.748235,29.5294171,46.485545,30.748833
станція ПОДІЛЬСЬК,станція ЧОРНОМОРСЬК-ПОРТ-ЕКСПОРТ,ЗЕРНО КУКУРУЗЫ,48,75,47.748235,29.5294171,46.322273,30.629317
станція ПОДІЛЬСЬК,станція ЧОРНОМОРСЬКА ( ЕКСП. ДЛЯ ТІС ),ЗЕРНО КУКУРУЗЫ,57,128,47.748235,29.5294171,46.82775,30.76
станція ПОДІЛЬСЬК,станція ЧОРНОМОРСЬКА ( ЕКСП. ДЛЯ ТІС ),ПШЕНИЦА,42,85,47.748235,29.5294171,46.82775,30.76
станція ПОПІЛЬНЯ,станція КСЕНІЄВЕ (ЕКСП.),ЗЕРНО КУКУРУЗЫ,367,189,49.9443357,29.4597706,46.36337,30.62144
станція ПОПІЛЬНЯ,станція ОДЕСА-ПОРТ  (ЕКСП.),ПШЕНИЦА,267,138,49.9443357,29.4597706,46.485545,30.748833
станція ПОПІЛЬНЯ,станція ЧОРНОМОРСЬК-ПОРТ,ЗЕРНО КУКУРУЗЫ,206,103,49.9443357,29.4597706,46.32227,30.62932
станція ПОПІЛЬНЯ,станція ЧОРНОМОРСЬК-ПОРТ-ЕКСПОРТ,ЗЕРНО КУКУРУЗЫ,1044,196,49.9443357,29.4597706,46.322273,30.629317
станція ПОПІЛЬНЯ,станція ЧОРНОМОРСЬК-ПОРТ-ЕКСПОРТ,ПШЕНИЦА,94,196,49.9443357,29.4597706,46.322273,30.629317
станція ПОПІЛЬНЯ,станція ЧОРНОМОРСЬКА-ЕКСП.(ДЛЯ ОПЗ),ЗЕРНО КУКУРУЗЫ,1659,205,49.9443357,29.4597706,46.82775,30.76
станція ПРИЛУКИ,станція ЖОВТНЕВА  (ЕКСП.),ЗЕРНО КУКУРУЗЫ,946,184,50.5820914,32.3843273,46.834899,31.967136
станція ПРИЛУКИ,станція КСЕНІЄВЕ (ЕКСП.),ЗЕРНО КУКУРУЗЫ,101,196,50.5820914,32.3843273,46.36337,30.62144
станція ПРИЛУКИ,станція МИКОЛАЇВ-ВАНТАЖНИЙ  (ЕКСП.),ЗЕРНО КУКУРУЗЫ,6002,192,50.5820914,32.3843273,46.9575,31.975556
станція ПРИЛУКИ,станція ОДЕСА-ПОРТ  (ЕКСП.),ЗЕРНО КУКУРУЗЫ,471,218,50.5820914,32.3843273,46.485545,30.748833
станція ПРИЛУКИ,станція ОДЕСА-ПОРТ  (ЕКСП.),ПШЕНИЦА,209,196,50.5820914,32.3843273,46.485545,30.748833
станція ПРИЛУКИ,станція ЧОРНОМОРСЬК-ПОРТ,ЗЕРНО КУКУРУЗЫ,51,75,50.5820914,32.3843273,46.32227,30.62932
станція ПРИЛУКИ,станція ЧОРНОМОРСЬК-ПОРТ-ЕКСПОРТ,ЗЕРНО КУКУРУЗЫ,270,226,50.5820914,32.3843273,46.322273,30.629317
станція ПРИЛУКИ,станція ЧОРНОМОРСЬК-ПОРТ-ЕКСПОРТ,ПШЕНИЦА,53,88,50.5820914,32.3843273,46.322273,30.629317
станція ПРОСЯНА ІМ. ПРИКЛОНСЬКОГО В.В.,станція МИКОЛАЇВ-ВАНТАЖНИЙ  (ЕКСП.),ПШЕНИЦА,48,105,48.116045,36.3725301,46.9575,31.975556
станція РАДИВИЛІВ,станція КСЕНІЄВЕ (ЕКСП.),ЗЕРНО КУКУРУЗЫ,54,190,50.1284748,25.2516423,46.36337,30.62144
станція РАДИВИЛІВ,станція КСЕНІЄВЕ (ЕКСП.),ПШЕНИЦА,162,84,50.1284748,25.2516423,46.36337,30.62144
станція РАДИВИЛІВ,станція ОДЕСА-ПОРТ  (ЕКСП.),ПШЕНИЦА,52,149,50.1284748,25.2516423,46.485545,30.748833
станція РАДИВИЛІВ,станція ЧОРНОМОРСЬК-ПОРТ,ПШЕНИЦА,108,133.5,50.1284748,25.2516423,46.32227,30.62932
станція РАДИВИЛІВ,станція ЧОРНОМОРСЬК-ПОРТ-ЕКСПОРТ,ЗЕРНО КУКУРУЗЫ,51,71,50.1284748,25.2516423,46.322273,30.629317
станція РАДИВИЛІВ,станція ЧОРНОМОРСЬКА ( ЕКСП. ДЛЯ ТІС ),ЗЕРНО КУКУРУЗЫ,50,90,50.1284748,25.2516423,46.82775,30.76
станція РЕШЕТИЛІВКА,станція ЖОВТНЕВА  (ЕКСП.),ЗЕРНО КУКУРУЗЫ,49,170,49.5543415,34.0678632,46.834899,31.967136
станція РЕШЕТИЛІВКА,станція МИКОЛАЇВ-ВАНТАЖНИЙ,ЯЧМЕНЬ,41,125,49.5543415,34.0678632,46.9576791,31.9758924
станція РЕШЕТИЛІВКА,станція ЧОРНОМОРСЬК-ПОРТ-ЕКСПОРТ,ЗЕРНО КУКУРУЗЫ,107,191,49.5543415,34.0678632,46.322273,30.629317
станція РОГАТИН,станція КСЕНІЄВЕ (ЕКСП.),ЗЕРНО КУКУРУЗЫ,148,89,49.3997817,24.6214515,46.36337,30.62144
станція РОГАТИН,станція ЧОРНОМОРСЬК-ПОРТ,ЗЕРНО КУКУРУЗЫ,149,20,49.3997817,24.6214515,46.32227,30.62932
станція РОКИТНЕ,станція МИКОЛАЇВ-ВАНТАЖНИЙ  (ЕКСП.),ПШЕНИЦА,159,117,49.6956,30.5090999,46.9575,31.975556
станція РОМОДАН,станція ЖОВТНЕВА  (ЕКСП.),ЗЕРНО КУКУРУЗЫ,209,191,49.9922707,33.3207696,46.834899,31.967136
станція РУБІЖНЕ,станція ЖОВТНЕВА  (ЕКСП.),ПШЕНИЦА,361,754,49.0241813,38.3538418,46.834899,31.967136
станція САВИНЦІ,станція МИКОЛАЇВ-ВАНТАЖНИЙ  (ЕКСП.),ПШЕНИЦА,53,171,49.392,37.038292,46.9575,31.975556
станція САРАТА,станція ЖОВТНЕВА  (ЕКСП.),ЯЧМЕНЬ,54,134,46.0159204,29.6789749,46.834899,31.967136
станція САРАТА,станція ОДЕСА-ПОРТ  (ЕКСП.),ПШЕНИЦА,456,89,46.0159204,29.6789749,46.485545,30.748833
станція САРАТА,станція ЧОРНОМОРСЬК-ПОРТ-ЕКСПОРТ,ПШЕНИЦА,53,42,46.0159204,29.6789749,46.322273,30.629317
станція САРАТА,станція ЧОРНОМОРСЬКА ( ЕКСП. ДЛЯ ТІС ),ПШЕНИЦА,158,115,46.0159204,29.6789749,46.82775,30.76
станція САРАТА,станція ЧОРНОМОРСЬКА ( ЕКСП. ДЛЯ ТІС ),ЯЧМЕНЬ,421,115,46.0159204,29.6789749,46.82775,30.76
станція СВАТОВЕ,станція ЖОВТНЕВА  (ЕКСП.),ЗЕРНО КУКУРУЗЫ,98,606,49.40891,38.1644926,46.834899,31.967136
станція СВАТОВЕ,станція КРЕМЕНЧУК,ЗЕРНО КУКУРУЗЫ,54,147,49.40891,38.1644926,49.0678972,33.4277227
станція СВАТОВЕ,станція КРЕМЕНЧУК,ЯЧМЕНЬ,108,184,49.40891,38.1644926,49.0678972,33.4277227
станція СВАТОВЕ,станція МИКОЛАЇВ-ВАНТАЖНИЙ,ЯЧМЕНЬ,54,797,49.40891,38.1644926,46.9576791,31.9758924
станція СВІТЛОВОДСЬК,станція МИКОЛАЇВ,ПШЕНИЦА,55,71,49.045692,33.254924,46.9576791,31.9758924
станція СВІТЛОВОДСЬК,станція МИКОЛАЇВ-ВАНТАЖНИЙ  (ЕКСП.),ЗЕРНО КУКУРУЗЫ,525,91,49.045692,33.254924,46.9575,31.975556
станція СВІТЛОВОДСЬК,станція ЧОРНОМОРСЬКА ( ЕКСП. ДЛЯ ТІС ),ЗЕРНО КУКУРУЗЫ,158,171,49.045692,33.254924,46.82775,30.76
станція СЕЛЕЩИНА,станція МИКОЛАЇВ-ВАНТАЖНИЙ  (ЕКСП.),ЗЕРНО КУКУРУЗЫ,133,158,49.4675792,34.8356181,46.9575,31.975556
станція СЕЛЕЩИНА,станція ОДЕСА-ПОРТ  (ЕКСП.),ЗЕРНО КУКУРУЗЫ,47,213,49.4675792,34.8356181,46.485545,30.748833
станція СИГНАЇВКА,станція МИКОЛАЇВ-ВАНТАЖНИЙ  (ЕКСП.),ЗЕРНО КУКУРУЗЫ,148,92,49.0572906,31.4977695,46.9575,31.975556
станція СИГНАЇВКА,станція ЧОРНОМОРСЬКА ( ЕКСП. ДЛЯ ТІС ),ЗЕРНО КУКУРУЗЫ,101,151.5,49.0572906,31.4977695,46.82775,30.76
станція СЛАВУТА I,станція ОДЕСА-ПОРТ  (ЕКСП.),ЗЕРНО КУКУРУЗЫ,44,668,50.32072,26.88511,46.485545,30.748833
станція СЛАВУТА I,станція ЧОРНОМОРСЬКА-ЕКСП.(ДЛЯ ОПЗ),ЗЕРНО КУКУРУЗЫ,44,73,50.32072,26.88511,46.82775,30.76
станція СНОВСЬК,станція МИКОЛАЇВ-ВАНТАЖНИЙ  (ЕКСП.),ЗЕРНО КУКУРУЗЫ,162,180,51.8139321,31.9430845,46.9575,31.975556
станція СНОВСЬК,станція ОДЕСА-ПОРТ  (ЕКСП.),ЗЕРНО КУКУРУЗЫ,476,191,51.8139321,31.9430845,46.485545,30.748833
станція СНОВСЬК,станція ОДЕСА-ПОРТ  (ЕКСП.),ПШЕНИЦА,51,159,51.8139321,31.9430845,46.485545,30.748833
станція СНОВСЬК,станція ЧОРНОМОРСЬК-ПОРТ,ПШЕНИЦА,46,198,51.8139321,31.9430845,46.32227,30.62932
станція СНОВСЬК,станція ЧОРНОМОРСЬК-ПОРТ-ЕКСПОРТ,ЗЕРНО КУКУРУЗЫ,161,141,51.8139321,31.9430845,46.322273,30.629317
станція СНОВСЬК,станція ЧОРНОМОРСЬКА ( ЕКСП. ДЛЯ ТІС ),ЗЕРНО КУКУРУЗЫ,106,234,51.8139321,31.9430845,46.82775,30.76
станція СТАРОКОСТЯНТИНІВ I,станція ЧОРНОМОРСЬК-ПОРТ,ПШЕНИЦА,52,194,49.753,27.1674,46.32227,30.62932
станція СТАРОКОСТЯНТИНІВ II,станція КСЕНІЄВЕ (ЕКСП.),ЗЕРНО КУКУРУЗЫ,104,111.5,49.733726,27.2788967,46.36337,30.62144
станція СТАРОКОСТЯНТИНІВ II,станція ЧОРНОМОРСЬК-ПОРТ-ЕКСПОРТ,ЗЕРНО КУКУРУЗЫ,2695,197,49.733726,27.2788967,46.322273,30.629317
станція СТАРОКОСТЯНТИНІВ II,станція ЧОРНОМОРСЬК-ПОРТ-ЕКСПОРТ,ПШЕНИЦА,1636,197,49.733726,27.2788967,46.322273,30.629317
станція СТАРОКОСТЯНТИНІВ II,станція ЧОРНОМОРСЬКА ( ЕКСП. ДЛЯ ТІС ),ЗЕРНО КУКУРУЗЫ,476,207,49.733726,27.2788967,46.82775,30.76
станція СУЛА,станція ЖОВТНЕВА  (ЕКСП.),ПШЕНИЦА,265,170,50.3987138,33.3989524,46.834899,31.967136
станція СУЛА,станція ЧОРНОМОРСЬК-ПОРТ,ПШЕНИЦА,108,164,50.3987138,33.3989524,46.32227,30.62932
станція СУЛА,станція ЧОРНОМОРСЬКА-ЕКСП.(ДЛЯ ОПЗ),ЗЕРНО КУКУРУЗЫ,360,161,50.3987138,33.3989524,46.82775,30.76
станція СУПРУНІВКА,станція ОДЕСА-ПОРТ  (ЕКСП.),ЗЕРНО КУКУРУЗЫ,54,127,49.587831,34.476587,46.485545,30.748833
станція ТАЛЬНЕ,станція ЧОРНОМОРСЬКА ( ЕКСП. ДЛЯ ТІС ),ЗЕРНО КУКУРУЗЫ,821,186,48.8952,30.7242999,46.82775,30.76
станція ТОРОПИЛІВКА,станція ДНІПРО-ГОЛОВНИЙ,ПШЕНИЦА,107,194,50.942266,34.670085,48.477403,35.0153242
станція ТОРОПИЛІВКА,станція КСЕНІЄВЕ (ЕКСП.),ПШЕНИЦА,44,497,50.942266,34.670085,46.36337,30.62144
станція ТОРОПИЛІВКА,станція МИКОЛАЇВ-ВАНТАЖНИЙ  (ЕКСП.),ПШЕНИЦА,356,200,50.942266,34.670085,46.9575,31.975556
станція ТОРОПИЛІВКА,станція ЧОРНОМОРСЬК-ПОРТ,ЗЕРНО КУКУРУЗЫ,51,521,50.942266,34.670085,46.32227,30.62932
станція ТОРОПИЛІВКА,станція ЧОРНОМОРСЬК-ПОРТ-ЕКСПОРТ,ПШЕНИЦА,146,145,50.942266,34.670085,46.322273,30.629317
станція ТРОСТЯНЕЦЬ-СМОРОДИНЕ,станція ЧОРНОМОРСЬК-ПОРТ-ЕКСПОРТ,ЗЕРНО КУКУРУЗЫ,97,213,50.476667,34.971944,46.322273,30.629317
станція УЛАДІВКА,станція ОДЕСА-ПОРТ  (ЕКСП.),ПШЕНИЦА,524,100,49.4996345,28.2276245,46.485545,30.748833
станція УЛАДІВКА,станція ОДЕСА-ПОРТ  (ЕКСП.),ЯЧМЕНЬ,106,167,49.4996345,28.2276245,46.485545,30.748833
станція УМАНЬ,станція ЧОРНОМОРСЬКА ( ЕКСП. ДЛЯ ТІС ),ЗЕРНО КУКУРУЗЫ,53,103,48.7329414,30.2045794,46.82775,30.76
станція ХАРКІВ-СОРТУВАЛЬНИЙ,станція ЧОРНОМОРСЬКА ( ЕКСП. ДЛЯ ТІС ),ЗЕРНО КУКУРУЗЫ,53,189,50.030735,36.177962,46.82775,30.76
станція ХМІЛЬНИК,станція ЖОВТНЕВА  (ЕКСП.),ПШЕНИЦА,148,180,49.5589169,27.9843265,46.834899,31.967136
станція ХМІЛЬНИК,станція КСЕНІЄВЕ (ЕКСП.),ЗЕРНО КУКУРУЗЫ,1823,175,49.5589169,27.9843265,46.36337,30.62144
станція ХМІЛЬНИК,станція КСЕНІЄВЕ (ЕКСП.),ПШЕНИЦА,211,75,49.5589169,27.9843265,46.36337,30.62144
станція ХМІЛЬНИК,станція МИКОЛАЇВ-ВАНТАЖНИЙ,ПШЕНИЦА,53,142,49.5589169,27.9843265,46.9576791,31.9758924
станція ХМІЛЬНИК,станція ОДЕСА-ПОРТ  (ЕКСП.),ЗЕРНО КУКУРУЗЫ,892,173,49.5589169,27.9843265,46.485545,30.748833
станція ХМІЛЬНИК,станція ОДЕСА-ПОРТ  (ЕКСП.),ПШЕНИЦА,359,173,49.5589169,27.9843265,46.485545,30.748833
станція ХМІЛЬНИК,станція ЧОРНОМОРСЬК-ПОРТ,ЗЕРНО КУКУРУЗЫ,674,183,49.5589169,27.9843265,46.32227,30.62932
станція ХМІЛЬНИК,станція ЧОРНОМОРСЬК-ПОРТ-ЕКСПОРТ,ЗЕРНО КУКУРУЗЫ,1108,183,49.5589169,27.9843265,46.322273,30.629317
станція ХМІЛЬНИК,станція ЧОРНОМОРСЬКА-ЕКСП.(ДЛЯ ОПЗ),ЗЕРНО КУКУРУЗЫ,51,143,49.5589169,27.9843265,46.82775,30.76
станція ХМІЛЬНИК,станція ЧОРНОМОРСЬКА ( ЕКСП. ДЛЯ ТІС ),ЗЕРНО КУКУРУЗЫ,1163,193,49.5589169,27.9843265,46.82775,30.76
станція ХМІЛЬНИК,станція ЧОРНОМОРСЬКА ( ЕКСП. ДЛЯ ТІС ),ПШЕНИЦА,319,96,49.5589169,27.9843265,46.82775,30.76
станція ХОРОСТКІВ,станція ЧОРНОМОРСЬКА-ЕКСП.(ДЛЯ ОПЗ),ЗЕРНО КУКУРУЗЫ,51,726,49.1954754,25.9093771,46.82775,30.76
станція ХОРОСТКІВ,станція ЧОРНОМОРСЬКА ( ЕКСП. ДЛЯ ТІС ),ЗЕРНО КУКУРУЗЫ,53,182,49.1954754,25.9093771,46.82775,30.76
станція ХРИСТИНІВКА,станція ЖОВТНЕВА  (ЕКСП.),ЗЕРНО КУКУРУЗЫ,50,86,48.8152048,29.9726289,46.834899,31.967136
станція ХРИСТИНІВКА,станція МИКОЛАЇВ-ВАНТАЖНИЙ  (ЕКСП.),ЗЕРНО КУКУРУЗЫ,290,147.5,48.8152048,29.9726289,46.9575,31.975556
станція ХРИСТИНІВКА,станція ЧОРНОМОРСЬК-ПОРТ-ЕКСПОРТ,ЗЕРНО КУКУРУЗЫ,986,155,48.8152048,29.9726289,46.322273,30.629317
станція ХРИСТИНІВКА,станція ЧОРНОМОРСЬКА ( ЕКСП. ДЛЯ ТІС ),ЗЕРНО КУКУРУЗЫ,1357,165,48.8152048,29.9726289,46.82775,30.76
станція ХРИСТИНІВКА,станція ЧОРНОМОРСЬКА ( ЕКСП. ДЛЯ ТІС ),ПШЕНИЦА,52,165,48.8152048,29.9726289,46.82775,30.76
станція ЧЕРКАСИ,станція ЖОВТНЕВА  (ЕКСП.),ЗЕРНО КУКУРУЗЫ,98,152.5,49.425949,32.0498809,46.834899,31.967136
станція ЧЕРНІГІВ ПІВНІЧНИЙ,станція ЧОРНОМОРСЬК-ПОРТ-ЕКСПОРТ,ЗЕРНО КУКУРУЗЫ,106,205,51.519809,31.248508,46.322273,30.629317
станція ЧОРНОМОРСЬК-ПОРТ,станція МИКОЛАЇВ-ВАНТАЖНИЙ,ЗЕРНО КУКУРУЗЫ,45,26,46.32227,30.62932,46.9576791,31.9758924
станція ШОСТКА,станція КСЕНІЄВЕ (ЕКСП.),ЗЕРНО КУКУРУЗЫ,214,734,51.8586052,33.4811011,46.36337,30.62144
станція ШОСТКА,станція ОДЕСА-ПОРТ  (ЕКСП.),ЗЕРНО КУКУРУЗЫ,107,723.5,51.8586052,33.4811011,46.485545,30.748833
станція ШОСТКА,станція ЧОРНОМОРСЬК-ПОРТ-ЕКСПОРТ,ПШЕНИЦА,52,143,51.8586052,33.4811011,46.322273,30.629317
станція ЯГОТИН,станція МИКОЛАЇВ-ВАНТАЖНИЙ  (ЕКСП.),ЗЕРНО КУКУРУЗЫ,52,189,50.2379455,31.7959967,46.9575,31.975556
станція ЯРЕСЬКИ,станція ЖОВТНЕВА  (ЕКСП.),ЗЕРНО КУКУРУЗЫ,306,149,49.81517,33.88322,46.834899,31.967136
станція ЯРЕСЬКИ,станція КСЕНІЄВЕ (ЕКСП.),ПШЕНИЦА,56,174,49.81517,33.88322,46.36337,30.62144
станція ЯРЕСЬКИ,станція ЧОРНОМОРСЬКА ( ЕКСП. ДЛЯ ТІС ),ЗЕРНО КУКУРУЗЫ,106,155,49.81517,33.88322,46.82775,30.76
станція ЯРОШЕНКА,станція ЧОРНОМОРСЬКА ( ЕКСП. ДЛЯ ТІС ),ЗЕРНО КУКУРУЗЫ,151,108,48.9018793,28.2678126,46.82775,30.76
