sender,receiver,cargo_name,no_wagons,mdn_speed,lat_sender,lon_sender,lat_receiver,lon_receiver
станція БЕХИ,станція БІЛИЙ КОЛОДЯЗЬ,ЩЕБЕНЬ ГРАНИТНЫЙ НЕ ПОИМЕНОВАННЫЙ В АЛФАВИТЕ,42,176,51.072889,28.677556,50.204024,37.103261
станція БЕХИ,станція ЗАПИТІВ,ЩЕБЕНЬ ГРАНИТНЫЙ НЕ ПОИМЕНОВАННЫЙ В АЛФАВИТЕ,51,116,51.072889,28.677556,49.920035,24.2236161
станція БЕХИ,станція НАДВІРНА,ЩЕБЕНЬ ГРАНИТНЫЙ НЕ ПОИМЕНОВАННЫЙ В АЛФАВИТЕ,43,206,51.072889,28.677556,48.6242545,24.5847443
станція БЕХИ,станція ПЕРЕЯСЛАВСЬКА,ОТСЕВ ГРАНИТНЫЙ ИЛИ КАМЕННЫЙ,47,88,51.072889,28.677556,50.2639559,31.6561389
станція БЕХИ,станція ПЕРСЕНКІВКА,ЩЕБЕНЬ ГРАНИТНЫЙ НЕ ПОИМЕНОВАННЫЙ В АЛФАВИТЕ,92,52,51.072889,28.677556,49.8098013,24.030408
станція БЕХИ,станція САДГОРА,ЩЕБЕНЬ ГРАНИТНЫЙ НЕ ПОИМЕНОВАННЫЙ В АЛФАВИТЕ,42,47,51.072889,28.677556,48.332069,25.949382
станція БЕХИ,станція СКНИЛІВ,ЩЕБЕНЬ ГРАНИТНЫЙ НЕ ПОИМЕНОВАННЫЙ В АЛФАВИТЕ,44,148,51.072889,28.677556,49.818992,23.931606
станція БОЛЕСЛАВЧИК,станція АККАРЖА,ЩЕБЕНЬ ГРАНИТНЫЙ НЕ ПОИМЕНОВАННЫЙ В АЛФАВИТЕ,43,124,48.112439,30.784414,46.3322,30.55886
станція БОЛЕСЛАВЧИК,станція ЗАОСКІЛЛЯ,ЩЕБЕНЬ ГРАНИТНЫЙ НЕ ПОИМЕНОВАННЫЙ В АЛФАВИТЕ,42,171,48.112439,30.784414,49.708273,37.63754
станція БОЛЕСЛАВЧИК,станція ХАРКІВ-ЛІСКИ,ЩЕБЕНЬ ГРАНИТНЫЙ НЕ ПОИМЕНОВАННЫЙ В АЛФАВИТЕ,50,62,48.112439,30.784414,49.959174,36.238248
станція БРАЇЛІВ,станція БЕРЕЗОВИЦЯ-ОСТРІВ,ЩЕБЕНЬ ГРАНИТНЫЙ НЕ ПОИМЕНОВАННЫЙ В АЛФАВИТЕ,95,81.5,49.0861866,28.1400596,49.490776,25.605512
станція БРАЇЛІВ,станція КОЗОВА,ЩЕБЕНЬ ГРАНИТНЫЙ НЕ ПОИМЕНОВАННЫЙ В АЛФАВИТЕ,58,134,49.0861866,28.1400596,49.4296637,25.1642181
станція БРАЇЛІВ,станція МАГАЛА (РЗД),ЩЕБЕНЬ ГРАНИТНЫЙ НЕ ПОИМЕНОВАННЫЙ В АЛФАВИТЕ,54,126,49.0861866,28.1400596,48.288608,26.0245891
станція БРАЇЛІВ,станція НАДВІРНА,ЩЕБЕНЬ ГРАНИТНЫЙ НЕ ПОИМЕНОВАННЫЙ В АЛФАВИТЕ,56,181,49.0861866,28.1400596,48.6242545,24.5847443
станція БРАЇЛІВ,станція ОДЕСА-ЗАСТАВА II,ОТСЕВ ГРАНИТНЫЙ ИЛИ КАМЕННЫЙ,98,96.5,49.0861866,28.1400596,46.463065,30.684796
станція БРАЇЛІВ,станція ОДЕСА-ЛІСКИ,ОТСЕВ ГРАНИТНЫЙ ИЛИ КАМЕННЫЙ,108,125,49.0861866,28.1400596,46.522819,30.60268
станція БРАЇЛІВ,станція ОДЕСА-ЛІСКИ,ЩЕБЕНЬ ГРАНИТНЫЙ НЕ ПОИМЕНОВАННЫЙ В АЛФАВИТЕ,124,109.5,49.0861866,28.1400596,46.522819,30.60268
станція БРАЇЛІВ,станція РОГАТИН,ЩЕБЕНЬ ГРАНИТНЫЙ НЕ ПОИМЕНОВАННЫЙ В АЛФАВИТЕ,47,110,49.0861866,28.1400596,49.3997817,24.6214515
станція БРАЇЛІВ,станція ЦЕНЖІВ,ЩЕБЕНЬ ГРАНИТНЫЙ НЕ ПОИМЕНОВАННЫЙ В АЛФАВИТЕ,44,88,49.0861866,28.1400596,48.999803,24.596851
станція ВІННИЦЯ,станція ОДЕСА-ЛІСКИ,ЩЕБЕНЬ ГРАНИТНЫЙ НЕ ПОИМЕНОВАННЫЙ В АЛФАВИТЕ,99,133.5,49.239428,28.5106651,46.522819,30.60268
станція ВІННИЦЯ,станція ПОРОМНА,ЩЕБЕНЬ ГРАНИТНЫЙ НЕ ПОИМЕНОВАННЫЙ В АЛФАВИТЕ,48,148,49.239428,28.5106651,46.39689,30.656375
станція ВІННИЦЯ,станція СОКАЛЬ,ЩЕБЕНЬ ГРАНИТНЫЙ НЕ ПОИМЕНОВАННЫЙ В АЛФАВИТЕ,46,169,49.239428,28.5106651,50.4649598,24.2574808
станція ВІННИЦЯ,станція ТЕРНОПІЛЬ,ЩЕБЕНЬ ГРАНИТНЫЙ НЕ ПОИМЕНОВАННЫЙ В АЛФАВИТЕ,42,88,49.239428,28.5106651,49.56629,25.592613
станція ВОЗНЕСЕНСЬК,станція ОДЕСА-ЛІСКИ,ПЕСОК СТРОИТЕЛЬНЫЙ,268,72,47.573511,31.3238392,46.522819,30.60268
станція ГНІВАНЬ,станція АККАРЖА,ЩЕБЕНЬ ГРАНИТНЫЙ НЕ ПОИМЕНОВАННЫЙ В АЛФАВИТЕ,138,145,49.1023539,28.3299434,46.3322,30.55886
станція ГНІВАНЬ,станція БЕРЕЗОВИЦЯ-ОСТРІВ,ОТСЕВ ГРАНИТНЫЙ ИЛИ КАМЕННЫЙ,48,83,49.1023539,28.3299434,49.490776,25.605512
станція ГНІВАНЬ,станція ГУМЕНЦІ,ЩЕБЕНЬ ГРАНИТНЫЙ НЕ ПОИМЕНОВАННЫЙ В АЛФАВИТЕ,50,112,49.1023539,28.3299434,48.770473,26.606396
станція ГНІВАНЬ,станція ДАЧНЕ,ЩЕБЕНЬ ГРАНИТНЫЙ НЕ ПОИМЕНОВАННЫЙ В АЛФАВИТЕ,46,128,49.1023539,28.3299434,50.8093821,25.4025522
станція ГНІВАНЬ,станція КСЕНІЄВЕ,ЩЕБЕНЬ ГРАНИТНЫЙ НЕ ПОИМЕНОВАННЫЙ В АЛФАВИТЕ,49,106,49.1023539,28.3299434,46.36337,30.62144
станція ГНІВАНЬ,станція НАДВІРНА,ЩЕБЕНЬ ГРАНИТНЫЙ НЕ ПОИМЕНОВАННЫЙ В АЛФАВИТЕ,52,111,49.1023539,28.3299434,48.6242545,24.5847443
станція ГНІВАНЬ,станція ОДЕСА-ЛІСКИ,ОТСЕВ ГРАНИТНЫЙ ИЛИ КАМЕННЫЙ,48,130,49.1023539,28.3299434,46.522819,30.60268
станція ГНІВАНЬ,станція ОДЕСА-ТОВАРНА,ЩЕБЕНЬ ГРАНИТНЫЙ НЕ ПОИМЕНОВАННЫЙ В АЛФАВИТЕ,58,135,49.1023539,28.3299434,46.45531,30.71124
станція ГНІВАНЬ,станція РЯСНА II,ЩЕБЕНЬ ГРАНИТНЫЙ НЕ ПОИМЕНОВАННЫЙ В АЛФАВИТЕ,43,129,49.1023539,28.3299434,49.8636374,23.9381062
станція ГНІВАНЬ,станція САДГОРА,ЩЕБЕНЬ ГРАНИТНЫЙ НЕ ПОИМЕНОВАННЫЙ В АЛФАВИТЕ,50,80,49.1023539,28.3299434,48.332069,25.949382
станція ГНІВАНЬ,станція СОКАЛЬ,ЩЕБЕНЬ ГРАНИТНЫЙ НЕ ПОИМЕНОВАННЫЙ В АЛФАВИТЕ,47,96,49.1023539,28.3299434,50.4649598,24.2574808
станція ГНІВАНЬ,станція ТЕРНОПІЛЬ,ЩЕБЕНЬ ГРАНИТНЫЙ НЕ ПОИМЕНОВАННЫЙ В АЛФАВИТЕ,567,120,49.1023539,28.3299434,49.56629,25.592613
станція ГРАНІТНИЙ,станція ПЕРЕЯСЛАВСЬКА,ОТСЕВ ГРАНИТНЫЙ ИЛИ КАМЕННЫЙ,97,179,50.749028,29.347611,50.2639559,31.6561389
станція ЗАПОРІЖЖЯ-КАМ’ЯНСЬКЕ,станція НОВООЛЕКСІЇВКА,МУСОР ПОСТРОЕЧНЫЙ,52,91,48.4808925,34.6462622,46.209257,34.6323769
станція ЗАПОРІЖЖЯ-ЛІВЕ,станція КАЛАНЧАК,ШЛАКИ ДОМЕННЫЕ,404,150,47.86944,35.1917334,46.254876,33.465578
станція ЗАПОРІЖЖЯ-ЛІВЕ,станція КОЧУБЕЇВКА,ШЛАКИ ДОМЕННЫЕ,664,146,47.86944,35.1917334,49.741944,34.969722
станція ЗОЛОТНИШИНЕ,станція ХАРКІВ-СОРТУВАЛЬНИЙ,ЩЕБЕНЬ ГРАНИТНЫЙ НЕ ПОИМЕНОВАННЫЙ В АЛФАВИТЕ,159,151,49.018889,33.644722,50.030735,36.177962
станція ІГНАТПІЛЬ,станція АДАМПІЛЬ,ПЕСОК СТРОИТЕЛЬНЫЙ,51,142,51.144154,28.7288837,49.6683,27.67146
станція ІГНАТПІЛЬ,станція БРОВАРИ,ЩЕБЕНЬ ГРАНИТНЫЙ НЕ ПОИМЕНОВАННЫЙ В АЛФАВИТЕ,51,26,51.144154,28.7288837,50.5147282,30.8132567
станція ІГНАТПІЛЬ,станція ВИШНЕВЕ,ЩЕБЕНЬ ГРАНИТНЫЙ НЕ ПОИМЕНОВАННЫЙ В АЛФАВИТЕ,48,22,51.144154,28.7288837,50.384178,30.37057
станція КАМ’ЯНСЬКЕ,станція КАЛАНЧАК,ШЛАКИ ДОМЕННЫЕ,45,98,48.4974778,34.6042228,46.254876,33.465578
станція КЛЕСІВ,станція ГЛИННА-НАВАРІЯ,ЩЕБЕНЬ ГРАНИТНЫЙ НЕ ПОИМЕНОВАННЫЙ В АЛФАВИТЕ,43,56,51.3118938,26.8919075,49.734195,23.8989759
станція КЛЕСІВ,станція ГОРОДОК-ЛЬВІВСЬКИЙ,ЩЕБЕНЬ ГРАНИТНЫЙ НЕ ПОИМЕНОВАННЫЙ В АЛФАВИТЕ,287,148,51.3118938,26.8919075,49.789677,23.629894
станція КЛЕСІВ,станція ДУБЛЯНИ-ЛЬВІВСЬКІ,ЩЕБЕНЬ ГРАНИТНЫЙ НЕ ПОИМЕНОВАННЫЙ В АЛФАВИТЕ,44,79,51.3118938,26.8919075,49.882756,24.0938039
станція КЛЕСІВ,станція ЗАПИТІВ,ЩЕБЕНЬ ГРАНИТНЫЙ НЕ ПОИМЕНОВАННЫЙ В АЛФАВИТЕ,192,136,51.3118938,26.8919075,49.920035,24.2236161
станція КЛЕСІВ,станція ІЗОВ (ЕКСП. ПКП),ЩЕБЕНЬ ГРАНИТНЫЙ НЕ ПОИМЕНОВАННЫЙ В АЛФАВИТЕ,303,125,51.3118938,26.8919075,50.828474,24.059367
станція КЛЕСІВ,станція КОЧУБЕЇВКА,ЩЕБЕНЬ ГРАНИТНЫЙ НЕ ПОИМЕНОВАННЫЙ В АЛФАВИТЕ,153,48,51.3118938,26.8919075,49.741944,34.969722
станція КЛЕСІВ,станція КРАСНЕ,ЩЕБЕНЬ ГРАНИТНЫЙ НЕ ПОИМЕНОВАННЫЙ В АЛФАВИТЕ,173,132,51.3118938,26.8919075,49.9172135,24.6159582
станція КЛЕСІВ,станція МАГАЛА (РЗД),ЩЕБЕНЬ ГРАНИТНЫЙ НЕ ПОИМЕНОВАННЫЙ В АЛФАВИТЕ,47,149,51.3118938,26.8919075,48.288608,26.0245891
станція КЛЕСІВ,станція МИКОЛАЇВ-ДНІСТРОВСЬКИЙ,ЩЕБЕНЬ ГРАНИТНЫЙ НЕ ПОИМЕНОВАННЫЙ В АЛФАВИТЕ,46,122,51.3118938,26.8919075,49.5119481,23.9535355
станція КЛЕСІВ,станція МОСТИСЬКА II (ЕКСП. ПКП),ЩЕБЕНЬ ГРАНИТНЫЙ НЕ ПОИМЕНОВАННЫЙ В АЛФАВИТЕ,300,91,51.3118938,26.8919075,49.8166178,23.0325224
станція КЛЕСІВ,станція НАДВІРНА,ЩЕБЕНЬ ГРАНИТНЫЙ НЕ ПОИМЕНОВАННЫЙ В АЛФАВИТЕ,503,125,51.3118938,26.8919075,48.6242545,24.5847443
станція КЛЕСІВ,станція РАВА-РУСЬКА (ЕКСП. НА ВЕРХРАТУ),ЩЕБЕНЬ ГРАНИТНЫЙ НЕ ПОИМЕНОВАННЫЙ В АЛФАВИТЕ,95,98,51.3118938,26.8919075,50.2260935,23.6172155
станція КЛЕСІВ,станція РАДИВИЛІВ,ЩЕБЕНЬ ГРАНИТНЫЙ НЕ ПОИМЕНОВАННЫЙ В АЛФАВИТЕ,47,71,51.3118938,26.8919075,50.1284748,25.2516423
станція КЛЕСІВ,станція СОКАЛЬ,ЩЕБЕНЬ ГРАНИТНЫЙ НЕ ПОИМЕНОВАННЫЙ В АЛФАВИТЕ,880,133,51.3118938,26.8919075,50.4649598,24.2574808
станція КЛЕСІВ,станція ХОРОЛ,ЩЕБЕНЬ ГРАНИТНЫЙ НЕ ПОИМЕНОВАННЫЙ В АЛФАВИТЕ,100,143,51.3118938,26.8919075,49.7844376,33.2073584
станція КЛЕСІВ,станція ХРИПЛИН,ЩЕБЕНЬ ГРАНИТНЫЙ НЕ ПОИМЕНОВАННЫЙ В АЛФАВИТЕ,170,117,51.3118938,26.8919075,48.8851079,24.7468767
станція КЛЕСІВ,станція ХУСТ,ЩЕБЕНЬ ГРАНИТНЫЙ НЕ ПОИМЕНОВАННЫЙ В АЛФАВИТЕ,43,164,51.3118938,26.8919075,48.16053,23.29862
станція КЛЕСІВ,станція ЧЕРНІВЦІ-ПІВДЕННА,ЩЕБЕНЬ ГРАНИТНЫЙ НЕ ПОИМЕНОВАННЫЙ В АЛФАВИТЕ,43,98,51.3118938,26.8919075,48.265337,25.957599
станція КЛЕСІВ,станція ШКЛО-СТАРЖИСЬКА,ЩЕБЕНЬ ГРАНИТНЫЙ НЕ ПОИМЕНОВАННЫЙ В АЛФАВИТЕ,85,91,51.3118938,26.8919075,49.970053,23.5551111
станція КЛЕСІВ,станція ЯГОДИН (ЕКСП. ПКП),ЩЕБЕНЬ ГРАНИТНЫЙ НЕ ПОИМЕНОВАННЫЙ В АЛФАВИТЕ,309,95,51.3118938,26.8919075,51.198201,23.895884
станція КОРОЛЕВО,станція КОЛОМИЯ,ЩЕБЕНЬ ДЛЯ БАЛЛАСТИРОВКИ ЖЕЛЕЗНОДОРОЖНОГО ПУТИ,42,104,48.15354,23.1409201,48.53443,25.0600831
станція КОРОСТЕНЬ- ЖИТОМИРСЬКИЙ,станція КИЇВ-ВОЛИНСЬКИЙ,ЩЕБЕНЬ ГРАНИТНЫЙ НЕ ПОИМЕНОВАННЫЙ В АЛФАВИТЕ,445,76,50.960908,28.5927599,50.4121955,30.4301124
станція КОРОСТЕНЬ- ЖИТОМИРСЬКИЙ,станція КСЕНІЄВЕ,ЩЕБЕНЬ ГРАНИТНЫЙ НЕ ПОИМЕНОВАННЫЙ В АЛФАВИТЕ,61,167,50.960908,28.5927599,46.36337,30.62144
станція КОРОСТЕНЬ- ЖИТОМИРСЬКИЙ,станція МУКАЧЕВО,ЩЕБЕНЬ ГРАНИТНЫЙ НЕ ПОИМЕНОВАННЫЙ В АЛФАВИТЕ,61,109,50.960908,28.5927599,48.4295174,22.7116533
станція КОРОСТЕНЬ- ЖИТОМИРСЬКИЙ,станція ОДЕСА-ЗАСТАВА I,ЩЕБЕНЬ ГРАНИТНЫЙ НЕ ПОИМЕНОВАННЫЙ В АЛФАВИТЕ,287,92,50.960908,28.5927599,46.4776308,30.6545697
станція КОРОСТЕНЬ- ЖИТОМИРСЬКИЙ,станція ОДЕСА-ЛІСКИ,ОТСЕВ ГРАНИТНЫЙ ИЛИ КАМЕННЫЙ,157,212,50.960908,28.5927599,46.522819,30.60268
станція КОРОСТЕНЬ- ЖИТОМИРСЬКИЙ,станція ОДЕСА-ЛІСКИ,ЩЕБЕНЬ ГРАНИТНЫЙ НЕ ПОИМЕНОВАННЫЙ В АЛФАВИТЕ,41,106,50.960908,28.5927599,46.522819,30.60268
станція КОРОСТЕНЬ- ЖИТОМИРСЬКИЙ,станція ПЕРЕЯСЛАВСЬКА,ЩЕБЕНЬ ГРАНИТНЫЙ НЕ ПОИМЕНОВАННЫЙ В АЛФАВИТЕ,217,126,50.960908,28.5927599,50.2639559,31.6561389
станція КОРОСТЕНЬ- ЖИТОМИРСЬКИЙ,станція ПЕРСЕНКІВКА,ЩЕБЕНЬ ГРАНИТНЫЙ НЕ ПОИМЕНОВАННЫЙ В АЛФАВИТЕ,57,145,50.960908,28.5927599,49.8098013,24.030408
станція КОРОСТЕНЬ- ЖИТОМИРСЬКИЙ,станція СОКАЛЬ,ЩЕБЕНЬ ГРАНИТНЫЙ НЕ ПОИМЕНОВАННЫЙ В АЛФАВИТЕ,52,79,50.960908,28.5927599,50.4649598,24.2574808
станція КОРОСТЕНЬ- ЖИТОМИРСЬКИЙ,станція ХРИПЛИН,ЩЕБЕНЬ ГРАНИТНЫЙ НЕ ПОИМЕНОВАННЫЙ В АЛФАВИТЕ,61,143,50.960908,28.5927599,48.8851079,24.7468767
станція КРЕМЕНЧУК,станція ГРАКОВЕ,ОТСЕВ ГРАНИТНЫЙ ИЛИ КАМЕННЫЙ,97,106,49.0678972,33.4277227,49.7292217,36.8648588
станція КРЕМЕНЧУК,станція ГРАКОВЕ,ЩЕБЕНЬ ГРАНИТНЫЙ НЕ ПОИМЕНОВАННЫЙ В АЛФАВИТЕ,45,79,49.0678972,33.4277227,49.7292217,36.8648588
станція КРЕМЕНЧУК,станція СУПРУНІВКА,ОТСЕВ ГРАНИТНЫЙ ИЛИ КАМЕННЫЙ,95,105.5,49.0678972,33.4277227,49.587831,34.476587
станція КРЕМЕНЧУК,станція СУПРУНІВКА,ЩЕБЕНЬ ГРАНИТНЫЙ НЕ ПОИМЕНОВАННЫЙ В АЛФАВИТЕ,60,28,49.0678972,33.4277227,49.587831,34.476587
станція КРИВИН,станція ГОРОДОК-ЛЬВІВСЬКИЙ,ПЕСОК СТРОИТЕЛЬНЫЙ,102,136,50.361524,26.7001832,49.789677,23.629894
станція КРИВИН,станція ДАВИДІВ,ПЕСОК СТРОИТЕЛЬНЫЙ,43,51,50.361524,26.7001832,49.7431731,24.1471702
станція КРЮКІВ-НА-ДНІПРІ,станція ПОКРОВСЬК,ЩЕБЕНЬ ДЛЯ БАЛЛАСТИРОВКИ ЖЕЛЕЗНОДОРОЖНОГО ПУТИ,46,91,49.034444,33.435556,48.285102,37.1816185
станція НІКОПОЛЬ,станція КАЛАНЧАК,ШЛАКИ ЭЛЕКТРОПЕЧНЫЕ,46,151,47.5853703,34.3913662,46.254876,33.465578
станція НОВОУКРАЇНКА,станція КСЕНІЄВЕ,ЩЕБЕНЬ ГРАНИТНЫЙ НЕ ПОИМЕНОВАННЫЙ В АЛФАВИТЕ,60,157,48.3321208,31.5167007,46.36337,30.62144
станція НОВОУКРАЇНКА,станція ОДЕСА-ЗАСТАВА I,ЩЕБЕНЬ ГРАНИТНЫЙ НЕ ПОИМЕНОВАННЫЙ В АЛФАВИТЕ,359,96,48.3321208,31.5167007,46.4776308,30.6545697
станція НОВОУКРАЇНКА,станція ОДЕСА-ЛІСКИ,ОТСЕВ ГРАНИТНЫЙ ИЛИ КАМЕННЫЙ,455,148,48.3321208,31.5167007,46.522819,30.60268
станція НОВОУКРАЇНКА,станція ОДЕСА-ЛІСКИ,ЩЕБЕНЬ ГРАНИТНЫЙ НЕ ПОИМЕНОВАННЫЙ В АЛФАВИТЕ,858,98,48.3321208,31.5167007,46.522819,30.60268
станція ОЛЕКСАНДРІВКА,станція КАЛАНЧАК,ЩЕБЕНЬ ГРАНИТНЫЙ НЕ ПОИМЕНОВАННЫЙ В АЛФАВИТЕ,42,158,47.641152,31.300802,46.254876,33.465578
станція ОЛЕКСАНДРІВКА,станція КСЕНІЄВЕ,ПЕСОК СТРОИТЕЛЬНЫЙ,46,109,47.641152,31.300802,46.36337,30.62144
станція ОЛЕКСАНДРІВКА,станція ОДЕСА-ЛІСКИ,ПЕСОК СТРОИТЕЛЬНЫЙ,426,100,47.641152,31.300802,46.522819,30.60268
станція ОЛЕКСАНДРІВКА,станція ОДЕСА-ТОВАРНА,ОТСЕВ ГРАНИТНЫЙ ИЛИ КАМЕННЫЙ,46,96,47.641152,31.300802,46.45531,30.71124
станція ПЕНИЗЕВИЧІ,станція БРОВАРИ,ЩЕБЕНЬ ГРАНИТНЫЙ НЕ ПОИМЕНОВАННЫЙ В АЛФАВИТЕ,107,101,50.735632,29.371731,50.5147282,30.8132567
станція ПЕНИЗЕВИЧІ,станція ЗАСУЛЛЯ,ЩЕБЕНЬ ГРАНИТНЫЙ НЕ ПОИМЕНОВАННЫЙ В АЛФАВИТЕ,42,129,50.735632,29.371731,50.696226,33.4956691
станція ПЕНИЗЕВИЧІ,станція КОЗЯТИН II,ЩЕБЕНЬ ГРАНИТНЫЙ НЕ ПОИМЕНОВАННЫЙ В АЛФАВИТЕ,85,146.5,50.735632,29.371731,49.757071,28.783177
станція ПЕНИЗЕВИЧІ,станція ПИРЯТИН,ЩЕБЕНЬ ГРАНИТНЫЙ НЕ ПОИМЕНОВАННЫЙ В АЛФАВИТЕ,93,101,50.735632,29.371731,50.23819,32.5059299
станція ПЕНИЗЕВИЧІ,станція РЯСНА II,ПЕСОК СТРОИТЕЛЬНЫЙ,104,181.5,50.735632,29.371731,49.8636374,23.9381062
станція ПЕНИЗЕВИЧІ,станція ХУСТ,ЩЕБЕНЬ ГРАНИТНЫЙ НЕ ПОИМЕНОВАННЫЙ В АЛФАВИТЕ,41,163,50.735632,29.371731,48.16053,23.29862
станція ПЕНИЗЕВИЧІ,станція ЦЕНЖІВ,ПЕСОК СТРОИТЕЛЬНЫЙ,50,65,50.735632,29.371731,48.999803,24.596851
станція ПЕНИЗЕВИЧІ,станція ЯМНИЦЯ,ПЕСОК СТРОИТЕЛЬНЫЙ,44,154,50.735632,29.371731,48.9855201,24.7113369
станція ПОЛОННЕ,станція РЯСНА II,ЩЕБЕНЬ ГРАНИТНЫЙ НЕ ПОИМЕНОВАННЫЙ В АЛФАВИТЕ,46,153,50.1392993,27.488111,49.8636374,23.9381062
станція ПОМІЧНА,станція ЗАОСКІЛЛЯ,ЩЕБЕНЬ ГРАНИТНЫЙ НЕ ПОИМЕНОВАННЫЙ В АЛФАВИТЕ,43,207,48.2412797,31.4081962,49.708273,37.63754
станція ПОМІЧНА,станція ОДЕСА-ЛІСКИ,ОТСЕВ ГРАНИТНЫЙ ИЛИ КАМЕННЫЙ,52,139,48.2412797,31.4081962,46.522819,30.60268
станція ПОМІЧНА,станція ОДЕСА-ЛІСКИ,ЩЕБЕНЬ ГРАНИТНЫЙ НЕ ПОИМЕНОВАННЫЙ В АЛФАВИТЕ,316,139,48.2412797,31.4081962,46.522819,30.60268
станція ПОМІЧНА,станція ПЛАСТИ,ОТСЕВ ГРАНИТНЫЙ ИЛИ КАМЕННЫЙ,48,148,48.2412797,31.4081962,48.099349,37.355355
станція РЕДУТИ,станція П’ЯТИХАТКИ,ЩЕБЕНЬ ДЛЯ БАЛЛАСТИРОВКИ ЖЕЛЕЗНОДОРОЖНОГО ПУТИ,41,54,49.016034,33.56665,48.4150192,33.7040629
станція РОКИТНЕ,станція ГУБАРІВКА,ЩЕБЕНЬ ГРАНИТНЫЙ НЕ ПОИМЕНОВАННЫЙ В АЛФАВИТЕ,41,199,49.6956,30.5090999,50.14025,35.366708
станція РОКИТНЕ,станція КРОЛЕВЕЦЬ,ЩЕБЕНЬ ГРАНИТНЫЙ НЕ ПОИМЕНОВАННЫЙ В АЛФАВИТЕ,55,134,49.6956,30.5090999,51.5513099,33.3628093
станція РОКИТНЕ,станція ПЕРЕЯСЛАВСЬКА,ЩЕБЕНЬ ГРАНИТНЫЙ НЕ ПОИМЕНОВАННЫЙ В АЛФАВИТЕ,266,115,49.6956,30.5090999,50.2639559,31.6561389
станція РОКИТНЕ,станція ПЕТРО КРИВОНІС,ЩЕБЕНЬ ГРАНИТНЫЙ НЕ ПОИМЕНОВАННЫЙ В АЛФАВИТЕ,51,65,49.6956,30.5090999,50.354151,30.544861
станція РОКИТНЕ-ВОЛИНСЬКЕ,станція ПЕРСЕНКІВКА,ЩЕБЕНЬ ГРАНИТНЫЙ НЕ ПОИМЕНОВАННЫЙ В АЛФАВИТЕ,366,118,51.2710706,27.220723,49.8098013,24.030408
станція РОКИТНЕ-ВОЛИНСЬКЕ,станція СОКАЛЬ,ОТСЕВ ГРАНИТНЫЙ ИЛИ КАМЕННЫЙ,43,72,51.2710706,27.220723,50.4649598,24.2574808
станція РОСТУЩА,станція ПРИДОНЕЦЬКА,ЩЕБЕНЬ ГРАНИТНЫЙ НЕ ПОИМЕНОВАННЫЙ В АЛФАВИТЕ,196,88.5,47.8088516,35.2845533,48.896298,37.704072
станція РОСТУЩА,станція РУБІЖНЕ,ЩЕБЕНЬ ГРАНИТНЫЙ НЕ ПОИМЕНОВАННЫЙ В АЛФАВИТЕ,49,157,47.8088516,35.2845533,49.0241813,38.3538418
станція РОСТУЩА,станція ШПИЧКИНЕ,ОТСЕВ ГРАНИТНЫЙ ИЛИ КАМЕННЫЙ,93,104,47.8088516,35.2845533,48.753699,37.5595991
станція РОСТУЩА,станція ШПИЧКИНЕ,ЩЕБЕНЬ ГРАНИТНЫЙ НЕ ПОИМЕНОВАННЫЙ В АЛФАВИТЕ,149,71,47.8088516,35.2845533,48.753699,37.5595991
станція САХАРНА,станція ІЛАРІОНОВЕ,ЩЕБЕНЬ ДЛЯ БАЛЛАСТИРОВКИ ЖЕЛЕЗНОДОРОЖНОГО ПУТИ,41,66,48.642709,32.625862,48.4052689,35.2802166
станція СЛАВУТА I,станція ДАВИДІВ,ПЕСОК СТРОИТЕЛЬНЫЙ,53,137,50.32072,26.88511,49.7431731,24.1471702
станція СМОЛКА,станція БЕРЕЗОВИЦЯ-ОСТРІВ,ЩЕБЕНЬ ГРАНИТНЫЙ НЕ ПОИМЕНОВАННЫЙ В АЛФАВИТЕ,105,129,50.5478,27.66,49.490776,25.605512
станція СМОЛКА,станція ВОЛОВЕЦЬ,ЩЕБЕНЬ ГРАНИТНЫЙ НЕ ПОИМЕНОВАННЫЙ В АЛФАВИТЕ,256,129,50.5478,27.66,48.7137457,23.1846838
станція СМОЛКА,станція ДРОГОБИЧ,ЩЕБЕНЬ ГРАНИТНЫЙ НЕ ПОИМЕНОВАННЫЙ В АЛФАВИТЕ,110,149,50.5478,27.66,49.3551448,23.5434562
станція СМОЛКА,станція ЛУЦЬК,ЩЕБЕНЬ ГРАНИТНЫЙ НЕ ПОИМЕНОВАННЫЙ В АЛФАВИТЕ,41,117,50.5478,27.66,50.7579233,25.3506657
станція СМОЛКА,станція МУКАЧЕВО,ЩЕБЕНЬ ГРАНИТНЫЙ НЕ ПОИМЕНОВАННЫЙ В АЛФАВИТЕ,48,190,50.5478,27.66,48.4295174,22.7116533
станція СМОЛКА,станція НАДВІРНА,ЩЕБЕНЬ ГРАНИТНЫЙ НЕ ПОИМЕНОВАННЫЙ В АЛФАВИТЕ,214,175,50.5478,27.66,48.6242545,24.5847443
станція СМОЛКА,станція ОДЕСА-ЛІСКИ,ОТСЕВ ГРАНИТНЫЙ ИЛИ КАМЕННЫЙ,60,160,50.5478,27.66,46.522819,30.60268
станція СМОЛКА,станція ОЖИДІВ-ОЛЕСЬКО,ЩЕБЕНЬ ГРАНИТНЫЙ НЕ ПОИМЕНОВАННЫЙ В АЛФАВИТЕ,387,136,50.5478,27.66,49.971908,24.819727
станція СМОЛКА,станція РАДИВИЛІВ,ЩЕБЕНЬ ГРАНИТНЫЙ НЕ ПОИМЕНОВАННЫЙ В АЛФАВИТЕ,124,118,50.5478,27.66,50.1284748,25.2516423
станція СМОЛКА,станція САМБІР,ОТСЕВ ГРАНИТНЫЙ ИЛИ КАМЕННЫЙ,96,141,50.5478,27.66,49.5167877,23.2122175
станція СМОЛКА,станція САМБІР,ЩЕБЕНЬ ГРАНИТНЫЙ НЕ ПОИМЕНОВАННЫЙ В АЛФАВИТЕ,1076,141,50.5478,27.66,49.5167877,23.2122175
станція СМОЛКА,станція ХРИПЛИН,ЩЕБЕНЬ ГРАНИТНЫЙ НЕ ПОИМЕНОВАННЫЙ В АЛФАВИТЕ,101,131,50.5478,27.66,48.8851079,24.7468767
станція СМОЛКА,станція ЧЕРНІГІВ ПІВНІЧНИЙ,ЩЕБЕНЬ ГРАНИТНЫЙ НЕ ПОИМЕНОВАННЫЙ В АЛФАВИТЕ,108,174.5,50.5478,27.66,51.519809,31.248508
станція СОКОРИКИ,станція МАТІЇВЦІ,ЩЕБЕНЬ ГРАНИТНЫЙ НЕ ПОИМЕНОВАННЫЙ В АЛФАВИТЕ,54,127,51.019655,28.64205,48.4984887,25.1616737
станція СОКОРИКИ,станція НІЖИН,ЩЕБЕНЬ ГРАНИТНЫЙ НЕ ПОИМЕНОВАННЫЙ В АЛФАВИТЕ,45,97,51.019655,28.64205,51.0179091,31.8888883
станція СОКОРИКИ,станція САМБІР,ЩЕБЕНЬ ГРАНИТНЫЙ НЕ ПОИМЕНОВАННЫЙ В АЛФАВИТЕ,60,102,51.019655,28.64205,49.5167877,23.2122175
станція СОКОРИКИ,станція СОКАЛЬ,ОТСЕВ ГРАНИТНЫЙ ИЛИ КАМЕННЫЙ,60,161,51.019655,28.64205,50.4649598,24.2574808
станція СОКОРИКИ,станція ТЕРНОПІЛЬ,ЩЕБЕНЬ ГРАНИТНЫЙ НЕ ПОИМЕНОВАННЫЙ В АЛФАВИТЕ,51,66,51.019655,28.64205,49.56629,25.592613
станція СОКОРИКИ,станція ЯМНИЦЯ,ЩЕБЕНЬ ГРАНИТНЫЙ НЕ ПОИМЕНОВАННЫЙ В АЛФАВИТЕ,60,142,51.019655,28.64205,48.9855201,24.7113369
станція ТОВКАЧІВСЬКИЙ,станція ПОЧАЙНА,"ЩЕБЕНЬ,НЕ ПОИМЕНОВАННЫЙ В АЛФАВИТЕ",49,109,51.362212,28.844651,50.485104,30.500415
станція ТОМАШГОРОД,станція БЕРЕЗОВИЦЯ-ОСТРІВ,ЩЕБЕНЬ ГРАНИТНЫЙ НЕ ПОИМЕНОВАННЫЙ В АЛФАВИТЕ,134,75,51.3017,27.0707001,49.490776,25.605512
станція ТОМАШГОРОД,станція ІЗОВ (ЕКСП. ПКП),ЩЕБЕНЬ ГРАНИТНЫЙ НЕ ПОИМЕНОВАННЫЙ В АЛФАВИТЕ,41,66,51.3017,27.0707001,50.828474,24.059367
станція ТОМАШГОРОД,станція МОСТИСЬКА II (ЕКСП. ПКП),ЩЕБЕНЬ ГРАНИТНЫЙ НЕ ПОИМЕНОВАННЫЙ В АЛФАВИТЕ,252,139,51.3017,27.0707001,49.8166178,23.0325224
станція ТОМАШГОРОД,станція НАДВІРНА,ЩЕБЕНЬ ГРАНИТНЫЙ НЕ ПОИМЕНОВАННЫЙ В АЛФАВИТЕ,45,102,51.3017,27.0707001,48.6242545,24.5847443
станція ТОМАШГОРОД,станція ПІДЗАМЧЕ,ЩЕБЕНЬ ГРАНИТНЫЙ НЕ ПОИМЕНОВАННЫЙ В АЛФАВИТЕ,146,107,51.3017,27.0707001,49.8513992,24.0337885
станція ТОМАШГОРОД,станція СКНИЛІВ,ЩЕБЕНЬ ГРАНИТНЫЙ НЕ ПОИМЕНОВАННЫЙ В АЛФАВИТЕ,45,113,51.3017,27.0707001,49.818992,23.931606
станція ТОМАШГОРОД,станція СОКАЛЬ,ЩЕБЕНЬ ГРАНИТНЫЙ НЕ ПОИМЕНОВАННЫЙ В АЛФАВИТЕ,248,140,51.3017,27.0707001,50.4649598,24.2574808
станція ТОМАШГОРОД,станція ЯГОДИН (ЕКСП. ПКП),ЩЕБЕНЬ ГРАНИТНЫЙ НЕ ПОИМЕНОВАННЫЙ В АЛФАВИТЕ,550,70,51.3017,27.0707001,51.198201,23.895884
станція ТОПОРИЩЕ,станція БРОВАРИ,ЩЕБЕНЬ ГРАНИТНЫЙ НЕ ПОИМЕНОВАННЫЙ В АЛФАВИТЕ,51,116,50.5374181,28.6673157,50.5147282,30.8132567
станція ТОПОРИЩЕ,станція ОДЕСА-ЛІСКИ,ЩЕБЕНЬ ГРАНИТНЫЙ НЕ ПОИМЕНОВАННЫЙ В АЛФАВИТЕ,45,147,50.5374181,28.6673157,46.522819,30.60268
станція ТОПОРИЩЕ,станція ПЕРСЕНКІВКА,ЩЕБЕНЬ ГРАНИТНЫЙ НЕ ПОИМЕНОВАННЫЙ В АЛФАВИТЕ,49,48,50.5374181,28.6673157,49.8098013,24.030408
станція ТОПОРИЩЕ,станція ПОЧАЙНА,ЩЕБЕНЬ ГРАНИТНЫЙ НЕ ПОИМЕНОВАННЫЙ В АЛФАВИТЕ,43,67,50.5374181,28.6673157,50.485104,30.500415
станція ТОПОРИЩЕ,станція САДГОРА,ЩЕБЕНЬ ГРАНИТНЫЙ НЕ ПОИМЕНОВАННЫЙ В АЛФАВИТЕ,49,39,50.5374181,28.6673157,48.332069,25.949382
станція УШИЦЯ,станція БЕРЕЗОВИЦЯ-ОСТРІВ,ЩЕБЕНЬ ГРАНИТНЫЙ НЕ ПОИМЕНОВАННЫЙ В АЛФАВИТЕ,156,144,50.8063616,28.0648776,49.490776,25.605512
станція УШИЦЯ,станція БРОВАРИ,ЩЕБЕНЬ ГРАНИТНЫЙ НЕ ПОИМЕНОВАННЫЙ В АЛФАВИТЕ,45,110,50.8063616,28.0648776,50.5147282,30.8132567
станція УШИЦЯ,станція ВОЛОВЕЦЬ,ЩЕБЕНЬ ГРАНИТНЫЙ НЕ ПОИМЕНОВАННЫЙ В АЛФАВИТЕ,48,112,50.8063616,28.0648776,48.7137457,23.1846838
станція УШИЦЯ,станція ГАЛИЧ,ЩЕБЕНЬ ГРАНИТНЫЙ НЕ ПОИМЕНОВАННЫЙ В АЛФАВИТЕ,46,126,50.8063616,28.0648776,49.136842,24.732661
станція УШИЦЯ,станція ГЛІБОВИЧІ,ЩЕБЕНЬ ГРАНИТНЫЙ НЕ ПОИМЕНОВАННЫЙ В АЛФАВИТЕ,107,178,50.8063616,28.0648776,49.600774,24.230879
станція УШИЦЯ,станція КОЧУБЕЇВКА,ЩЕБЕНЬ ГРАНИТНЫЙ НЕ ПОИМЕНОВАННЫЙ В АЛФАВИТЕ,403,64.5,50.8063616,28.0648776,49.741944,34.969722
станція УШИЦЯ,станція КРАСНЕ,ЩЕБЕНЬ ГРАНИТНЫЙ НЕ ПОИМЕНОВАННЫЙ В АЛФАВИТЕ,53,83,50.8063616,28.0648776,49.9172135,24.6159582
станція УШИЦЯ,станція МАГАЛА (РЗД),ЩЕБЕНЬ ГРАНИТНЫЙ НЕ ПОИМЕНОВАННЫЙ В АЛФАВИТЕ,54,28,50.8063616,28.0648776,48.288608,26.0245891
станція УШИЦЯ,станція ОЖИДІВ-ОЛЕСЬКО,ЩЕБЕНЬ ГРАНИТНЫЙ НЕ ПОИМЕНОВАННЫЙ В АЛФАВИТЕ,130,159,50.8063616,28.0648776,49.971908,24.819727
станція УШИЦЯ,станція ПЕТРО КРИВОНІС,ЩЕБЕНЬ ГРАНИТНЫЙ НЕ ПОИМЕНОВАННЫЙ В АЛФАВИТЕ,51,73,50.8063616,28.0648776,50.354151,30.544861
станція УШИЦЯ,станція РАДИВИЛІВ,ОТСЕВ ГРАНИТНЫЙ ИЛИ КАМЕННЫЙ,43,141,50.8063616,28.0648776,50.1284748,25.2516423
станція УШИЦЯ,станція СТРИЙ,ЩЕБЕНЬ ГРАНИТНЫЙ НЕ ПОИМЕНОВАННЫЙ В АЛФАВИТЕ,53,38,50.8063616,28.0648776,49.2594767,23.8417718
станція УШИЦЯ,станція СУМИ,ЩЕБЕНЬ ГРАНИТНЫЙ НЕ ПОИМЕНОВАННЫЙ В АЛФАВИТЕ,50,180,50.8063616,28.0648776,50.926937,34.8087574
станція УШИЦЯ,станція СУПРУНІВКА,ЩЕБЕНЬ ГРАНИТНЫЙ НЕ ПОИМЕНОВАННЫЙ В АЛФАВИТЕ,348,74,50.8063616,28.0648776,49.587831,34.476587
станція УШИЦЯ,станція ХАРКІВ-СОРТУВАЛЬНИЙ,ОТСЕВ ГРАНИТНЫЙ ИЛИ КАМЕННЫЙ,50,173,50.8063616,28.0648776,50.030735,36.177962
станція УШИЦЯ,станція ХОДОВИЧІ,ЩЕБЕНЬ ГРАНИТНЫЙ НЕ ПОИМЕНОВАННЫЙ В АЛФАВИТЕ,98,146,50.8063616,28.0648776,49.292743,23.964737
станція УШИЦЯ,станція ХРИПЛИН,ЩЕБЕНЬ ГРАНИТНЫЙ НЕ ПОИМЕНОВАННЫЙ В АЛФАВИТЕ,190,179,50.8063616,28.0648776,48.8851079,24.7468767
станція ХЛИСТУНІВКА,станція ДЕВЛАДОВЕ,ОТСЕВ ГРАНИТНЫЙ ИЛИ КАМЕННЫЙ,56,62,49.20026,31.463592,48.10411,33.754161
станція ХЛИСТУНІВКА,станція ІЗМАЇЛ,ОТСЕВ ГРАНИТНЫЙ ИЛИ КАМЕННЫЙ,44,205,49.20026,31.463592,45.3600096,28.812532
станція ХЛИСТУНІВКА,станція СУПРУНІВКА,ЩЕБЕНЬ ГРАНИТНЫЙ НЕ ПОИМЕНОВАННЫЙ В АЛФАВИТЕ,47,122,49.20026,31.463592,49.587831,34.476587
станція ХЛИСТУНІВКА,станція ХАРКІВ-ВАНТАЖНИЙ,ЩЕБЕНЬ ГРАНИТНЫЙ НЕ ПОИМЕНОВАННЫЙ В АЛФАВИТЕ,49,163,49.20026,31.463592,49.847,36.2473
станція ХЛИСТУНІВКА,станція ХРИПЛИН,ОТСЕВ ГРАНИТНЫЙ ИЛИ КАМЕННЫЙ,41,92,49.20026,31.463592,48.8851079,24.7468767
станція ХЛІБОДАРІВКА,станція МЕРЦАЛОВЕ,ЩЕБЕНЬ ДЛЯ БАЛЛАСТИРОВКИ ЖЕЛЕЗНОДОРОЖНОГО ПУТИ,44,56,47.473472,37.406987,48.422879,37.221904
станція ШАТРИЩЕ,станція БЕРЕЗОВИЦЯ-ОСТРІВ,ЩЕБЕНЬ ГРАНИТНЫЙ НЕ ПОИМЕНОВАННЫЙ В АЛФАВИТЕ,53,79,50.934387,28.7155991,49.490776,25.605512
станція ШАТРИЩЕ,станція БОРИСПІЛЬ,ЩЕБЕНЬ ГРАНИТНЫЙ НЕ ПОИМЕНОВАННЫЙ В АЛФАВИТЕ,54,65,50.934387,28.7155991,50.3766975,30.9448324
станція ШАТРИЩЕ,станція БРОВАРИ,ЩЕБЕНЬ ГРАНИТНЫЙ НЕ ПОИМЕНОВАННЫЙ В АЛФАВИТЕ,41,93,50.934387,28.7155991,50.5147282,30.8132567
станція ШАТРИЩЕ,станція ІВАНО-ФРАНКІВСЬК,ЩЕБЕНЬ ГРАНИТНЫЙ НЕ ПОИМЕНОВАННЫЙ В АЛФАВИТЕ,60,143,50.934387,28.7155991,48.9251948,24.7235268
станція ШАТРИЩЕ,станція ПЕРСЕНКІВКА,ЩЕБЕНЬ ГРАНИТНЫЙ НЕ ПОИМЕНОВАННЫЙ В АЛФАВИТЕ,50,147,50.934387,28.7155991,49.8098013,24.030408
станція ШАТРИЩЕ,станція ПІДЗАМЧЕ,ЩЕБЕНЬ ГРАНИТНЫЙ НЕ ПОИМЕНОВАННЫЙ В АЛФАВИТЕ,155,201,50.934387,28.7155991,49.8513992,24.0337885
станція ШАТРИЩЕ,станція ХРИПЛИН,ЩЕБЕНЬ ГРАНИТНЫЙ НЕ ПОИМЕНОВАННЫЙ В АЛФАВИТЕ,171,115,50.934387,28.7155991,48.8851079,24.7468767
станція ШАТРИЩЕ,станція ЯМНИЦЯ,ЩЕБЕНЬ ГРАНИТНЫЙ НЕ ПОИМЕНОВАННЫЙ В АЛФАВИТЕ,921,189,50.934387,28.7155991,48.9855201,24.7113369
станція ЩЕБЕНЕВИЙ,станція ІЛАРІОНОВЕ,ЩЕБЕНЬ ДЛЯ БАЛЛАСТИРОВКИ ЖЕЛЕЗНОДОРОЖНОГО ПУТИ,91,149,47.311279,36.589664,48.4052689,35.2802166
